SAUS70 KWBC 042312 RRA
METAR
KFFA 042310Z AUTO 00000KT 10SM CLR 17/15 A3005 RMK AO2
     T01650151=
KFME 042309Z AUTO 13005KT 10SM CLR 22/12 A3001 RMK AO1=
KFQD 042310Z AUTO 18008KT 10SM CLR 24/15 A3006 RMK AO2=
KGEV 042310Z AUTO 14004KT 10SM CLR 20/12 A3012 RMK AO2
     T01950120=
KGWW 042315Z AUTO 00000KT 10SM CLR 24/15 A3005 RMK AO2
     T02350152=
KHBI 042305Z AUTO 22005KT 10SM CLR 25/14 A3007 RMK AO2
     T02530139=
KHNZ 042315Z AUTO 19004KT 10SM CLR 23/12 A3003 RMK AO2
     T02340118=
KHRJ 042305Z AUTO 16003KT 10SM CLR 25/15 A3005 RMK AO2
     T02520152=
