SAPA31 KWBC 042300 RRA
METAR
PKMR 042255Z 06009KT 20SM FEW015 SCT300 30/25 A2984 RMK SLP105
     T02980248=
