SPUS80 KWBC 042312
SPECI
KLXV 042309Z AUTO 28012KT 2 1/2SM -SN SCT015 BKN027 BKN085 M09/M14
     A2950 RMK AO2 SNB02 P0000 T10941139=
KUIL 042309Z AUTO VRB05KT 10SM BKN028 09/03 A3017 RMK AO2
     T00940028=
