FTUS80 KWBC 241503 AAA
TAF AMD
KBWI 241500Z 2415/2518 34004KT P6SM SCT060
     FM241700 29010G16KT P6SM BKN060
     FM242300 30007KT P6SM SCT060 SCT100
     FM250500 29004KT P6SM SCT100
     FM251400 32008KT P6SM FEW250=
KDCA 241459Z 2415/2518 33008KT P6SM FEW060
     FM241700 30011G17KT P6SM BKN060
     FM242300 30008KT P6SM SCT080 SCT250
     FM250500 33006KT P6SM FEW150
     FM251400 34007KT P6SM FEW200=
KDEN 241500Z 2415/2518 28007KT P6SM FEW090 SCT150 BKN200
     FM241600 VRB06KT P6SM FEW060 SCT100 BKN200
     FM242000 06007KT P6SM SCT060 BKN200
     FM250200 18008KT P6SM VCSH FEW030 SCT050 BKN100
     FM250700 20006KT P6SM SCT050 BKN100
     FM251000 VRB05KT P6SM VCFG FEW002 SCT010
     FM251500 05005KT P6SM VCSH SCT010 BKN020 OVC040=
KDRT 241500Z 2415/2512 VRB05KT P6SM OVC014
     FM242000 13010KT P6SM OVC022
     FM242300 13011KT P6SM OVC035
     FM250300 12010KT P6SM OVC015=
KFNT 241501Z 2415/2512 30013KT P6SM SCT025 BKN045 OVC070
      TEMPO 2415/2419 6SM -RA BKN025 OVC045
     FM242200 29005KT P6SM BKN070
     FM250300 30003KT P6SM FEW100=
KMEM 241501Z 2415/2518 05006KT P6SM FEW250
     FM241800 05010KT P6SM FEW250
     FM250200 08006KT P6SM SCT120
     FM250900 09004KT P6SM BKN100
     FM251500 09008KT P6SM BKN100=
KSAT 241501Z 2415/2518 05006KT P6SM FEW015 OVC021
     FM242100 10007KT P6SM OVC022
     FM250500 12006KT P6SM OVC015
     FM250800 11004KT 6SM BR OVC007=
