FTSA31 KWBC 241642
TAF
TAF SKBO 241630Z 2418/2518 28011KT 9999 SCT015
      TEMPO 2419/2422 DZ SCT015CB SCT020
      BECMG 2502/2504 VRB02KT
      TEMPO 2505/2509 DZ BKN017 TX20/2418Z TN10/2511Z=
TAF SKBQ 241630Z 2418/2518 05012KT 9999 FEW015
      TEMPO 2418/2421 DZRA FEW015TCU
      BECMG 2505/2507 VRB03KT TX32/2419Z TN25/2508Z=
TAF SKCG 241630Z 2418/2518 35014KT 9999 FEW017
      BECMG 2505/2507 VRB02KT TX32/2420Z TN25/2508Z=
TAF SKCL 241630Z 2418/2518 VRB04KT 9999 SCT020
      TEMPO 2419/2424 32010KT SCT020TCU PROB40
      TEMPO 2503/2506 DZ SCT020 BKN090 TX31/2420Z TN18/2511Z=
TAF SKLT 241630Z 2418/2518 28007KT 5000 TSRA SCT010CB SCT015
      BECMG 2419/2421 9999 DZ BKN010
      BECMG 2502/2504 VRB02KT NSW
      TEMPO 2509/2512 3000 BCFG TX27/2419Z TN22/2511Z=
TAF SKRG 241630Z 2418/2518 20008KT 9999 SCT018
      TEMPO 2419/2422 TS SCT020CB
      TEMPO 2422/2501 RA BKN015CB
      BECMG 2501/2503 VRB02KT BKN010
      TEMPO 2508/2512 4000 BCF BKN005
      BECMG 2513/2515 17010KT SCT017 TX23/2419Z TN13/2510Z=
TAF SKSP 241630Z 2418/2518 09006KT 9999 FEW018 TX31/2419Z
      TN26/2510Z=
