FTUS80 KWBC 241503 AAB
TAF AMD
KSEA 241500Z 2415/2518 23009KT P6SM SCT010 OVC015
      TEMPO 2415/2416 BKN009 OVC015
     FM241800 22008KT P6SM OVC035
     FM242200 02005KT P6SM BKN050
     FM250800 04005KT P6SM BKN025=
KSMX 241500Z 2415/2512 VRB03KT 1/2SM FG VV002
     FM241600 VRB03KT 4SM BR BKN004
     FM241700 32010KT P6SM SCT250
     FM242000 31015KT P6SM SCT250
     FM242300 31015G22KT P6SM SCT250
     FM250300 31012KT P6SM SCT250
     FM250400 31006KT 4SM BR BKN006
     FM250600 31005KT 2SM BR OVC003=
KSSF 241501Z 2415/2512 06005KT P6SM BKN022 OVC060
     FM242100 09007KT P6SM OVC022
     FM250500 12004KT P6SM OVC015
     FM250800 12005KT 6SM BR OVC007=
KTOL 241500Z 2415/2512 29010KT P6SM VCSH BKN035
     FM250000 VRB03KT P6SM SKC=
