FTUS80 KWBC 241527 AAA
TAF AMD
PAAQ 241524Z 2415/2512 VRB06KT P6SM SCT250
     FM241700 05009KT P6SM BKN100
     FM250000 15007KT P6SM SCT040 OVC070=
