FTCA33 KWBC 042312
TAF
TAF TLPC 042300Z 0500/0524 10009KT 9999 SCT024 PROB40
      TEMPO 0510/0518 5000 SHRA=
TAF TLPL 042300Z 0500/0524 10018KT 9999 SCT024 PROB40
      TEMPO 0510/0518 5000 SHRA=
