FTUS80 KWBC 241642 AAA
TAF AMD
KBUR 241639Z 2417/2512 16004KT P6SM OVC015
     FM241800 17005KT P6SM SCT015
     FM242000 17010KT P6SM SKC
     FM250300 17012G18KT P6SM SCT250
     FM250800 16006KT P6SM OVC008=
KSMX 241639Z 2417/2512 30008KT P6SM SCT004
     FM242000 31015KT P6SM SCT250
     FM242300 31015G22KT P6SM SCT250
     FM250300 31012KT P6SM SCT250
     FM250400 31006KT 4SM BR BKN006
     FM250600 31005KT 2SM BR OVC003=
