FTUS80 KWBC 241451 AAA
TAF AMD
KMSP 241448Z 2415/2518 33007KT P6SM SCT025 BKN070
     FM250200 04006KT P6SM SKC=
