FTPA31 PHFO 241513 AAA
TAFHNL
TAF AMD
PHNL 241513Z 2415/2518 35005KT P6SM SCT025 SCT045
     FM242100 20010KT P6SM SCT025 SCT035 BKN045
     FM250500 34007KT P6SM VCSH SCT020 BKN045
     FM251200 VRB05KT 6SM -SHRA BR SCT020 BKN035=
