FTUS80 KWBC 241509 AAA
TAF AMD
KBKW 241508Z 2415/2512 30006KT P6SM FEW060
     FM241700 30011G20KT P6SM SKC
     FM250000 32005KT P6SM SKC
     FM250400 00000KT P6SM SKC=
KCKB 241508Z 2415/2512 29006KT P6SM BKN060
     FM241700 29009G18KT P6SM BKN060
     FM242200 29009KT P6SM SCT060
     FM250400 00000KT P6SM FEW100=
KCRW 241508Z 2415/2512 27005G12KT P6SM SCT060
     FM241700 28008KT P6SM SCT080
     FM250300 00000KT P6SM SKC=
KEKN 241508Z 2415/2512 28009G16KT P6SM SCT070
     FM242000 29008G18KT P6SM SCT060
     FM250300 00000KT P6SM FEW100=
KHTS 241508Z 2415/2512 25004KT P6SM SCT080
     FM241600 30008KT P6SM SCT080
     FM250200 00000KT P6SM SKC=
KPKB 241508Z 2415/2512 26004G15KT P6SM BKN070
     FM242000 29008KT P6SM SCT050
     FM250300 00000KT P6SM SKC=
