FTSA41 KWBC 241642
TAF
TAF SKBG 241630Z 2418/2518 32007KT 9999 SCT010
      TEMPO 2421/2501 5000 DZ BCFG SCT015
      BECMG 2502/2504 00000KT
      TEMPO 2509/2512 2000 BCFG BKN008 TX27/2419Z TN19/2511Z=
TAF SKPE 241630Z 2418/2518 27005KT 9999 SCT020
      TEMPO 2419/2421 SCT020TCU
      TEMPO 2421/2424 SCT020CB PROB40
      TEMPO 2503/2506 DZ SCT015 BKN080 TX28/2420Z TN18/2511Z=
TAF SKSM 241630Z 2418/2518 34010KT 9999 FEW020
      BECMG 2503/2505 VRB03KT TX32/2419Z TN23/2510Z=
