FTCA35 KWBC 241506
TAF
TAF MZBZ 241505Z 2418/2518 08007KT 9999 FEW026=
