SAUS70 KWBC 241642
METAR
KLGC 241635Z AUTO 00000KT 10SM BKN095 OVC120 15/00 A3015 RMK AO2
     T01460000=
KLLN 241635Z AUTO 18011KT 6SM BR OVC006 07/06 A3006 RMK AO2=
KLNN 241635Z AUTO 28010G14KT 10SM SCT024 OVC080 06/M01 A3016 RMK
     AO1 T00561013=
KLNQ 241635Z AUTO 04010G20KT 10SM OVC090 22/14 A3004 RMK AO2
     T02190142=
KLOM 241635Z AUTO 30005KT 10SM SCT055 13/M01 A3007 RMK AO2
     T01261014=
KLRJ 241635Z AUTO 06009KT 10SM FEW100 12/M07 A3007 RMK AO2=
KLUL 241635Z AUTO 03007KT 10SM OVC095 16/04 A3015 RMK A02
     T01590041=
KLXN 241635Z AUTO 23011G17KT 10SM CLR 16/00 A2997 RMK AO2
     T01640002=
KLYO 241635Z AUTO 20012G19KT 10SM BKN100 13/M01 A3010 RMK AO2
     T01331013=
KMDD 241635Z AUTO 15011KT 10SM 10/07 A3006 RMK AO2 T00990069=
KMDQ 241635Z AUTO 10SM CLR 14/M02 A3021 RMK A02 T01371021=
KMGC 241635Z AUTO 31008G14KT 280V340 10SM SCT070 07/M05 A3022 RMK
     AO2=
KMHP 241635Z AUTO 06009KT 7SM CLR 22/06 A3008 RMK AO2
     T02190060=
KMJD 241635Z AUTO 05008KT 10SM FEW070 BKN090 16/08 A3009 RMK
     AO2=
KMLE 241635Z AUTO 13004KT 10SM SCT110 12/M01 A3006 RMK AO2
     T01161009=
KMLJ 241635Z AUTO 00000KT 10SM SCT110 16/04 A3012 RMK AO2=
KMNH 241635Z AUTO 31008KT 10SM CLR 10/M03 A2995 RMK AO2=
KMNZ 241635Z AUTO 13007KT 10SM OVC047 15/09 A3014 RMK AO2
     T01450086=
KMPR 241635Z AUTO 20016G23KT 10SM CLR 16/00 A3010 RMK AO2
     T01580002=
KMPZ 241635Z AUTO 22010KT 10SM CLR 13/M03 A3018 RMK AO2=
KMQW 241635Z AUTO 07004KT 10SM CLR 23/08 A3011 RMK AO2
     T02320077=
KMUT 241635Z AUTO 18007KT 150V220 10SM 12/M04 A3019 RMK AO2=
KMWO 241635Z AUTO 27008KT 10SM SCT046 OVC060 07/M04 A3025 RMK AO2
     T00731042=
KMZZ 241635Z AUTO 30010KT 10SM BKN055 OVC075 07/M04 A3023 RMK AO2
     T00671045=
KNRN 241635Z AUTO 23017G23KT 10SM CLR 17/01 A3001 RMK AO2=
KOBE 241635Z AUTO 16005G10KT 10SM CLR 29/20 A2994 RMK AO2=
KOGA 241635Z AUTO 07005KT 10SM CLR 17/M01 A2991 RMK AO2
     T01671006=
KOGS 241635Z AUTO 25003KT 9SM FEW016 SCT026 BKN041 07/05 A3002 RMK
     AO2=
KOKM 241635Z AUTO 17010G18KT 10SM CLR 17/03 A3017 RMK AO2
     T01670032=
KOKZ 241635Z AUTO 01007KT 10SM SCT100 18/05 A3011 RMK AO2
     T01850050=
KOLZ 241635Z AUTO 28009KT 10SM FEW080 10/M05 A3014 RMK A01=
KONL 241635Z AUTO 11013G18KT 10SM CLR 12/M06 A3003 RMK AO2
     T01221057=
KOPL 241635Z AUTO 06007G14KT 10SM SCT100 17/09 A3011 RMK AO2
     T01690094=
KORG 241635Z AUTO 08009KT 10SM SCT095 20/09 A3010 RMK AO2
     T02020094=
KDNS 241635Z AUTO RMK AO2 PNO PWINO=
KDQH 241635Z AUTO 04006KT 10SM CLR 20/08 A3009 RMK AO2
     T01970078=
KDUC 241635Z AUTO 14012KT 10SM BKN070 OVC080 14/02 A3017 RMK AO2
     T01450023=
KDUX 241635Z AUTO 16017G20KT 10SM OVC020 08/02 A3002 RMK AO2
     T00840022=
KDVO 241635Z AUTO VRB04KT 10SM CLR 15/07 A2999 RMK AO2=
KDZJ 241635Z AUTO 29003KT 10SM CLR 13/M04 A3015 RMK AO2
     T01291038=
KE16 241635Z AUTO 16005KT 10SM OVC006 10/09 A3004 RMK AO2=
KE38 241635Z AUTO 22008KT 10SM CLR 18/07 A3006 RMK AO2
     T01770066=
KE41 241635Z AUTO 12009KT 10SM OVC006 10/08 A3008 RMK AO2
     T01050082=
KEBA 241635Z AUTO 00000KT 10SM OVC090 15/02 A3013 RMK AO2
     T01530024=
KECU 241635Z AUTO VRB06KT 10SM OVC009 14/11 A3009 RMK AO2=
KEGT 241635Z AUTO 22012G19KT 10SM CLR 16/00 A3013 RMK AO2
     T01560002=
KENL 241635Z AUTO 00000KT 10SM CLR 12/01 A3026 RMK AO2
     T01190005=
KEOK 241635Z AUTO VRB05KT 10SM SCT075 BKN090 12/M02 A3019 RMK
     A01=
KERV 241635Z AUTO 05007KT 020V080 10SM OVC014 14/10 A3009 RMK AO2
     T01390102=
KEZZ 241635Z AUTO 20014KT 10SM SCT100 14/M01 A3014 RMK AO2
     T01411007=
