SASA31 KWBC 241500
METAR
SEGU 241500Z VRB02KT 9999 SCT020 29/24 Q1011 NOSIG RMK A2987=
SEGU 241500Z NIL=
SEQM 241500Z 32003KT 250V060 9999 FEW026 SCT300 18/11 Q1028 NOSIG
     RMK A3037=
SEQU NIL=
SKBO 241500Z 32004KT 9999 BKN020 17/11 Q1028 NOSIG RMK A3037=
SKBQ 241500Z 03007KT 340V080 9999 FEW015 30/22 Q1012 NOSIG RMK
     A2991=
SKCG 241500Z 33007KT 300V060 9999 FEW015 BKN200 29/23 Q1012 RMK
     A2989=
SKCL 241500Z VRB02KT 5000 BR SCT012 BKN200 23/22 Q1018 NOSIG RMK
     A3007=
SKLT 241500Z 35007KT 1500 +RA OVC003 24/24 Q1013 RMK A2992=
SKRG 241500Z 18008KT 9999 SCT015 SCT090 19/14 Q1027 NOSIG RMK
     A3034=
SKSP 241500Z 11006KT 030V170 9999 FEW020 30/22 Q1013 RMK A2993=
SMNI NIL=
SMZO 241500Z 10004KT 9999 FEW012 28/22 Q1012 NOSIG=
SMZO 241500Z NIL=
SMZY NIL=
SOCA 241500Z AUTO 34006KT 310V020 9999 BKN047/// BKN096///
     BKN130/// ///TCU 29/24 Q1013 TEMPO 1000 TSRA BKN010CB=
SPJC 241500Z 18014KT CAVOK 26/18 Q1012 NOSIG RMK BIRD HAZARD RWY
     16 PP000=
SPQT 241500Z VRB02KT 9999 BKN012 BKN100 26/24 Q1013 NOSIG RMK
     PP000=
SPQU 241500Z 24004KT 180V290 CAVOK 17/05 Q1028 NOSIG RMK PP000=
SPSO 241500Z 23009KT 9999 BKN060 25/19 Q1012 RMK BIRD HAZARD RWY
     22/04 PP000=
SPTN 241500Z 22008KT CAVOK 23/13 Q1017 RMK PP000=
SPYL 241500Z 20004KT 9999 SCT025 29/23 Q1012 RMK BIRD HAZARD RWY
     17/35 PP000=
SPZO 241500Z VRB02KT 9999 VCSH FEW030 SCT040 BKN100 13/06 Q1034
     NOSIG RMK BIRD HAZARD RWY 10/28 PP000=
SVBC NIL=
SVMC 241500Z 04010KT 9999 BKN030 //// Q1012=
SVMG NIL=
SVMI 241500Z 18005KT 9999 FEW016 SCT080 29/21 Q1013=
SYCJ 241500Z 22006KT 9999 BKN018 32/24 Q1011 NOSIG=
SYTM NIL=
