SAUS70 KWBC 241524
METAR
TJPS 241515Z AUTO 18007KT 10SM CLR 29/19 A2989 RMK AO2 TSNO=
KOSC 241515Z AUTO 27009KT 10SM SCT036 OVC046 06/M03 A3010 RMK AO2
     T00571030=
KDUX 241515Z AUTO 17017G20KT 10SM BKN020 OVC026 08/02 A3003 RMK
     AO2 T00750020=
KE16 241515Z AUTO 00000KT 2 1/2SM BR OVC003 09/09 A3003 RMK
     AO2=
KECU 241515Z AUTO 08008KT 10SM 11/10 A3012 RMK AO2=
KERV 241515Z AUTO 05003KT 10SM OVC010 12/10 A3010 RMK AO2
     T01200095=
KF00 241515Z AUTO 11010KT 10SM OVC100 14/03 A3019 RMK AO2
     T01390032=
KFMM 241515Z AUTO 00000KT 10SM CLR 07/M02 A2991 RMK AO2=
KGDJ 241515Z AUTO 09007KT 10SM OVC080 12/06 A3017 RMK AO2
     T01180057=
KLLN 241515Z AUTO 16007KT 5SM BR OVC005 06/05 A3008 RMK AO2=
KLMO 241515Z AUTO 22003KT 10SM CLR 09/M01 A2994 RMK AO2
     T00891008=
KMDD 241515Z AUTO 13008KT 10SM OVC007 09/07 A3009 RMK AO2
     T00860070=
KMNH 241515Z AUTO 29005KT 10SM CLR 07/M02 A2996 RMK AO2=
KOZA 241515Z AUTO 10SM OVC006 10/08 A3012 RMK AO2=
KPEQ 241515Z AUTO 08006KT 10SM OVC015 10/07 A3007 RMK AO2
     T01020066=
KPOY 241515Z AUTO 11004KT 10SM CLR 10/M08 A2980 RMK AO2=
KPSO 241515Z AUTO 00000KT 5SM -RA SCT005 BKN011 OVC024 03/03 A3003
     RMK AO2 T00280028=
KPVW 241515Z AUTO 16011KT 10SM OVC010 06/03 A3007 RMK AO2
     T00610034=
KRAS 241515Z AUTO 04016G21KT 10SM SCT014 18/14 A3006 RMK AO2
     T01820141=
KRBO 241515Z AUTO 05010KT 10SM CLR 17/13 A3005 RMK AO2
     T01720133=
KRWV 241515Z AUTO 04005KT 10SM OVC044 13/08 A3013 RMK AO2
     T01310081=
KS33 241515Z AUTO 00000KT 10SM BKN039 OVC065 A3006 RMK AO2=
KSAA 241515Z AUTO 11005KT 10SM CLR 06/M05 A2994 RMK AO2=
KSBS 241515Z AUTO 00000KT 10SM SCT065 00/M04 A2996 RMK AO1
     T10011040=
KSWW 241515Z AUTO 17006KT 10SM OVC019 11/11 A3013 RMK AO2
     T01130113=
KT20 241515Z AUTO 03005KT 10SM OVC024 15/11 A3011 RMK AO2
     T01510110=
KW43 241515Z AUTO 00000KT 10SM CLR 07/M03 A2988 RMK AO2=
KENL 241515Z AUTO 00000KT 10SM CLR 10/00 A3027 RMK AO2
     T01011005=
KFEP 241515Z AUTO 27008KT 10SM BKN065 08/M01 A3022 RMK AO2
     T00781011=
KFET 241515Z AUTO 08005KT 10SM CLR 09/00 A3006 RMK AO2
     T00921002=
KFKR 241515Z AUTO 25009KT 10SM CLR 07/M04 A3022 RMK AO2=
KFOA 241515Z AUTO 20005KT 10SM CLR 09/M03 A3027 RMK AO2=
KFSW 241515Z AUTO 19006KT 10SM 11/M03 A3020 RMK AO2=
KFWC 241515Z AUTO 00000KT 10SM CLR 09/M02 A3026 RMK AO1
     T00931024=
KFXY 241515Z AUTO 28004KT 10SM CLR 07/M01 A3014 RMK AO2=
KGBG 241515Z AUTO 25004KT 10SM SCT100 11/00 A3023 RMK AO2
     T01061002 TSNO=
KLOM 241515Z AUTO 33006KT 10SM SCT049 11/00 A3008 RMK AO2
     T01141002=
KLRJ 241515Z AUTO 15005KT 10SM BKN100 09/M01 A3008 RMK AO2=
KMLE 241515Z AUTO 16005KT 10SM BKN090 09/M01 A3007 RMK AO2
     T00921013=
KMPZ 241515Z AUTO 20005KT 10SM CLR 10/M03 A3021 RMK AO2=
KMUT 241515Z AUTO 23008KT 10SM FEW085 11/M05 A3022 RMK AO2=
KN03 241515Z AUTO 30004KT 10SM SCT027 SCT038 OVC045 06/00 A3006
     RMK AO2=
KOGA 241515Z AUTO 00000KT 10SM CLR 10/M04 A2992 RMK AO2
     T00971036=
KOGS 241515Z AUTO 29004KT 6SM -RA BKN029 06/04 A3002 RMK AO2=
KOLZ 241515Z AUTO 22010G17KT 10SM CLR 08/M03 A3016 RMK A01=
KRCR 241515Z AUTO 30009G14KT 10SM FEW044 SCT060 BKN065 07/M04
     A3021 RMK AO2=
KRDK 241515Z AUTO 17008G17KT 10SM BKN100 11/M00 A3008 RMK AO2=
KRPJ 241515Z AUTO 28008KT 10SM CLR 08/M01 A3022 RMK AO2 T00751010
     TSNO=
KRZT 241515Z AUTO 31008KT 10SM SCT043 BKN060 07/M02 A3021 RMK AO2
     PWINO=
KSDA 241515Z AUTO 21013KT 10SM CLR 12/M01 A3007 RMK AO2=
KSHL 241515Z AUTO VRB04KT 10SM CLR 08/M03 A3009 RMK AO2=
KVWU 241515Z AUTO 00000KT 10SM CLR 02/M02 A3016 RMK AO2=
