SAUS70 KWBC 241500 RRL
METAR
KMNI 241455Z AUTO 02006KT 10SM OVC090 15/03 A3012 RMK AO2=
KMNN 241453Z AUTO 35008KT 8SM FEW020 BKN050 OVC065 05/M01 A3017
     RMK AO2 SLP224 T00501006 52009=
KMOD 241453Z 35006KT 10SM CLR 15/06 A2993 RMK AO2 SLP133 T01500056
     53008=
KMOP 241455Z AUTO 27008G14KT 10SM SCT045 BKN055 07/M04 A3013 RMK
     AO2 T00681045=
KMPO 241453Z AUTO 30010G14KT 10SM FEW042 08/M02 A3002 RMK AO2
     SLP176 T00781022 56001=
KMQJ 241455Z AUTO 30010G14KT 10SM CLR 10/M01 A3024 RMK AO1=
KMRB 241453Z 29011KT 10SM FEW070 10/M02 A3011 RMK AO2 SLP198
     T01001022 58003=
KMSL 241453Z AUTO 08009KT 10SM CLR 13/01 A3022 RMK AO2 SLP231
     T01280011 50010=
KMSP 241453Z 02005KT 10SM SCT025 06/M01 A3015 RMK AO2 SLP217
     T00611011 50001=
KMSS 241453Z AUTO 25008KT 8SM -RA FEW009 OVC015 06/04 A3004 RMK
     AO2 SLP176 P0001 60002 T00560039 53011=
KMSY 241453Z 04012KT 10SM OVC085 16/09 A3008 RMK AO2 SLP190 60000
     T01610094 51011=
KMTH 241453Z AUTO 18004KT 10SM CLR 31/22 A2996 RMK AO2 SLP145
     T03060222 51017=
KMTJ 241453Z AUTO 15008KT 10SM BKN060 OVC075 09/02 A2997 RMK AO2
     SLP110 T00890022 51002=
KMTO 241453Z AUTO VRB04KT 10SM CLR 08/M03 A3025 RMK AO2 SLP247
     T00831033 51008=
KMVY 241453Z 00000KT 10SM SCT015 13/07 A3002 RMK AO2 SLP165
     T01280072 50006=
KMWL 241453Z AUTO 14006KT 10SM SCT060 BKN085 13/06 A3014 RMK AO2
     SLP203 T01280056 50005=
KMYF 241453Z 14003KT 7SM OVC013 14/10 A2990 RMK AO2 SLP122
     T01390100 51005=
KMYJ 241455Z AUTO 13007KT 10SM CLR 10/M02 A3022 RMK AO2=
KMYV 241453Z AUTO 00000KT 10SM CLR 15/10 A2994 RMK AO2 SLP142
     T01500100 53013=
KN38 241455Z AUTO 26007KT 220V280 10SM BKN032 OVC040 05/M01 A3004
     RMK AO2=
KNEW 241453Z 05014KT 10SM OVC090 17/11 A3009 RMK AO2 RAB25E37
     SLP183 P0000 60000 T01670106 51014=
KOAK 241453Z 21007KT 10SM FEW011 SCT200 11/09 A3001 RMK AO2 SLP160
     T01110089 53007=
PAAQ 241453Z AUTO 00000KT 10SM CLR M03/M10 A2953 RMK AO2 SLP002
     T10281100 53009 TSNO=
PABR 241453Z 03006KT 4SM BR OVC004 M18/M19 A3067 RMK AO2 SLP388
     I1000 I3000 T11781194 58017 $=
PACV 241453Z 00000KT 10SM OVC045 03/01 A2943 RMK AO2 SLP965 60000
     T00280011 53005=
PAEG 241453Z AUTO VRB04KT 10SM OVC045 M14/M23 A3004 RMK AO2 SLP196
     T11391233 56015 TSNO=
PAEN 241453Z 00000KT 10SM CLR M06/M09 A2958 RMK AO2 SLP020
     T10611094 55000 $=
PAGK 241453Z AUTO 14004KT 10SM OVC036 M08/M12 A2961 RMK AO2 SLP062
     T10831122 53000 TSNO $=
PAGY 241453Z AUTO 19016G22KT 10SM -RA BKN055 OVC070 06/04 A2959
     RMK AO2 PK WND 21029/1434 SLP020 P0001 60003 T00610039 51008
     TSNO=
PAIL 241453Z 00000KT 10SM CLR M14/M16 A2974 RMK AO2 SLP075
     T11391161 58001 $=
PAKT 241453Z 14006KT 8SM -RA SCT006 BKN012 OVC017 07/05 A2985 RMK
     AO2 RAB31 SLP109 HARBOR WIND 13014KT P0001 60005 T00670050
     53011=
PAKV 241453Z AUTO 04016G23KT 10SM CLR M09/M17 A3006 RMK AO2 SLP184
     T10941172 56012 TSNO=
PAKW 241453Z AUTO 18007KT 10SM BKN036 OVC045 05/02 A2980 RMK AO2
     RAB15E32 SLP091 P0001 60002 T00500022 51008 TSNO=
PALH 241453Z AUTO 32004KT 10SM CLR M05/M12 A2957 RMK AO2 SLP013
     T10501122 52003 TSNO=
PAMR 241453Z 00000KT 10SM FEW130 SCT200 M04/M12 A2956 RMK AO2
     SLP012 T10441117 53003=
KPEO 241453Z AUTO 06004KT 10SM SCT032 BKN042 BKN080 08/02 A3005
     RMK AO2 SLP182 T00830017 58001=
KPGD 241453Z 11008KT 10SM FEW045 26/22 A2998 RMK AO2 SLP152
     T02610217 51010=
KPHD 241453Z AUTO 28006KT 10SM SCT041 BKN050 OVC065 06/M02 A3015
     RMK AO2 SLP214 T00611017 51004=
KPIE 241453Z 10009KT 10SM CLR 24/20 A2997 RMK AO2 SLP149 T02390200
     50002=
