SAUS80 KWBC 241500 CCA
METAR
KCQC 241453Z AUTO 21013KT 10SM CLR 08/M01 A3000 RMK AO2 SLP120
     T00831006 58004=
