SAUS80 KWBC 241642
METAR
KEHA 241635Z AUTO 19022G26KT 10SM OVC030 10/02 A2999 RMK AO2
     T00970024=
KGIC 241635Z AUTO 07003KT 10SM SCT016 BKN023 OVC037 02/02 A2995
     RMK AO1=
KIZA 241635Z AUTO 00000KT 10SM OVC008 12/11 A2995 RMK AO2=
KPSN 241635Z AUTO 07008KT 10SM BKN100 17/08 A3012 RMK AO2=
KSOA 241635Z AUTO 00000KT 10SM BKN012 13/09 A3012 RMK AO2=
K9MN 241635Z AUTO 26008G17KT 10SM SCT015 BKN060 OVC080 05/M02
     A3015 RMK AO1 T00541022=
K9V9 241635Z AUTO 12010G14KT 10SM CLR 13/M07 A3005 RMK AO2
     T01261074=
KVTI 241635Z AUTO 20006KT 10SM BKN095 BKN120 13/M04 A3015 RMK AO2
     T01321038=
K40U 241635Z AUTO 10007KT 10SM CLR 09/M03 A2992 RMK AO2
     T00871030=
