SAUS70 KWBC 241500 RRF
METAR
KEAU 241456Z 05003KT 10SM OVC050 04/M03 A3014 RMK AO2 SLP214
     T00441033 51006=
KEDN 241455Z AUTO 01004KT 10SM BKN120 15/08 A3011 RMK AO2
     T01470083 PWINO=
KEED 241456Z AUTO 03003KT 10SM CLR 25/02 A2977 RMK AO2 SLP052
     T02500017 51022=
KEKO 241456Z AUTO 23003KT 10SM BKN120 04/03 A2991 RMK AO2 SLP123
     T00440033 56005=
KEKS 241455Z AUTO 18017KT 10SM FEW048 FEW060 SCT070 07/M03 A2985
     RMK AO2=
KELZ 241456Z AUTO 23009KT 10SM SCT025 SCT030 BKN036 06/M01 A3004
     RMK AO2 SLP188 T00561011 53000=
KF05 241455Z AUTO 17007KT 10SM OVC060 11/05 A3017 RMK AO2
     T01130045=
KF44 241455Z AUTO 07004KT 10SM OVC095 11/05 A3015 RMK AO2=
KFLY 241455Z AUTO 29006KT 10SM SCT110 08/M02 A2994 RMK AO2
     T00841025=
KFTN 241455Z AUTO VRB06KT 10SM OVC013 15/12 A3010 RMK A01=
KFYE 241455Z AUTO VRB04KT 10SM CLR 13/01 A3022 RMK A01=
KFYM 241455Z AUTO 02007G15KT 350V050 10SM CLR 11/M01 A3023 RMK
     A01=
KGCY 241455Z AUTO 00000KT 10SM CLR 08/M04 A3018 RMK A01=
KGKT 241455Z AUTO 00000KT 10SM CLR 11/M01 A3021 RMK A01=
KGON 241456Z 20008KT 10SM BKN020 12/08 A3003 RMK AO2 SLP168
     T01220078 53004 $=
KGOO 241455Z AUTO 00000KT 10SM CLR 15/06 A2997 RMK A01=
KGRD 241456Z AUTO 04008KT 10SM OVC090 13/02 A3016 RMK AO2 SLP209
     T01330017 51015=
KGRN 241455Z AUTO 13009KT 10SM CLR 06/M07 A2994 RMK AO2
     T00641069=
KGZS 241455Z AUTO VRB03KT 10SM CLR 12/02 A3022 RMK A01=
KHFJ 241455Z AUTO 15008KT 10SM CLR 11/M01 A3019 RMK AO2=
KHHF 241455Z AUTO 19012G21KT 10SM OVC039 09/02 A3010 RMK AO2
     T00900018=
KHLB 241455Z AUTO VRB05G14KT 10SM SCT039 06/M04 A3023 RMK A01=
KHOB 241450Z 14011G17KT 10SM BKN009 OVC012 08/06 A3005=
KHPN 241456Z VRB03KT 10SM BKN036 11/03 A3004 RMK AO2 SLP172
     T01110028 50003=
KHRX 241455Z AUTO 21010KT 10SM SCT015 OVC022 08/04 A3006 RMK AO2
     T00770035=
KHSD 241455Z AUTO 19010G18KT 10SM CLR 13/03 A3015 RMK A01=
KHSG 241455Z AUTO 19003KT 10SM CLR 08/M05 A2982 RMK AO2
     T00831047=
KHWV 241456Z AUTO 32006KT 10SM FEW080 13/04 A3005 RMK AO2 SLP175
     T01280039 53003=
KHYA 241456Z 32004KT 10SM OVC008 09/07 A3001 RMK AO2 SLP164
     T00940072 51012=
KHYW 241455Z AUTO 00000KT 10SM CLR 14/08 A3011 RMK AO2=
KHZD 241455Z AUTO 05004KT 10SM CLR 12/01 A3024 RMK A01=
KHZX 241455Z AUTO 03003KT 10SM SCT085 03/M03 A3015 RMK AO2=
KI16 241455Z AUTO 10SM BKN046 09/M03 A3021 RMK AO2 T00931026=
KIFA 241455Z AUTO 18005KT 10SM CLR 09/00 A3016 RMK AO2
     T00901005=
KIFP 241445Z AUTO 02009KT 10SM CLR 24/03 A2975 RMK AO2=
KIMM 241455Z AUTO 09006KT 10SM FEW027 FEW070 FEW090 A2996 RMK
     AO2=
KIMS 241455Z AUTO 29005KT 10SM SCT045 06/M03 A3027 RMK AO2=
KINJ 241455Z AUTO 06006KT 10SM OVC090 11/06 A3016 RMK AO2
     T01100061=
KIOB 241455Z AUTO 28008KT 10SM CLR 08/00 A3023 RMK AO2 PWINO=
KISP 241456Z 35006KT 10SM SCT028 SCT080 SCT110 12/03 A3004 RMK AO2
     SLP173 T01220033 50005=
KJAU 241450Z AUTO 03008G16KT 10SM CLR 10/M05 A3025 RMK A01=
KJTC 241455Z AUTO 25015G21KT 10SM CLR 15/M05 A3003 RMK AO2=
KJWG 241455Z AUTO 20015G18KT 10SM OVC080 13/01 A3017 RMK AO2
     T01300011=
KJWY 241455Z AUTO 07004KT 10SM BKN100 11/06 A3019 RMK AO2
     T01140058=
KJXN 241456Z 26007KT 10SM BKN023 BKN030 OVC070 04/M02 A3016 RMK
     AO2 SNE09 SLP221 P0000 60000 T00391017 51003=
KK70 241450Z AUTO 12010G15KT 10SM CLR 28/23 A2996 RMK AO2=
KK88 241455Z AUTO 21012G17KT 10SM 13/M01 A3018 RMK AO1
     T01291008=
KLAS 241456Z 15003KT 10SM FEW160 BKN250 19/03 A2985 RMK AO2 SLP088
     T01940033 51018=
KLBT 241456Z AUTO 01011KT 10SM BKN080 OVC110 13/04 A3013 RMK AO2
     SLP202 T01280044 51024=
