SACA33 KWBC 241500 RRB
METAR
TDPD 241500Z 11006KT 9999 BKN017 28/25 Q1013=
TTCP 241500Z 12006KT 9999 FEW018 29/25 Q1012 NOSIG=
TTPP 241500Z 09010KT 9999 2000NE -SHRA VCSH FEW010CB SCT018 29/23
     Q1012 NOSIG RMK CB - SW VCSH - ALQDS=
