SAUS70 KWBC 241500 RRN
METAR
KSAC 241453Z 21003KT 10SM CLR 12/07 A2993 RMK AO2 SLP135 T01220067
     53009=
KSNA 241453Z 14004KT 10SM OVC016 16/11 A2991 RMK AO2 SLP126
     T01560111 51014=
KDEN 241453Z 27008KT 10SM FEW090 BKN150 BKN220 08/M03 A2992 RMK
     AO2 SLP103 T00831033 51005=
KRAL 241453Z 01003KT 2SM BR OVC007 14/12 A2990 RMK AO2 CIG 005V010
     SLP114 T01390122 51010=
KRDD 241453Z 02005KT 10SM CLR 13/05 A2995 RMK AO2 SLP137 T01280050
     53018=
KRKS 241454Z AUTO VRB04KT 10SM CLR 04/M05 A2993 RMK AO2 SLP126
     T00391050 58000=
KRWL 241453Z AUTO 24007KT 10SM CLR 06/M04 A2992 RMK AO2 SLP105
     T00611039 58003=
KSDL 241453Z 14005KT 10SM CLR 24/M02 A2981 RMK AO2 SLP071
     T02391017 51011=
KSHN 241453Z AUTO 23010KT 10SM FEW009 SCT036 08/07 A3004 RMK AO2
     SLP176 T00780067 53027=
KSIY 241453Z AUTO 35009KT 10SM CLR 07/01 A3010 RMK AO2 SLP201
     T00670006 53016=
KSMF 241453Z 14004KT 10SM SCT250 14/08 A2993 RMK AO2 SLP133
     T01390078 53012=
KSPB 241453Z AUTO 00000KT 10SM FEW033 OVC070 08/06 A3011 RMK AO2
     SLP196 T00780056 52024=
KSSF 241453Z 06005KT 10SM BKN022 OVC055 16/11 A3008 RMK AO2 SLP185
     T01560106 58000 $=
KHFF 241455Z AUTO 08009KT 10SM OVC080 12/01 A3012 RMK AO2 SLP202
     60000 T01240008 51016 $=
KRBD 241453Z 10008KT 10SM BKN095 12/04 A3015 RMK AO2 SLP210
     T01170039 50004=
KRBG 241453Z AUTO 02003KT 10SM FEW030 BKN039 BKN047 09/06 A3016
     RMK AO2 SLP213 T00890056 51014=
KRIL 241453Z AUTO 00000KT 10SM CLR 06/M01 A2996 RMK AO2 SLP125
     T00561011 58000=
KRKP 241453Z AUTO 03015KT 8SM SCT080 18/13 A3004 RMK AO2 SLP172
     T01780128 58005=
KRNT 241453Z 20003KT 10SM BKN020 OVC025 08/06 A3007 RMK AO2 SLP186
     60000 T00830056 53028=
KRXE 241453Z AUTO 03004KT 10SM -RA BKN043 OVC050 04/01 A2986 RMK
     AO2 RAB36 SLP111 P0000 60000 T00440006 58003=
KSAF 241453Z 18005KT 10SM CLR 09/01 A2997 RMK AO2 SLP090 T00890006
     55001=
KSBA 241453Z 08007KT 9SM SCT009 14/12 A2989 RMK AO2 SLP122
     T01440117 53013 $=
KSFF 241453Z 19004KT 10SM FEW040 OVC050 07/03 A2990 RMK AO2 SLP128
     T00670028 53018=
KSGR 241453Z 06008KT 10SM OVC029 16/10 A3009 RMK AO2 SLP190
     T01610100 50011=
KSHR 241453Z AUTO 34003KT 10SM CLR 06/M04 A2983 RMK AO2 SLP111
     T00561039 58003=
KSJC 241453Z 00000KT 10SM FEW011 SCT075 BKN110 11/08 A3000 RMK AO2
     SLP157 T01060078 53005=
KSNS 241453Z 30005KT 7SM BKN008 11/08 A3001 RMK AO2 SLP170
     T01110078 53007=
KTDR 241455Z AUTO 05013KT 10SM FEW019 BKN090 BKN110 OVC160 20/11
     A3000 RMK AO2 LTG DSNT S SLP163 T01980105 51008 $=
KTTS 241455Z AUTO 07008KT 10SM FEW029 SCT038 BKN150 M A3000 RMK
     AO2 SLPNO ALSTG ESTMD 51016 $=
KADS 241447Z 08011G15KT 13SM BKN100 14/M01 A3017=
KBYS 241455Z AUTO 27008KT 10SM CLR 18/04 A2982 RMK AO2 SLP077
     T01760042 52013 $=
KBYS 241455Z AUTO 27008KT 10SM CLR 18/04 A2982 RMK AO2 SLP077
     T01760042 52013 $=
KTTS 241455Z AUTO 07008KT 10SM FEW029 SCT038 BKN150 M A3000 RMK
     AO2 SLPNO ALSTG ESTMD 51016 $=
KBRO 241453Z 35011G17KT 10SM OVC010 19/17 A3000 RMK AO2 SLP159
     T01890167 51009=
KJFK 241451Z 30006KT 10SM BKN038 BKN100 12/03 A3006 RMK AO2 SLP177
     T01170028 50002=
KMCO 241453Z 11007KT 10SM FEW034 BKN160 OVC250 26/18 A3001 RMK AO2
     SLP160 T02560183 51012=
KPBI 241453Z 18014G30KT 1 1/4SM R10L/1800VP6000FT +TSRA BR
     SCT028CB BKN035 BKN049 24/21 A2998 RMK AO2 PK WND 20030/1451
     RAB52 TSB22 SLP152 OCNL LTGICCG N S TS N S MOV NE P0000 60000
     T02440211 51013=
TIST 241453Z 34006KT 10SM FEW036 29/21 A2990 RMK AO2 SLP126
     T02890206 51010=
