SAUS70 KWBC 241500 RRK
METAR
KDLS 241453Z AUTO 28011KT 10SM BKN080 OVC090 10/05 A3005 RMK AO2
     SLP177 T01000050 53019=
KDMO 241453Z AUTO 17009KT 10SM CLR 12/M03 A3020 RMK AO2 SLP229
     T01221028 51004=
KDNL 241453Z AUTO 10SM SCT095 14/04 A3014 RMK AO2 RAB27E44 SLP203
     P0000 60000 T01440039 53015=
KDRM 241455Z AUTO 30005KT 2 1/2SM -SN BKN006 OVC010 01/00 A3008
     RMK AO2 T00140000=
KDRO 241453Z AUTO 23005KT 10SM -RA SCT040 BKN049 OVC110 07/01
     A2999 RMK AO2 RAB52 SLP122 P0000 60000 T00720011 50003=
KDTO 241453Z 10007KT 070V150 10SM FEW070 SCT100 13/04 A3017 RMK
     AO2 SLP215 T01280044 51006=
KDTW 241453Z 29010G17KT 10SM SCT025 BKN045 OVC120 06/M02 A3016 RMK
     AO2 SLP218 VIRGA SE-S T00561022 53005=
KDUJ 241453Z AUTO 24011G17KT 10SM SCT022 BKN032 OVC049 06/00 A3006
     RMK AO2 SLP190 T00560000 51003=
KDVT 241453Z 14008KT 10SM CLR 23/M03 A2981 RMK AO2 SLP071
     T02331028 51012=
KFLD 241453Z AUTO 27006KT 10SM BKN080 BKN095 07/M05 A3016 RMK AO2
     RAE06 SLP220 P0000 60000 T00671050 51005=
KFLO 241453Z 36011KT 10SM OVC090 14/07 A3013 RMK AO2 SLP199
     T01390067 51018=
KFMY 241453Z 15007KT 10SM CLR 27/20 A2996 RMK AO2 SLP147 T02720200
     50009=
KFOE 241453Z 20013KT 10SM CLR 12/01 A3012 RMK AO2 SLP202 T01220006
     50005=
KFOK 241453Z VRB05KT 10SM FEW027 BKN085 13/00 A3005 RMK AO2 SLP177
     T01280000 53003=
KFPR 241453Z 11007KT 10SM FEW025 FEW047 26/19 A3000 RMK AO2 LTG
     DSNT E AND SE SLP157 T02610194 53016=
KFRG 241453Z VRB04KT 10SM SCT034 12/04 A3005 RMK AO2 SLP176
     T01220044 50003 $=
KFRH 241455Z AUTO 30004G16KT 10SM CLR 07/M08 A3026 RMK AO1=
KFSM 241453Z 09008KT 10SM CLR 13/03 A3022 RMK AO2 SLP232 T01280033
     51010=
KFSO 241455Z AUTO RMK AO2 PWINO=
KFST 241453Z AUTO 13008KT 10SM OVC013 09/07 A3006 RMK AO2 SLP159
     60000 T00940067 50001 $=
KFTW 241453Z 09007KT 10SM OVC065 12/05 A3016 RMK AO2 SLP211
     T01220050 50006=
KFTY 241453Z 02005KT 10SM CLR 13/01 A3016 RMK AO2 SLP211 T01280011
     53014=
KFUL 241453Z VRB03KT 10SM OVC015 16/12 A2990 RMK AO2 SLP124
     T01560122 51015=
KFVE 241453Z AUTO 07006KT 10SM BKN016 OVC023 07/01 A3017 RMK AO2
     SLP221 T00670011 50001=
KFWN 241453Z AUTO VRB04KT 10SM SCT049 12/02 A3005 RMK AO2 SLP178
     T01170017 56006=
KFYJ 241455Z AUTO 00000KT 10SM OVC060 11/00 A3014 RMK AO1
     T01101001=
KFYV 241453Z 00000KT 10SM CLR 13/M02 A3019 RMK AO2 SLP224
     T01331022 51003=
KGAG 241453Z AUTO 19015G23KT 10SM OVC055 11/00 A3010 RMK AO2
     SLP188 T01060000 50004=
KGDB 241455Z AUTO 02007KT 10SM CLR 05/00 A3017 RMK AO2
     T00500000=
KGEY 241453Z AUTO VRB04KT 10SM CLR 07/M04 A2982 RMK AO2 SLP095
     T00721044 58002=
KGEZ 241453Z AUTO 32008G15KT 10SM CLR 08/M04 A3023 RMK AO2 SLP241
     T00781044 51009=
KGFK 241453Z 04004KT 10SM SCT045 SCT250 03/M04 A3019 RMK AO2
     SLP236 T00331039 51007=
KGFL 241453Z AUTO 16005KT 10SM FEW016 OVC025 07/04 A3004 RMK AO2
     RAB32E41 SLP176 P0000 60000 T00670044 51005=
KGGE 241455Z AUTO 31006KT 10SM BKN100 18/06 A3011 RMK AO2=
KGGG 241453Z 09008KT 10SM OVC100 13/05 A3016 RMK AO2 SLP215
     T01280050 50010=
KMKS 241455Z AUTO 01006KT 10SM CLR 17/06 A3010 RMK AO2=
KMLB 241453Z 09008KT 10SM FEW027 SCT090 27/19 A3000 RMK AO2 SLP157
     T02670194 53014=
KMLC 241453Z AUTO 15008KT 10SM FEW100 12/07 A3019 RMK AO2 SLP220
     T01220067 50004=
KMLS 241453Z AUTO 07006KT 10SM CLR 06/M03 A2988 RMK AO2 SLP129
     T00611028 58002=
KMMK 241453Z AUTO 10SM SCT038 BKN049 13/02 A3003 RMK AO2 SLP170
     T01280017 53002=
KMMV 241453Z AUTO 22007KT 10SM BKN065 08/06 A3012 RMK AO2 SLP198
     T00830061 52019=
