SAZS31 NSTU 241456
MTRPPG
METAR NSTU 241453Z VRB02KT 10SM FEW020 SCT100 SCT200 25/25 A2976 RMK
 SLP080 8/128 T02490246 57010=
