SAUS70 KWBC 241638
METAR
K0S9 241635Z AUTO 00000KT 10SM FEW032 BKN055 OVC065 08/06 A3009
     RMK AO2=
K0VG 241635Z AUTO VRB06KT 10SM CLR 12/M06 A3018 RMK AO2=
K10G 241635Z AUTO 34004KT 10SM SCT013 BKN046 OVC070 05/01 A3016
     RMK AO2=
K15M 241635Z AUTO 09007KT 10SM CLR 14/M00 A3020 RMK AO2 T01421003
     $=
K1R7 241635Z AUTO 03007KT 360V060 10SM BKN080 BKN100 15/06 A3015
     RMK AO2 PWINO=
K24J 241635Z AUTO 03007G15KT 10SM FEW100 FEW120 22/13 A3003 RMK
     A01=
K2D5 241635Z AUTO 07010KT 10SM CLR 04/M04 A3017 RMK AO2=
K2J9 241635Z AUTO 04006G14KT 10SM SCT080 BKN120 20/10 A3008 RMK
     AO2=
K3N8 241635Z AUTO 01006KT 10SM SCT033 SCT039 SCT048 03/M03 A3017
     RMK AO2 T00331032=
K3T5 241635Z AUTO 05006KT 10SM OVC028 16/12 A3009 RMK AO2
     T01560124=
K42J 241635Z AUTO 08010KT 10SM CLR 25/16 A3002 RMK A01=
K46D 241635Z AUTO 10005G12KT 10SM FEW028 03/M03 A3018 RMK AO2=
K4A6 241635Z AUTO VRB06G14KT 10SM CLR 14/M00 A3020 RMK AO2=
K4M9 241635Z AUTO 07008KT 10SM CLR 15/M00 A3025 RMK AO2 PWINO=
K4O4 241635Z AUTO VRB06G13KT 8SM CLR 16/06 A3018 RMK AO2=
K54J 241635Z AUTO 05008KT 10SM CLR 18/08 A3008 RMK AO2
     T01830084=
K57C 241635Z AUTO 28010G16KT 10SM BKN050 OVC060 07/M05 A3018 RMK
     AO2 T00661054=
K5H4 241635Z AUTO 10008G14KT 10SM CLR 04/M08 A3018 RMK AO2=
K6B0 241635Z AUTO 00000KT 4SM DZ OVC006 06/06 A3002 RMK AO2
     T00610061 P0006=
K6B9 241635Z AUTO 00000KT 10SM SCT030 BKN070 SCT080 08/01 A3004
     RMK AO2=
K6S2 241635Z AUTO VRB06KT 10SM BKN018 BKN039 BKN050 10/09 A3019
     RMK AO2=
K7L2 241635Z AUTO 12010KT 10SM CLR 08/M05 A3012 RMK AO2=
K8B0 241635Z AUTO 11011KT 9SM -UP FEW008 OVC016 05/04 A3004 RMK
     AO2=
K96D 241635Z AUTO 01005KT 10SM OVC048 02/M02 A3022 RMK AO2=
K9D7 241635Z AUTO 04008KT 10SM CLR 04/M06 A3019 RMK AO2 TSNO=
KACJ 241635Z AUTO 05007KT 010V090 9SM FEW120 SCT150 SCT330 17/03
     A3012 RMK AO2 T01690034=
KADC 241635Z AUTO 32003KT 10SM SCT046 04/M07 A3015 RMK AO2
     TSNO=
KAGO 241635Z AUTO VRB05G11KT 10SM BKN110 17/02 A3017 RMK A01=
KAIG 241635Z AUTO 00000KT 10SM SCT045 BKN070 BKN100 04/M06 A3011
     RMK AO2 T00401060=
KAIT 241635Z AUTO 02003KT 10SM SCT049 SCT055 BKN075 04/M07 A3015
     RMK AO2=
KALM 241635Z AUTO 00000KT 10SM CLR 16/01 A2998 RMK AO2=
KANQ 241635Z AUTO 24007KT 200V260 10SM FEW043 FEW050 FEW080 06/M01
     A3017 RMK AO2=
KAQX 241635Z AUTO 00000KT 10SM CLR 20/05 A3009 RMK AO2=
KARW 241635Z AUTO 00000KT 10SM CLR 21/06 A3008 RMK AO2=
KCQW 241635Z AUTO 04007KT 10SM CLR 15/03 A3012 RMK AO2=
KCVH 241635Z AUTO 00000KT 6SM BR OVC002 10/09 A3004 RMK A01=
KCVX 241635Z AUTO 26011KT 10SM SCT034 05/M03 A3014 RMK AO2
     T00481035=
KD39 241635Z AUTO 00000KT 10SM SCT041 04/M05 A3016 RMK AO2
     T00371053=
KD57 241635Z AUTO 12011G17KT 10SM CLR 08/M06 A3005 RMK AO2=
KD60 241635Z AUTO 14015G22KT 10SM CLR 06/M05 A3006 RMK AO2=
KD95 241635Z AUTO 25008KT 10SM SCT030 BKN041 OVC065 05/M03 A3014
     RMK AO2 T00501026=
KDCM 241635Z AUTO 00000KT 10SM CLR 15/01 A3013 RMK AO2=
KDNA 241635Z AUTO 12007KT 10SM CLR 19/02 A2996 RMK AO2=
KDNN 241635Z AUTO 36010KT 320V020 10SM CLR 14/M01 A3018 RMK AO2
     T01401010=
KDRI 241635Z AUTO 06008KT 10SM BKN070 OVC080 15/07 A3015 RMK AO2
     T01450071 $=
KDTL 241635Z AUTO VRB05KT 10SM FEW043 BKN050 BKN060 03/M05 A3016
     RMK AO2=
KDUH 241635Z AUTO 30008KT 10SM SCT034 SCT055 OVC070 07/M01 A3017
     RMK AO2 T00701014=
KDYB 241635Z AUTO 00000KT 8SM SCT100 SCT120 22/06 A3008 RMK
     AO2=
KDYT 241635Z AUTO 05015KT 10SM CLR 03/00 A3018 RMK AO2=
KEDJ 241635Z AUTO 31006G13KT 10SM 06/M04 A3020 RMK A01=
