SAUS70 KWBC 241500 RRD
METAR
KCWC 241455Z AUTO 16009KT 10SM OVC065 11/04 A3017 RMK AO2
     T01130035=
KDTA 241455Z AUTO 17012KT 10SM SCT070 08/03 A2993 RMK AO1=
KDWX 241455Z AUTO 09004KT 10SM CLR 03/M04 A2998 RMK AO2
     T00331038=
KECS 241455Z AUTO 16004KT 10SM CLR 05/M07 A2990 RMK AO2=
KEMM 241455Z AUTO 01011KT 10SM BKN036 00/M06 A2993 RMK AO2
     TSNO=
KF46 241455Z AUTO 09007KT 10SM SCT095 12/04 A3018 RMK AO2
     T01180042=
KGUL 241500Z AUTO 08010KT 9SM CLR 24/18 A2996 RMK A01=
KHYI 241456Z 04008KT 10SM BKN026 BKN055 BKN075 14/11 A3012 RMK AO2
     SLP196 T01440106 50005=
KMMH 241455Z AUTO 15003KT 10SM CLR 02/M03 A3007 RMK AO2
     T00171028=
KONP 241455Z AUTO 25004KT 10SM SCT015 SCT030 BKN042 08/06 A3017
     RMK AO2=
KPKV 241455Z AUTO 04009KT 10SM SCT070 OVC090 17/13 A3009 RMK AO2
     T01730130=
KPRX 241456Z AUTO 09009KT 10SM -RA CLR 13/04 A3019 RMK AO2 SLP225
     P0000 60000 T01330039 51007=
KPVU 241456Z 19004KT 10SM OVC100 10/02 A2992 RMK AO2 SLP111
     T01000017 50002=
KPWT 241456Z AUTO 20005KT 10SM BKN005 OVC047 07/06 A3006 RMK AO2
     CIG 004V007 SLP185 T00670061 53028=
KPYX 241455Z AUTO 18016KT 10SM OVC030 06/M01 A3005 RMK AO2
     T00551014=
KRYW 241455Z AUTO 02005KT 10SM OVC029 11/09 A3013 RMK AO2
     T01110085=
KSGU 241456Z AUTO 11006KT 10SM CLR 16/05 A2990 RMK AO2 SLP101
     T01560050 53008=
K0CO 241455Z AUTO 33012G18KT SCT014 OVC021 M08/M11 A3003 RMK AO2
     PWINO=
K2V5 241455Z AUTO 00000KT 10SM BKN100 11/00 A2992 RMK AO2=
K33V 241455Z AUTO 15003KT 10SM CLR 02/M05 A2998 RMK AO1=
K4V0 241455Z AUTO 00000KT 10SM CLR 05/00 A2994 RMK AO2
     T00531005=
K66R 241455Z AUTO 00000KT 10SM OVC025 14/11 A3012 RMK AO2
     T01360110=
KAEJ 241455Z AUTO 00000KT 10SM CLR 06/M06 A2997 RMK AO2
     T00571057=
KARM 241455Z AUTO 01005KT 10SM OVC022 13/13 A3011 RMK AO2
     T01300130 TSNO=
KBAM 241455Z AUTO 17004KT 10SM CLR 06/05 A2993 RMK AO1=
KGYB 241455Z AUTO 00000KT 10SM OVC032 12/09 A3012 RMK AO2
     T01240085=
KIKT 241500Z AUTO 03018G27KT 10SM FEW120 21/15 A2997 RMK A01=
KSEZ 241455Z AUTO 00000KT 10SM CLR 17/00 A2995 RMK AO2=
KSQL 241452Z 00000KT 10SM CLR 11/08 A3001=
KSVC 241455Z AUTO 00000KT 10SM CLR 17/M01 A3000 RMK AO2
     T01741008=
KT82 241455Z AUTO 00000KT 10SM SCT009 OVC018 11/09 A3012 RMK AO2
     T01110091=
KTBX 241455Z AUTO 10SM CLR 01/M08 A2994 RMK AO2=
KU68 241455Z AUTO 07006KT 10SM CLR 09/M07 A2982 RMK AO2=
KUVA 241455Z AUTO 06009KT 10SM OVC009 13/13 A3010 RMK AO2 6////
     T01270127=
KVAF 241455Z AUTO 04020KT 4SM HZ 23/19 A2999 RMK A01=
KDUG 241456Z AUTO 17007KT 10SM CLR 18/M07 A2997 RMK AO2 SLP091
     T01831072 51010 TSNO=
KSGH 241456Z AUTO 29010KT 10SM SCT027 SCT034 OVC050 06/M01 A3019
     RMK AO2 SLP233 T00561011 53007=
PPIZ 241456Z AUTO 04019KT 3/4SM BR OVC002 M22/M24 A3057 RMK AO2
     SNE52 SLP355 P0000 60000 T12221244 55005 FZRANO=
