SAUS80 KWBC 241500 CCD
METAR
KP92 241459Z AUTO VRB04KT 17/11 A3004 RMK AO1 SLP173 T01670111
     51009=
