SAUS80 KWBC 241500 RRE
METAR
KCUL 241456Z AUTO 16003KT 10SM CLR 10/M03 A3027 RMK AO2=
KPSN 241455Z AUTO VRB06KT 10SM BKN095 13/08 A3013 RMK AO2=
KSOA 241455Z AUTO 00000KT 10SM OVC008 11/09 A3014 RMK AO2=
K2WX 241456Z AUTO 12010KT 08/M05 A2992 RMK AO1 SLP147 T00831050
     50002=
KD07 241456Z AUTO 13013KT 08/M06 A2999 RMK AO1 SLP172 T00781061
     $=
