SAUS80 KWBC 241500 RRC
METAR
KTLH 241453Z 02007KT 10SM FEW050 BKN075 OVC100 18/10 A3008 RMK AO2
     SLP183 T01780100 51018=
KTRI 241453Z 30006KT 10SM FEW045 10/M03 A3018 RMK AO2 SLP210
     T01001028 50005=
KTUP 241453Z 04011KT 10SM CLR 14/02 A3021 RMK AO2 SLP230 T01440022
     51005=
KTUS 241453Z 14005KT 10SM CLR 22/M04 A2990 RMK AO2 SLP081
     T02221039 51010=
KSAV 241453Z 03007KT 10SM SCT130 BKN170 21/07 A3009 RMK AO2 SLP190
     T02110067 53010=
KSDM 241453Z 00000KT 6SM HZ OVC012 14/11 A2990 RMK AO2 SLP123
     T01390106 51006=
KSEA 241453Z 22006KT 7SM BKN009 OVC015 07/05 A3006 RMK AO2 SLP186
     60000 T00720050 53029=
KSTC 241453Z 35006KT 10SM SCT032 06/M03 A3014 RMK AO2 SLP225 6////
     T00561033 50003 PNO $=
PHNL 241453Z 00000KT 10SM FEW024 22/20 A2996 RMK AO2 SLP144
     T02220200 56010 $=
PHTO 241453Z AUTO 00000KT 10SM BKN050 21/19 A2998 RMK AO2 SLP150
     T02110194 55005 TSNO=
PHKO 241453Z AUTO 02006KT 10SM CLR 22/17 A2997 RMK AO2 SLP146
     T02220167 56011 TSNO=
PHLI 241453Z AUTO 26003KT 10SM CLR 20/19 A2996 RMK AO2 SLP143
     T02000194 56009 TSNO $=
PHJR 241453Z AUTO 01004KT 10SM CLR 20/17 A2997 RMK AO2 SLP155
     T02000172 56010 TSNO=
PASN 241453Z AUTO 11017KT 2SM -SN BR BKN006 OVC014 00/M01 A2973
     RMK AO2 SNB00 SLP067 P0000 60000 T00001011 56043 TSNO=
PATK 241453Z AUTO 00000KT 10SM CLR M04/M12 A2955 RMK AO2 SLP011
     T10391122 53001 TSNO=
PAYA 241453Z AUTO 08004KT 10SM -RA BKN012 BKN019 OVC031 04/03
     A2955 RMK AO2 SLP006 P0003 60015 T00390033 53009 TSNO $=
PHJR 241453Z AUTO 01004KT 10SM CLR 20/17 A2997 RMK AO2 SLP155
     T02000172 56010 TSNO=
PHNL 241453Z 00000KT 10SM FEW024 22/20 A2996 RMK AO2 SLP144
     T02220200 56010 $=
KTYS 241453Z 02009KT 10SM FEW250 11/M02 A3020 RMK AO2 SLP225
     T01111022 51004=
KUIL 241453Z AUTO 09004KT 10SM OVC006 07/07 A3005 RMK AO2
     RAE06B12E25 SLP178 P0000 60007 T00670067 51023=
KYKM 241453Z AUTO 00000KT 10SM CLR 09/02 A2996 RMK AO2 SLP148
     T00890017 53019=
PABE 241453Z 36010KT 10SM CLR M09/M13 A2990 RMK AO2 SLP126
     T10941133 56020=
PADQ 241453Z AUTO 30012KT 10SM CLR 00/M08 A2958 RMK AO2 SLP018
     T00001083 50001 TSNO=
PHNL 241453Z 00000KT 10SM FEW024 22/20 A2996 RMK AO2 SLP144
     T02220200 56010 $=
KATT 241451Z AUTO 36004KT 10SM OVC033 13/10 A3013 RMK AO2 SLP201
     T01280100 51007=
K12N 241454Z AUTO VRB04KT 12/01 A3005 RMK AO1 SLP178 T01220006
     58007=
