SAPA31 KWBC 241600 RRC
METAR
PKWA 241640Z AUTO 07012KT 10SM SCT020 27/24 A2978 RMK AO2
     T02720244 TSNO=
