SAUS70 KWBC 241640 RRB
METAR
KOWI 241635Z AUTO 19011G18KT 10SM FEW095 18/M00 A3013 RMK AO2=
KOXD 241635Z AUTO 31005KT 10SM BKN047 OVC055 09/M04 A3023 RMK AO2
     T00871036=
KP08 241635Z AUTO VRB03KT 10SM CLR 27/M04 A2983 RMK AO2=
KPCW 241635Z AUTO 32007KT 280V350 10SM FEW035 SCT060 OVC070 06/01
     A3017 RMK AO2=
KPEZ 241635Z AUTO 07005KT 10SM BKN020 OVC075 18/12 A3008 RMK AO2
     T01840120=
KPHN 241637Z AUTO 29006KT 10SM SCT039 SCT049 OVC075 06/M03 A3013
     RMK AO2=
KPHT 241635Z AUTO 34007KT 10SM FEW060 14/M00 A3023 RMK A01=
KPNT 241635Z AUTO 28011G19KT 10SM SCT055 11/M07 A3023 RMK AO2
     T01101072=
KPO1 241640Z AUTO 14020G26KT 10SM CLR 10/M06 A2995 RMK AO2=
KPRS 241635Z AUTO 00000KT 10SM CLR 17/08 A3002 RMK AO2
     T01720083=
KPVE 241635Z AUTO VRB07G12KT 10SM CLR 14/M02 A3023 RMK A01=
KRCV 241635Z AUTO 00000KT 10SM OVC046 07/M01 A2998 RMK AO2
     T00661007=
KRKW 241635Z AUTO VRB05G11KT 10SM CLR 11/M06 A3018 RMK A01=
KRNC 241635Z AUTO VRB04G11KT 10SM CLR 12/M02 A3020 RMK A01=
KRTS 241635Z AUTO 30010G16KT 10SM CLR 14/01 A3000 RMK AO2=
KRYN 241630Z AUTO 00000KT 10SM CLR 25/M07 A2985 RMK AO2=
KRZR 241635Z AUTO 01010KT 10SM CLR 14/M03 A3017 RMK A01=
KSCX 241635Z AUTO VRB04G10KT 10SM CLR 11/M04 A3019 RMK A01=
KSEM 241635Z AUTO 06010KT 10SM CLR 17/04 A3013 RMK AO2=
KSLO 241635Z AUTO 00000KT 10SM CLR 12/M03 A3026 RMK AO2
     T01161031=
KSME 241635Z AUTO 30008G13KT 260V340 10SM CLR 11/M02 A3020 RMK
     AO2=
KSNH 241630Z AUTO 03012KT 010V070 10SM CLR 14/M01 A3021 RMK
     A01=
KSRB 241635Z AUTO 04007KT 10SM CLR 12/M02 A3021 RMK AO2=
KSRE 241635Z AUTO VRB06G17KT 10SM CLR 16/03 A3017 RMK AO2=
KSTK 241635Z AUTO 00000KT 10SM CLR 11/00 A2989 RMK AO2=
KSYI 241635Z AUTO 36011KT 10SM CLR 13/M02 A3021 RMK A01=
KSZY 241635Z AUTO 00000G12KT 10SM 14/M01 A3021 RMK A01=
KT89 241635Z AUTO 12007KT 10SM CLR 17/07 A3000 RMK A01=
KTHA 241635Z AUTO 35007KT 310V030 10SM CLR 13/M02 A3020 RMK
     A01=
KTNU 241635Z AUTO 17010KT 10SM SCT070 11/M03 A3013 RMK A01=
KTQH 241635Z AUTO 17009KT 10SM CLR 17/M06 A3020 RMK AO2=
KTQV 241635Z AUTO VRB06KT 320V020 10SM CLR 14/M01 A3013 RMK
     A01=
KUCY 241635Z AUTO 03003G13KT 10SM CLR 14/M00 A3023 RMK A01=
KUKL 241635Z AUTO 21015KT 10SM CLR 17/M04 A3014 RMK AO2
     T01721041=
KUSE 241635Z AUTO 28006KT 10SM FEW021 FEW060 BKN070 06/M00 A3018
     RMK AO2=
KUYF 241635Z AUTO 30008KT 10SM -DZ SCT029 BKN047 OVC050 05/M02
     A3020 RMK AO2=
KVCV 241635Z 26011KT 10SM CLR 19/05 A2995 RMK AO2=
KVTP 241635Z AUTO 25006KT 7SM OVC011 00/M03 A3002 RMK AO2=
KW13 241635Z AUTO 29005KT 10SM SCT050 10/M03 A3010 RMK AO1
     T00981031=
KW78 241635Z AUTO 21003KT 10SM CLR 14/M01 A3013 RMK AO1
     T01381012=
KXNX 241635Z AUTO 35011KT 10SM CLR 13/M03 A3026 RMK A01=
KY49 241635Z AUTO 33003KT 10SM SCT050 BKN070 02/M06 A3015 RMK AO2
     T00181061=
PAAD 241635Z AUTO 23006KT 10SM OVC004 M27/M29 A3060 RMK AO2
     T12671292 PWINO=
KBTN 241635Z AUTO 05010KT 10SM CLR 05/M05 A3015 RMK AO2=
PAAD 241635Z AUTO 23006KT 10SM OVC004 M27/M29 A3060 RMK AO2
     T12671292 PWINO=
KFFX 241635Z AUTO 25007KT 10SM SCT040 SCT050 BKN090 07/M03 A3015
     RMK AO2 T00701027=
KFKS 241635Z AUTO 32007KT 290V360 10SM BKN090 06/M03 A3016 RMK AO2
     T00611028=
KHAI 241635Z AUTO 29007KT 10SM SCT028 SCT038 OVC080 08/M03 A3018
     RMK AO2 T00751029=
KHSB 241635Z AUTO 00000KT 10SM CLR 11/02 A3028 RMK AO2
     T01120018=
KIGQ 241635Z AUTO 27010KT 10SM OVC055 09/M03 A3021 RMK AO2
     T00851034=
KIKT 241640Z AUTO 05019G27KT 10SM CLR 21/14 A2997 RMK A01=
KJPX 241635Z AUTO 34006KT 10SM SCT033 BKN070 OVC110 12/02 A3003
     RMK AO2 T01200021 FZRANO=
