SAUS70 KWBC 241500 RRG
METAR
KRST 241454Z 32007KT 10SM BKN070 04/00 A3015 RMK AO2 SLP222 60000
     T00440000 51003=
KRUG 241455Z AUTO 11007KT 10SM CLR 02/M04 A3016 RMK AO2=
KRZN 241455Z AUTO 00000KT 10SM CLR 04/M03 A3014 RMK AO2
     T00411034=
KS25 241455Z AUTO 12016KT 10SM CLR 05/M05 A3004 RMK AO2=
KS32 241455Z AUTO 05005KT 10SM SCT045 02/02 A3018 RMK AO2 TSNO=
KSAZ 241455Z AUTO 00000KT 10SM CLR 03/M06 A3015 RMK AO2=
KSBY 241454Z 33005KT 10SM OVC065 11/03 A3011 RMK AO2 SLP198
     T01060028 53002=
KSDC 241455Z AUTO 34003KT 10SM SCT043 SCT050 OVC060 07/02 A3007
     RMK AO2=
KSET 241454Z AUTO VRB05KT 10SM CLR 09/M01 A3025 RMK AO2 SLP243
     T00941006 51005=
KSFQ 241455Z AUTO 01007KT 10SM OVC047 12/06 A3013 RMK AO2
     T01160064=
KSHD 241455Z AUTO 00000KT 10SM BKN050 09/M03 A3014 RMK AO2
     T00921033=
KSJX 241455Z AUTO 26010KT 10SM OVC038 03/M02 A3013 RMK AO2
     T00321021=
KSLC 241454Z 15007KT 10SM FEW080 BKN110 11/03 A2988 RMK AO2 SLP094
     VIRGA T01110028 50000 $=
KSLH 241455Z AUTO 27009KT 10SM SCT020 BKN027 OVC032 02/00 A3010
     RMK AO2=
KSPF 241455Z AUTO 10010KT 10SM CLR 09/M06 A2990 RMK AO2=
KSRR 241455Z AUTO 03003KT 10SM 11/00 A3005 RMK AO2=
KSTF 241455Z AUTO 06009KT 10SM FEW120 14/05 A3017 RMK AO2=
KSUZ 241455Z AUTO 02005KT 10SM CLR 12/06 A3022 RMK A01=
KSYM 241455Z AUTO 28008KT 10SM FEW044 09/M03 A3021 RMK AO2=
KT69 241455Z AUTO 06011KT 10SM FEW090 17/13 A3005 RMK A01=
KTAD 241454Z AUTO 25011KT 10SM CLR 09/01 A2991 RMK AO2 SLP092
     T00940006 50003=
KTEW 241455Z AUTO 30004KT 10SM BKN022 BKN030 OVC070 05/M01 A3016
     RMK AO2 T00461008=
KLVN 241455Z AUTO 31003KT 10SM CLR 05/M03 A3015 RMK AO2=
KLWM 241454Z 24003KT 10SM OVC012 10/06 A3003 RMK AO2 SLP170
     T01000061 50006=
KLWT 241454Z AUTO 11004KT 10SM OVC100 04/M03 A2978 RMK AO2 SLP093
     T00391028 50002=
KLXL 241455Z AUTO 34003KT 10SM CLR 03/M05 A3014 RMK AO2=
KM01 241455Z AUTO 30005KT 10SM CLR 13/05 A3022 RMK AO2 T01300048
     $=
KM40 241455Z AUTO 02009KT 350V060 10SM FEW120 15/03 A3021 RMK
     AO2=
KMAN 241455Z AUTO 31012KT 10SM FEW020 SCT024 BKN033 09/07 A2990
     RMK A01=
KMBO 241455Z AUTO 07008KT 040V100 10SM FEW110 14/03 A3015 RMK
     AO2=
KMBY 241455Z AUTO 15007KT 10SM CLR 12/M05 A3021 RMK AO2=
KMDS 241455Z AUTO 05011G16KT 10SM CLR 05/M02 A3010 RMK AO2=
KMEM 241454Z 03004KT 10SM SCT250 14/02 A3023 RMK AO2 SLP235
     T01390017 51010=
KMEZ 241455Z AUTO 00000KT 10SM BKN003 07/07 A3022 RMK AO2
     T00740074=
KMFI 241454Z AUTO 00000KT 10SM FEW033 BKN043 OVC075 03/M03 A3013
     RMK AO2 SNE20 SLP219 P0000 60000 T00331033 51006=
KMGJ 241454Z AUTO VRB03KT 10SM BKN049 BKN055 10/M01 A3003 RMK AO2
     SLP170 T01001011 58002=
KMGR 241455Z AUTO 06006KT 9SM FEW033 OVC130 18/08 A3011 RMK AO2
     T01760076=
KMIV 241454Z AUTO 30005KT 10SM BKN080 OVC095 11/02 A3009 RMK AO2
     SLP189 T01060017 58000=
KMKC 241454Z 21011KT 10SM CLR 12/M03 A3016 RMK AO2 SLP213
     T01221028 50005=
KMKJ 241455Z AUTO 28013G19KT 10SM CLR 07/M03 A3015 RMK AO2
     T00671034=
KMOT 241454Z 13008KT 10SM CLR 03/M03 A3012 RMK AO2 SLP221
     T00331033 51004=
KMOX 241455Z AUTO 01006KT 10SM CLR 03/M03 A3017 RMK AO2=
KMQS 241455Z AUTO RMK AO2 PNO PWINO=
KMRY 241454Z 23006KT 9SM SCT009 10/08 A3002 RMK AO2 SLP177
     T01000078 53005 $=
KMTV 241455Z AUTO 33003KT 10SM CLR 11/M04 A3017 RMK AO2
     T01101045=
KMVE 241455Z AUTO 04006KT 10SM OVC050 02/01 A3017 RMK AO2=
KMWM 241455Z AUTO 01008KT 10SM CLR 05/M01 A3013 RMK AO2=
KN79 241455Z AUTO 29006KT 10SM BKN035 10/M00 A3007 RMK AO2
     T01001001=
KO22 241455Z AUTO 00000KT 10SM CLR 15/03 A2994 RMK A01=
