SAUS80 KWBC 241638
METAR
K77S 241635Z AUTO 00000KT 10SM SCT017 BKN022 OVC037 10/06 A3016
     RMK A01=
KEKX 241635Z AUTO 31009KT 290V010 10SM CLR 10/M05 A3025 RMK AO2
     T01021050=
KCLI 241635Z AUTO 04005KT 10SM SCT047 BKN060 OVC080 06/M05 A3016
     RMK AO2 T00601054=
KM21 241635Z AUTO 32005KT 10SM SCT055 11/M04 A3027 RMK AO2
     T01141038=
KM25 241635Z AUTO 32004KT 10SM CLR 13/M01 A3026 RMK AO2 PWINO=
KPZQ 241635Z AUTO 29010KT 10SM OVC026 03/M01 A3011 RMK AO2
     T00331009=
KSMS 241635Z AUTO 00000KT 10SM SCT085 16/07 A3013 RMK AO2=
KSNC 241635Z AUTO VRB06KT 10SM FEW041 SCT049 SCT060 14/01 A3001
     RMK AO2=
KSOW 241635Z AUTO 26005KT 10SM CLR 17/M03 A3002 RMK AO2=
KSVE 241635Z AUTO 34006KT 10SM CLR 15/M04 A2998 RMK AO2=
KTKC 241635Z AUTO 03005KT 10SM CLR 06/M01 A3014 RMK AO2=
KPOV 241635Z AUTO 29008KT 10SM SCT017 BKN022 BKN033 04/00 A3013
     RMK AO2 T00401002 PWINO=
KLYV 241635Z AUTO 06004KT 10SM CLR 08/M03 A3011 RMK AO2=
K77S 241635Z AUTO 00000KT 10SM SCT017 BKN022 OVC037 10/06 A3016
     RMK A01=
KGNT 241635Z AUTO 33011G14KT 10SM BKN090 14/M05 A3001 RMK AO2
     T01411051=
KCLI 241635Z AUTO 04005KT 10SM SCT047 BKN060 OVC080 06/M05 A3016
     RMK AO2 T00601054=
KROS 241635Z AUTO 02004KT 10SM BKN040 OVC049 07/M02 A3015 RMK AO2
     T00701021=
KCIR 241635Z AUTO 00000KT 10SM CLR 13/M01 A3026 RMK AO2
     T01331011=
K4BM 241635Z AUTO 17003KT 10SM SCT039 BKN047 00/M09 A3006 RMK
     AO2=
KRLD 241635Z AUTO 22012G17KT 10SM OVC100 14/02 A2999 RMK AO2
     T01430021=
KSEP 241635Z AUTO 14005KT 10SM OVC070 13/08 A3016 RMK AO2
     T01340078=
KSYN 241635Z AUTO 36005KT 10SM SCT038 OVC050 07/M03 A3015 RMK AO2
     T00651031=
KTKV 241635Z AUTO 07004KT 10SM SCT049 OVC055 04/M05 A3012 RMK AO2
     T00401046 PWINO=
KY23 241635Z AUTO 00000KT 10SM SCT050 BKN085 07/M03 A3014 RMK AO2
     T00651028=
KIKW 241635Z AUTO 32006G14KT 10SM OVC060 07/M06 A3012 RMK AO2
     T00701058=
KSNC 241635Z AUTO VRB06KT 10SM FEW041 SCT049 SCT060 14/01 A3001
     RMK AO2=
KSOW 241635Z AUTO 26005KT 10SM CLR 17/M03 A3002 RMK AO2=
