SAUS70 KWBC 241500 RRQ
METAR
KSKX 241456Z AUTO 00000KT 10SM CLR 09/M03 A2998 RMK AO2 SLP124
     T00941033 58006=
KSLG 241456Z AUTO 14008KT 10SM CLR 13/M02 A3020 RMK AO2 SLP225
     T01281017 51007=
KSMN 241456Z AUTO 00000KT 10SM -RA OVC045 08/03 A2980 RMK AO2
     RAB21 SLP792 P0000 60000 T00780028 53001=
KSOP 241456Z AUTO 03009KT 10SM SCT090 13/01 A3014 RMK AO2 SLP212
     60001 T01280011 50010 TSNO=
KSQI 241456Z AUTO 26007KT 10SM CLR 08/M03 A3023 RMK AO2 SLP102
     T00831033 51006=
KSRC 241456Z AUTO 08004KT 10SM CLR 13/06 A3025 RMK AO2 SLP241
     T01330056 51012=
KSUE 241456Z AUTO 06005KT 10SM SCT040 SCT048 BKN090 03/M03 A3017
     RMK AO2 SLP224 60001 T00281033 51007=
KGBD 241456Z AUTO 20021G29KT 10SM BKN120 13/M02 A3007 RMK AO2 PK
     WND 21029/1449 SLP180 T01281022 50004=
KGDV 241456Z AUTO 09011KT 10SM CLR 06/M07 A2996 RMK AO2 SLP159
     T00561067 58001 TSNO=
KGTR 241456Z VRB06KT 10SM CLR 14/04 A3020 RMK AO2 SLPNO T01400040
     51004 $=
KGTU 241456Z 02007KT 10SM FEW012 OVC039 11/07 A3015 RMK AO2 SLP212
     T01110072 51009 $=
KGUC 241456Z AUTO VRB04KT 10SM OVC070 03/M04 A3000 RMK AO2 SLP136
     T00331044 50000=
KGVQ 241456Z AUTO 24007KT 9SM FEW030 SCT034 OVC045 04/02 A3006 RMK
     AO2 RAE43 SLP186 P0001 60010 T00390022 51006=
KGXY 241456Z 00000KT 10SM CLR 06/M04 A2992 RMK AO2 SLP138
     T00611044 50006=
KHEF 241456Z 32011KT 10SM SCT055 13/M01 A3013 RMK AO2 SLP211
     T01281011 58004=
KHEZ 241456Z AUTO 04008KT 10SM OVC100 14/04 A3015 RMK AO2 SLP210
     T01390044 51009=
KHNB 241456Z AUTO 01007KT 310V050 10SM CLR 08/M03 A3027 RMK AO2
     SLP254 T00831033 52007=
KHND 241456Z 00000KT 10SM CLR 19/03 A2988 RMK AO2 SLP112 T01890033
     53014=
KHYI 241456Z 04008KT 10SM BKN026 BKN055 BKN075 14/11 A3012 RMK AO2
     SLP196 T01440106 50005=
KHYS 241456Z AUTO 21022G28KT 10SM OVC120 13/M03 A3005 RMK AO2 PK
     WND 21028/1449 SLP176 T01331028 50004 $=
KILE 241456Z AUTO 05005KT 10SM OVC042 12/07 A3015 RMK AO2 SLP208
     T01170072 51010=
KITH 241456Z 00000KT 10SM BKN041 08/01 A3006 RMK AO2 SLP186
     T00780006 55000=
KIWD 241456Z AUTO 21004KT 10SM FEW033 02/M05 A3015 RMK AO2 SLP226
     T00221050 50004 FZRANO=
KJAC 241456Z 03006KT 5SM -SN BR BKN040 OVC055 M02/M04 A2992 RMK
     AO2 SLP156 P0000 60000 T10171039 58001=
KJHW 241456Z AUTO 00000KT 10SM -RA SCT014 BKN020 OVC033 03/02
     A3007 RMK AO2 RAB12UPB49E54SNB39E49 SLP201 6//// T00280022
     52004 PNO $=
KJMS 241456Z AUTO 05007KT 10SM CLR 03/M03 A3016 RMK AO2 SLP230
     T00281028 50003=
KJRB 241456Z AUTO VRB06KT 10SM CLR 13/01 A3007 RMK AO2 SLP181
     6//// T01330011 58001 PNO $=
KKLS 241456Z AUTO 00000KT BKN016 OVC025 08/07 A3012 RMK AO2 SLP204
     P0001 60008 T00830067 51026 PWINO $=
KLBL 241456Z AUTO 19020KT 10SM OVC041 09/01 A3004 RMK AO2 PK WND
     20026/1428 SLP169 T00890011 58001=
KLCI 241456Z AUTO 04007KT 2 1/2SM -RA OVC007 07/ A3001 RMK AO2 VIS
     1 1/2V3 SLP168 P0000 60001 T0067 53002=
PFSH 241456Z AUTO 01021KT 10SM BKN120 M09/M13 A3007 RMK AO2 SLP184
     T10941133 58017 FZRANO=
KLEW 241456Z AUTO 10006KT 2 1/2SM -RA BR OVC009 06/06 A3008 RMK
     AO2 VIS 1 3/4V4 CIG 004V012 SLP194 6//// T00610056 53004 PNO
     $=
KLGD 241456Z AUTO 32009KT 10SM -RA FEW021 SCT028 06/02 A2998 RMK
     AO2 RAB08 SLP159 P0000 60000 T00560017 51015=
KLLJ 241455Z AUTO 16003KT 10SM SCT032 BKN090 OVC100 07/02 A2981
     RMK AO2 RAB19E47 SLP070 P0001 60001 T00670017 55001=
KLOT 241455Z 23007KT 190V270 10SM CLR 07/M02 A3022=
KLPC 241456Z AUTO RMK AO2 SLPNO 6//// PWINO FZRANO $=
KLRD 241456Z 04010KT 10SM OVC011 15/12 A3007 RMK AO2 SLP183
     T01500122 51011=
