SAUS70 KWBC 241638 RRF
METAR
KBVI 241635Z AUTO 28005KT 10SM SCT028 BKN035 OVC044 05/00 A3013
     RMK AO2 T00541003=
KCKZ 241635Z AUTO 34004KT 10SM SCT065 12/M03 A3006 RMK AO2=
KD57 241635Z AUTO 12011G17KT 10SM CLR 08/M06 A3005 RMK AO2=
KD60 241635Z AUTO 14015G22KT 10SM CLR 06/M05 A3006 RMK AO2=
KDUH 241635Z AUTO 30008KT 10SM SCT034 SCT055 OVC070 07/M01 A3017
     RMK AO2 T00701014=
KELO 241635Z AUTO 02004KT 10SM SCT070 02/M09 A3016 RMK AO2=
KFBL 241635Z AUTO 23005KT 10SM SCT035 SCT045 BKN060 06/M01 A3015
     RMK AO2=
KFSE 241635Z AUTO 00000KT 10SM CLR 02/M06 A3017 RMK AO2=
KGHW 241635Z AUTO 01006KT 10SM CLR 05/M04 A3016 RMK AO2=
KLJF 241635Z AUTO 35004KT 10SM SCT026 SCT036 05/M03 A3015 RMK
     AO2=
KLNL 241635Z AUTO 02007KT 10SM BKN060 BKN070 05/M08 A3013 RMK AO2
     T00481085=
K22N 241635Z AUTO 28004KT 10SM SCT060 OVC070 11/M04 A3005 RMK
     AO2=
K3N8 241635Z AUTO 01006KT 10SM SCT033 SCT039 SCT048 03/M03 A3017
     RMK AO2 T00331032=
K46D 241635Z AUTO 10005G12KT 10SM FEW028 03/M03 A3018 RMK AO2=
K57C 241635Z AUTO 28010G16KT 10SM BKN050 OVC060 07/M05 A3018 RMK
     AO2 T00661054=
K5H4 241635Z AUTO 10008G14KT 10SM CLR 04/M08 A3018 RMK AO2=
K7L2 241635Z AUTO 12010KT 10SM CLR 08/M05 A3012 RMK AO2=
KACB 241635Z AUTO 23006KT 10SM SCT032 04/M04 A3015 RMK AO2
     T00401044=
KCDA 241635Z AUTO 06004KT 7SM 07/05 A3001 RMK AO2 T00720045
     PWINO=
KCOQ 241635Z AUTO 07004KT 10SM BKN046 03/M08 A3013 RMK AO2
     TSNO=
KD39 241635Z AUTO 00000KT 10SM SCT041 04/M05 A3016 RMK AO2
     T00371053=
KDTL 241635Z AUTO VRB05KT 10SM FEW043 BKN050 BKN060 03/M05 A3016
     RMK AO2=
KFRH 241635Z AUTO 23003KT 10SM SCT065 08/M08 A3025 RMK AO1=
KI19 241635Z AUTO VRB05KT 10SM BKN043 OVC055 07/M02 A3021 RMK
     AO2=
KI69 241635Z AUTO 32005KT 10SM OVC043 06/M03 A3024 RMK AO2
     T00621033=
KISQ 241635Z AUTO 29010G15KT 270V330 10SM BKN027 BKN034 OVC050
     06/M03 A3012 RMK AO2 T00551030=
KJKJ 241635Z AUTO 02004KT 10SM SCT032 04/M03 A3019 RMK AO2
     TSNO=
KLXL 241635Z AUTO 34006KT 10SM SCT049 OVC060 04/M07 A3015 RMK
     AO2=
KMGG 241635Z AUTO 30005KT 10SM OVC050 05/M03 A3017 RMK AO2
     T00521032=
KBPC 241635Z AUTO 18015G21KT 10SM SCT024 BKN030 09/02 A3006 RMK
     AO2=
KBQX 241635Z AUTO 03019KT 6SM HZ OVC014 18/15 A3006 RMK A01=
KBWP 241635Z AUTO VRB05KT 10SM FEW029 FEW037 SCT050 05/M01 A3017
     RMK AO2=
KBXA 241635Z AUTO 04006KT 10SM OVC095 19/07 A3012 RMK AO2
     T01860068=
KBYL 241635Z AUTO 34008KT 10SM CLR 10/M04 A3021 RMK AO1=
KC09 241635Z AUTO 30011G19KT 10SM 09/M03 A3021 RMK AO2
     T00931034=
KCCU 241635Z AUTO 33003G10KT 10SM BKN025 00/M07 A3006 RMK AO2=
KCDD 241634Z AUTO 04003KT 10SM SCT060 03/M09 A3020 RMK AO2=
KCFJ 241635Z AUTO 31008G15KT 280V340 10SM SCT050 08/M06 A3024 RMK
     AO2 T00771065=
KCGC 241635Z AUTO 07009G14KT 10SM OVC090 27/17 A2998 RMK AO2=
KCJR 241635Z AUTO 29004G08KT 10SM SCT060 14/M02 A3013 RMK AO2
     T01401018=
KCLW 241635Z AUTO 09006KT 10SM CLR 26/18 A2995 RMK AO2 PWINO=
KCMD 241635Z AUTO 04009G16KT 10SM CLR 14/M00 A3020 RMK AO2=
KCVC 241635Z AUTO 00000KT 10SM BKN120 16/02 A3013 RMK AO2=
KCWC 241635Z AUTO 08004KT 10SM OVC065 14/04 A3016 RMK AO2
     T01360040=
KCXU 241635Z AUTO 05007KT 10SM CLR 21/08 A3009 RMK AO1
     T02120080=
KD25 241635Z AUTO 29003KT 10SM SCT042 SCT050 OVC055 03/M07 A3012
     RMK AO2 T00251074=
KDLP 241635Z AUTO 06021G26KT 10SM CLR 21/13 A2993 RMK A01=
KDNV 241635Z AUTO 28009G20KT 10SM SCT050 10/M04 A3024 RMK AO2
     T00971037=
KDSF 241640Z AUTO 03027KT 10SM CLR 24/15 A2997 RMK A01=
KDTA 241635Z AUTO 18012KT 10SM OVC060 11/03 A2992 RMK AO1=
