SAUS80 KWBC 241500
METAR
KREO 241452Z AUTO 30007KT 08/01 A2992 RMK AO1 SLP128 T00780006
     51022=
KP69 241452Z AUTO 00000KT 06/04 A2998 RMK AO1 SLP157 P0004 60019
     T00560039 51019=
KABI 241452Z 13005KT 10SM OVC036 11/07 A3014 RMK AO2 SLP200
     T01060067 51008=
KABQ 241452Z 01004KT 10SM BKN120 BKN140 OVC250 11/00 A2996 RMK AO2
     SLP099 T01110000 53005=
KALS 241452Z AUTO 01008KT 10SM SCT035 BKN070 OVC080 06/M03 A2997
     RMK AO2 SLP104 T00561033 51005=
KBDR 241452Z VRB05KT 10SM FEW039 12/02 A3004 RMK AO2 SLP172
     T01220022 50003=
KBLU 241452Z AUTO 16003KT 10SM CLR 10/03 A3004 RMK AO2 SLP126
     T01000033 53004 $=
KCDJ 241451Z AUTO 15008KT 11/M02 A3018 RMK AO1 SLP226 T01111017
     58002=
KCID 241452Z 20008KT 10SM BKN080 08/M03 A3018 RMK AO2 SLP225
     T00831028 50002=
KCNU 241452Z AUTO 21013G20KT 10SM CLR 13/M01 A3018 RMK AO2 SLP217
     T01331011 51008=
KGDP 241451Z AUTO RMK AO2 SLPNO PWINO FZRANO $=
KLND 241453Z AUTO 00000KT 10SM CLR 06/M03 A2984 RMK AO2 SLP092
     T00611033 58003=
KMBG 241452Z AUTO 10013KT 10SM CLR 07/M04 A3006 RMK AO2 SLP189
     T00671039 51002=
KMFD 241452Z 29006KT 10SM FEW013 BKN047 OVC075 04/01 A3015 RMK AO2
     UPB18E29 SLP217 P0000 60001 T00440011 51008=
KVTN 241452Z AUTO 11012KT 10SM CLR 09/M06 A2999 RMK AO2 SLP167
     T00891061 50001=
KMHK 241452Z 23012KT 10SM CLR 14/M01 A3010 RMK AO2 SLP194
     T01391006 51007=
KMLF 241452Z AUTO 20012KT 10SM CLR 09/05 A2993 RMK AO2 SLP110
     T00890050 51005=
KNYC 241451Z AUTO 31004KT 10SM CLR 12/01 A3008 RMK AO2 SLP176
     T01220006 50000 $=
KSPS 241452Z 17008KT 10SM OVC060 12/05 A3016 RMK AO2 SLP210
     T01170050 51005 $=
KTOL 241452Z 31009KT 10SM BKN030 BKN038 OVC065 06/M01 A3018 RMK
     AO2 SLP223 T00561011 51006=
KP68 241453Z AUTO 24005KT 07/03 A2996 RMK AO1 SLP110 T00720033
     55001=
KFWA 241454Z 29006KT 10SM FEW018 BKN023 BKN055 06/M02 A3020=
KOQT 241453Z AUTO 08006KT 10SM CLR 11/M03 A3022 RMK AO2 SLP238
     T01061028 51005=
KNUI 241453Z AUTO VRB06KT 10SM OVC075 12/01 A3012 RMK AO2 SLP198
     T01170006 53004=
KTCS 241453Z AUTO 00000KT 10SM CLR 16/M02 A2996 RMK AO2 SLP081
     T01561017 51009=
KMYL 241451Z AUTO 23004KT 10SM -RA SCT007 BKN016 OVC021 02/02
     A2982 RMK AO2 RAE05B25 SLP105 P0001 60003 T00170017 53004=
KOXR 241451Z 09005KT 7SM OVC009 13/12 A2990 RMK AO2 SLP125
     T01330122 53009=
KSAD 241451Z AUTO 15003KT 10SM CLR 19/00 A2989 RMK AO2 SLP077
     T01890000 51013=
KSAN 241451Z 15005KT 10SM OVC019 16/10 A2992 RMK AO2 SLP129
     T01560100 51005=
KSAT 241451Z 04006KT 10SM FEW015 OVC021 14/11 A3010 RMK AO2 SLP182
     60000 T01440106 50002 $=
KSMX 241451Z 30003KT 1/4SM R12/1600V4000FT FG VV002 09/09 A2996
     RMK AO2 SLP147 T00890089 53005=
KSNT 241451Z AUTO 12003KT 01/00 A2984 RMK AO1 SLP072 P0007 60013
     T00110000 58001=
KVCT 241451Z 03008KT 10SM FEW014 OVC020 16/12 A3009 RMK AO2 SLP188
     T01560122 51008=
KBDR 241452Z VRB05KT 10SM FEW039 12/02 A3004 RMK AO2 SLP172
     T01220022 50003=
KMBG 241452Z AUTO 10013KT 10SM CLR 07/M04 A3006 RMK AO2 SLP189
     T00671039 51002=
KVTN 241452Z AUTO 11012KT 10SM CLR 09/M06 A2999 RMK AO2 SLP167
     T00891061 50001=
KABI 241452Z 13005KT 10SM OVC036 11/07 A3014 RMK AO2 SLP200
     T01060067 51008=
KABQ 241452Z 01004KT 10SM BKN120 BKN140 OVC250 11/00 A2996 RMK AO2
     SLP099 T01110000 53005=
KGDP 241451Z AUTO RMK AO2 SLPNO PWINO FZRANO $=
KMLF 241452Z AUTO 20012KT 10SM CLR 09/05 A2993 RMK AO2 SLP110
     T00890050 51005=
KSPS 241452Z 17008KT 10SM OVC060 12/05 A3016 RMK AO2 SLP210
     T01170050 51005 $=
