SAUS70 KWBC 241500 RRW
METAR
KDDH 241454Z AUTO 23006KT 10SM OVC016 06/03 A3003 RMK AO2 SLP173
     T00610028 53006=
KOOA 241455Z AUTO 21008KT 10SM SCT075 11/M02 A3019 RMK AO2
     T01061025=
KOWX 241455Z AUTO 29007KT 10SM SCT026 BKN047 OVC065 06/M01 A3021
     RMK AO1=
KRDK 241455Z AUTO 15007G13KT 10SM BKN100 10/M01 A3009 RMK AO2=
KRZT 241455Z AUTO 28004KT 10SM SCT041 BKN049 OVC060 06/M03 A3021
     RMK AO2 PWINO=
KSHL 241455Z AUTO VRB04KT 10SM CLR 08/M03 A3009 RMK AO2=
KSXK 241455Z AUTO 17009KT 10SM CLR 09/M02 A3008 RMK AO2=
KTAZ 241455Z AUTO 00000KT 10SM CLR 09/M03 A3025 RMK AO2
     T00901034=
KTIF 241455Z AUTO 11008KT 10SM CLR 08/M06 A2998 RMK AO2
     T00771060=
KTIP 241455Z AUTO 00000KT 10SM CLR 08/M04 A3024 RMK AO2
     T00781039=
KTVK 241455Z AUTO 15008KT 10SM FEW065 SCT080 SCT100 09/M04 A3019
     RMK AO2=
KTYQ 241455Z AUTO 26007KT 10SM CLR 06/M03 A3024 RMK AO2
     T00561029=
KUMP 241455Z AUTO 33005KT 7SM CLR 08/M02 A3024 RMK AO2
     T00771019=
KUNI 241455Z AUTO 27008KT 5SM HZ BKN048 BKN060 09/M03 A3018 RMK
     AO2 T00901033=
KVWU 241455Z AUTO 00000KT 10SM CLR 02/M02 A3016 RMK AO2=
KVYS 241455Z AUTO 26008KT 10SM CLR 09/M05 A3023 RMK AO2
     T00901046=
KW22 241455Z AUTO VRB06G12KT 10SM 09/M07 A3015 RMK AO2=
KXLL 241455Z AUTO 28006KT 10SM CLR 10/00 A3009 RMK AO2=
KZER 241455Z AUTO 29008KT 10SM SCT035 BKN041 BKN049 07/M01 A3006
     RMK AO2=
KBWD 241455Z AUTO 12004KT 9SM FEW013 OVC034 10/09 A3015 RMK
     AO1=
TJPS 241455Z AUTO VRB04KT 10SM CLR 29/20 A2989 RMK AO2 TSNO=
