SAUS70 KWBC 241500 RRO
METAR
KGNC 241450Z AUTO 15013G18KT 10SM OVC008 08/07 A3009 RMK AO2
     T00830072=
KHZR 241450Z AUTO 06009G14KT 10SM SCT100 15/07 A3012 RMK AO2
     T01460068=
KK62 241455Z AUTO 29009KT 10SM CLR 06/M02 A3022 RMK AO2=
KNOW 241450Z AUTO 16003KT 10SM SCT017 07/05 A3005 RMK AO2
     T00700053=
KOLY 241450Z AUTO 00000KT 10SM CLR 09/M04 A3028 RMK AO2 T00861040
     PWINO=
KTMK 241450Z AUTO 00000KT 10SM OVC029 08/07 A3014 RMK AO2=
KULS 241450Z AUTO 19019G23KT 10SM BKN041 10/01 A2998 RMK AO2=
KVES 241450Z AUTO 32007KT 10SM BKN024 BKN034 OVC060 03/M01 A3020
     RMK AO2=
KX26 241450Z AUTO 10SM -RA SCT027 BKN040 OVC060 24/21 A3001 RMK
     AO2 P0001 TSNO 60001=
KXBP 241450Z AUTO 14008KT 10SM SCT070 BKN085 BKN120 12/05 A3018
     RMK AO2 T01150051=
KNFE 241456Z AUTO VRB06KT 10SM OVC043 13/04 A3011 RMK AO2 SLP199
     T01280039 51011=
