SAUS70 KWBC 241640 RRF
METAR
KLRU 241635Z AUTO 14005KT 10SM CLR 20/02 A2998 RMK AO2
     T02010019=
KN03 241635Z AUTO 29006KT 10SM SCT041 SCT050 BKN080 06/00 A3004
     RMK AO2=
KOCQ 241635Z AUTO 11005KT 10SM BKN043 05/M01 A3016 RMK AO1
     T00531012=
KPMH 241635Z AUTO 30005KT 10SM BKN065 11/M06 A3020 RMK AO2
     T01071056=
K05U 241630Z AUTO 30009KT 270V350 10SM 12/00 A2997 RMK A01=
K0F2 241635Z AUTO 10SM SCT070 SCT080 16/02 A3015 RMK AO2
     T01550020=
K3S8 241635Z AUTO 00000KT 10SM OVC046 10/03 A3018 RMK AO2=
K46U 241635Z AUTO 00000KT 10SM OVC043 03/M03 A2990 RMK A01=
KAJZ 241635Z AUTO 13003KT 10SM OVC085 15/M01 A2994 RMK AO2
     T01471010=
KCCU 241635Z AUTO 33003G10KT 10SM BKN025 00/M07 A3006 RMK AO2=
KDTA 241635Z AUTO 18012KT 10SM OVC060 11/03 A2992 RMK AO1=
KDZB 241635Z AUTO 00000KT 10SM SCT015 OVC026 13/09 A3012 RMK AO2
     T01320089=
KEKS 241635Z AUTO 20010G16KT 10SM OVC060 10/M00 A2984 RMK AO2=
KF05 241635Z AUTO 15008KT 10SM OVC060 13/04 A3013 RMK AO2
     T01330041=
KF46 241635Z AUTO 10009G16KT 10SM SCT095 16/02 A3016 RMK AO2
     T01550024=
KF70 241635Z AUTO 00000KT 10SM OVC008 13/11 A2991 RMK AO2=
KFTN 241635Z AUTO 04006KT 10SM OVC014 16/12 A3009 RMK A01=
KGZN 241620Z AUTO 14013G18KT 10SM OVC046 12/07 A3010 RMK AO2=
KHRX 241635Z AUTO 20012G15KT 10SM OVC010 08/05 A3005 RMK AO2
     T00750053=
KHSG 241635Z AUTO 00000KT 10SM CLR 12/M06 A2981 RMK AO2
     T01221056=
KINJ 241635Z AUTO 10006KT 10SM OVC090 15/07 A3014 RMK AO2
     T01450068=
KJWY 241635Z AUTO 08006KT 10SM CLR 15/06 A3018 RMK AO2
     T01490056=
KLMO 241635Z AUTO 14003KT 10SM CLR 14/M03 A2992 RMK AO2
     T01441032=
KLNC 241635Z AUTO 12003KT 10SM CLR 16/03 A3016 RMK AO2
     T01620033=
KMCJ 241635Z AUTO VRB05G12KT 9SM FEW035 BKN080 17/09 A3006 RMK
     A01=
K1D1 241635Z AUTO 02012KT 10SM FEW055 05/M03 A3017 RMK AO2=
K33N 241635Z AUTO 27007G13KT 250V320 10SM CLR 13/M00 A3008 RMK
     A01=
KGRN 241635Z AUTO 13006G14KT 10SM CLR 12/M08 A2993 RMK AO2
     T01161077=
KHLB 241635Z AUTO VRB06KT 10SM BKN050 BKN055 07/M06 A3023 RMK
     A01=
KHZX 241635Z AUTO 00000KT 10SM SCT046 BKN080 05/M05 A3015 RMK
     AO2=
KI16 241635Z AUTO 10SM CLR 11/M05 A3020 RMK AO2 T01131050=
KIFA 241635Z AUTO 26004KT 10SM SCT085 12/M02 A3014 RMK AO2
     T01151016=
KIMS 241635Z AUTO 33008G24KT 299V019 10SM SCT060 08/M04 A3026 RMK
     AO2=
KJYG 241637Z AUTO 00000KT 10SM 07/M01 A3014 RMK AO2=
KMCD 241635Z AUTO 26009G14KT 10SM BKN016 OVC037 03/M01 A3010 RMK
     AO2 T00271006=
KMQB 241635Z AUTO 00000KT 10SM CLR 12/M04 A3023 RMK AO2
     T01171044=
KMZH 241635Z AUTO 06004KT 10SM SCT049 OVC060 05/M06 A3015 RMK
     AO2=
KOLE 241635Z AUTO 30004KT 10SM BKN022 OVC028 03/M01 A3003 RMK
     AO2=
KOXD 241635Z AUTO 31005KT 10SM BKN047 OVC055 09/M04 A3023 RMK AO2
     T00871036=
KPCW 241635Z AUTO 32007KT 280V350 10SM FEW035 SCT060 OVC070 06/01
     A3017 RMK AO2=
KPHN 241637Z AUTO 29006KT 10SM SCT039 SCT049 OVC075 06/M03 A3013
     RMK AO2=
KPNT 241635Z AUTO 28011G19KT 10SM SCT055 11/M07 A3023 RMK AO2
     T01101072=
KSLO 241635Z AUTO 00000KT 10SM CLR 12/M03 A3026 RMK AO2
     T01161031=
K4S2 241635Z AUTO 28007KT 10SM SCT033 SCT040 11/05 A3007 RMK
     AO2=
K65S 241635Z AUTO 19008G14KT 10SM OVC055 07/04 A2986 RMK AO2=
KCXP 241635Z AUTO 28008G17KT 10SM CLR 16/M03 A2999 RMK AO2=
KE42 241635Z AUTO 18018G26KT 10SM OVC022 09/03 A3004 RMK AO2
     T00890031=
KHHF 241635Z AUTO 18015G20KT 10SM OVC035 10/02 A3008 RMK AO2
     T00950024=
KJTC 241630Z AUTO 27010G18KT 10SM FEW080 17/M05 A3003 RMK AO2=
KLHB 241635Z AUTO 05004KT 10SM BKN055 OVC070 15/09 A3014 RMK AO2
     T01480085=
