SAUS70 KWBC 241640 RRD
METAR
KI67 241635Z AUTO 36007KT 340V040 10SM OVC049 07/M03 A3024 RMK
     AO1=
KIRS 241635Z AUTO 33008KT 10SM SCT049 OVC055 06/M08 A3018 RMK AO2
     T00611082=
KM30 241635Z AUTO 00000KT 10SM CLR 12/M02 A3027 RMK AO2
     T01221024=
KPRO 241635Z AUTO 15009KT 10SM SCT065 12/M02 A3010 RMK AO2
     T01201021=
KPVB 241635Z AUTO 25008KT 10SM SCT050 BKN065 BKN100 09/M06 A3017
     RMK AO1 T00871061=
KRMY 241635Z AUTO 26011KT 10SM SCT037 BKN047 OVC060 04/00 A3017
     RMK AO2 T00421005=
KRNH 241635Z AUTO 24006KT 10SM SCT038 BKN044 OVC070 04/00 A3015
     RMK AO2 T00400003=
KRNP 241635Z AUTO 27008KT 10SM BKN033 BKN041 OVC048 05/M02 A3014
     RMK AO2 T00541020=
KRQB 241635Z AUTO 32004KT 10SM SCT055 BKN070 OVC085 06/M07 A3012
     RMK AO2 T00641069=
KRRT 241635Z AUTO 10004KT 10SM CLR 04/M02 A3018 RMK AO2=
KSAR 241635Z AUTO 01003KT 10SM CLR 12/M02 A3027 RMK AO2
     T01181019=
KY70 241635Z AUTO 32005KT 10SM BKN060 OVC080 07/M08 A3015 RMK AO2
     T00681080=
K0CO 241635Z AUTO 33013G19KT SCT012 BKN018 OVC024 M06/M09 A3005
     RMK AO2 PWINO=
K2V5 241635Z AUTO 14007KT 120V180 10SM BKN100 14/01 A2992 RMK
     AO2=
K33V 241635Z AUTO 23003KT 10SM OVC050 06/M06 A2997 RMK AO1=
K4V0 241635Z AUTO 00000KT 10SM CLR 10/M02 A2992 RMK AO2
     T01021017=
K66R 241635Z AUTO 06003KT 10SM OVC023 15/10 A3010 RMK AO2
     T01530102=
KAEJ 241635Z AUTO 17005KT 10SM OVC070 10/M10 A2995 RMK AO2
     T01011096=
KARM 241635Z AUTO 05005KT 10SM OVC020 14/14 A3010 RMK AO2
     T01410135 TSNO=
KAXH 241635Z AUTO 09004KT 10SM BKN026 OVC060 19/11 A3009 RMK AO2
     T01890110=
KBAM 241635Z AUTO 24013KT 10SM CLR 15/02 A2992 RMK AO1=
KBKD 241635Z AUTO 16007KT 10SM OVC060 15/07 A3012 RMK AO2
     T01510073=
KBPC 241635Z AUTO 18015G21KT 10SM SCT024 BKN030 09/02 A3006 RMK
     AO2=
KBQX 241635Z AUTO 03019KT 6SM HZ OVC014 18/15 A3006 RMK A01=
KCWC 241635Z AUTO 08004KT 10SM OVC065 14/04 A3016 RMK AO2
     T01360040=
KDSF 241640Z AUTO 03027KT 10SM CLR 24/15 A2997 RMK A01=
KDWX 241635Z AUTO 18005KT 10SM CLR 09/M03 A2995 RMK AO2
     T00921026=
KEMM 241635Z AUTO 02007KT 10SM SCT041 SCT049 04/M04 A2992 RMK AO2
     TSNO=
KPKV 241635Z AUTO 04013KT 10SM SCT020 BKN090 19/14 A3005 RMK AO2
     T01860137=
KUVA 241635Z AUTO 12003KT 10SM OVC017 15/13 A3009 RMK AO2
     T01530131=
K06C 241635Z AUTO 27012G18KT 10SM BKN050 08/M01 A3020 RMK AO2
     T00831009=
K13K 241635Z AUTO 21015G23KT 10SM CLR 18/00 A3014 RMK AO2
     T01791003=
K1A6 241635Z AUTO 05003KT 10SM CLR 12/M03 A3020 RMK AO2
     T01151032=
K1H2 241635Z AUTO 27010G14KT 230V290 10SM CLR 11/M03 A3027 RMK AO2
     T01111026=
K1R8 241635Z AUTO 02010KT 10SM BKN110 18/08 A3007 RMK AO2=
K1V6 241635Z AUTO 23007KT 10SM CLR 16/M02 A2987 RMK AO2=
K20V 241635Z AUTO 00000KT 10SM BKN065 06/M03 A2998 RMK AO2=
K2IS 241635Z AUTO 19005KT 10SM SCT038 29/19 A2994 RMK AO2 LTG DSNT
     E T02910195=
K2J3 241635Z AUTO 05005KT 10SM BKN120 18/05 A3012 RMK AO2
     T01830055=
K2R9 241635Z AUTO 03008KT 10SM SCT090 18/12 A3007 RMK AO2
     T01770123=
K3F3 241635Z AUTO 09012G18KT 10SM BKN100 17/05 A3019 RMK AO2
     T01740047=
K49A 241635Z AUTO 13004KT 10SM CLR 14/M03 A3014 RMK AO2=
K4A9 241635Z AUTO 05008G14KT 10SM CLR 14/M01 A3017 RMK AO2
     T01391007=
K5C1 241635Z AUTO 04006KT 10SM BKN015 BKN023 OVC038 13/11 A3008
     RMK AO1=
K5R8 241635Z AUTO 03005KT 10SM BKN070 BKN100 16/08 A3011 RMK AO2
     T01640075=
K6A1 241635Z AUTO 02005KT 10SM SCT095 SCT120 16/02 A3013 RMK AO2
     T01630017=
K6R3 241635Z AUTO 10003KT 10SM BKN048 OVC080 19/10 A3012 RMK AO2
     T01850100 TSNO=
