SAUS80 KWBC 241500 RRC
METAR
KNY0 241454Z AUTO 29008KT 10SM BKN023 OVC029 07/02 A3003 RMK
     AO2=
KSMP 241456Z AUTO VRB05KT 1/4SM -SN FG VV003 00/M01 A2994 RMK AO2
     SLP158 P0005 60017 T00001011 53019=
K12N 241454Z AUTO VRB04KT 12/01 A3005 RMK AO1 SLP178 T01220006
     58007=
KGNR 241456Z AUTO 14010G17KT 110V180 04/03 A3007 RMK AO1 SLP195
     P0002 60014 T00390028 51006=
KMTP 241454Z AUTO 32004KT 11/06 A3005 RMK AO1 SLP177 T01060061
     53009=
KNAK 241454Z AUTO 32007KT 10SM CLR 12/00 A3011 RMK AO2 SLP198
     T01170000 58004 $=
PHMK 241454Z AUTO 00000KT 10SM FEW025 FEW050 21/19 A2998 RMK AO2
     SLP155 T02060189 56010 TSNO /=
PHNY 241456Z AUTO 05003KT 10SM SCT010 OVC033 18/18 A3003 RMK AO2
     SLP150 T01830178 55008=
PHOG 241454Z AUTO 17004KT 10SM CLR A2997 RMK AO2 SLP155 55007 TSNO
     /=
KMEH 241456Z AUTO VRB03KT 4SM -SN BR OVC001 02/00 A2995 RMK AO2
     RAB32E33UPB33E39SNE20B39 SLP153 P0001 60001 T00170000
     53008=
KMHS 241456Z AUTO 32009G21KT 270V350 10SM CLR 04/M01 A3003 RMK AO2
     SLP182 T00391011 53013=
KSDB 241451Z AUTO 34005KT 10SM SCT013 BKN018 11/07 A3002 RMK AO2
     SLP133 T01110067 53025=
KCON 241451Z AUTO 10003KT 10SM FEW015 BKN022 BKN036 09/08 A3001
     RMK AO2 SLP164 T00940083 53002 TSNO FIBI=
K2WX 241456Z AUTO 12010KT 08/M05 A2992 RMK AO1 SLP147 T00831050
     50002=
KD07 241456Z AUTO 13013KT 08/M06 A2999 RMK AO1 SLP172 T00781061
     $=
KGNA 241456Z AUTO 13005KT 01/M03 A3020 RMK AO1 SLP237 T00111033
     51008=
KMWN 241451Z 12029KT 1/16SM FZDZ FZFG VV000 M04/M04 RMK VRY LGT
     ICG AND GICG=
K9V9 241455Z AUTO 13008KT 10SM CLR 10/M04 A3006 RMK AO2
     T00981041=
KBIH 241456Z AUTO 00000KT 10SM CLR 12/M02 A2996 RMK AO2 SLP114
     T01171017 51011=
KO86 241455Z AUTO 00000KT 10SM 04/M00 A3004 RMK A01=
K40U 241455Z AUTO 00000KT 10SM CLR 04/M04 A2995 RMK AO2
     T00361043=
KALK 241456Z AUTO 22009KT 10SM CLR 19/M08 A2999 RMK AO2 SLP073
     T01941078 51009=
KCQC 241453Z AUTO 21013KT 10SM CLR 08/M01 A3000 RMK AO2 SLP120
     T00831006 58004=
KMKN 241455Z AUTO 12005KT 10SM 11/11 A3015 RMK AO2 T01050105=
KP60 241456Z AUTO 00000KT M03/M04 A2992 RMK AO1 SLP141 T10281044
     58001=
KSPD 241456Z AUTO 20022G29KT 09/02 A2992 RMK AO1 PK WND 20029/1455
     SLP105 T00940017 58002=
KSXT 241456Z AUTO 00000KT 1/4SM FG FEW002 OVC019 02/01 A3008 RMK
     AO2 SLP196 T00170011 51008=
KFSD 241456Z 06005KT 10SM FEW100 FEW250 09/M04 A3010 RMK AO2
     SLP203 T00891039 50003 $=
KOFK 241456Z AUTO 08010KT 10SM OVC120 08/M03 A3004 RMK AO2 SLP181
     T00831033 50001=
KVTI 241455Z AUTO 18006KT 10SM CLR 11/M04 A3018 RMK AO2
     T01051036=
KGIC 241455Z AUTO 11006KT 10SM BKN019 OVC026 00/00 A2993 RMK AO1
     P0003=
KHTH 241455Z AUTO 00000KT 10SM CLR 13/M02 A2996 RMK A01=
K9MN 241455Z AUTO 31003KT 10SM SCT020 BKN055 OVC070 04/M01 A3015
     RMK AO1 T00381010=
KCKP 241455Z AUTO 17006KT 10SM CLR 09/M01 A3011 RMK AO2
     T00901009=
KWMC 241456Z AUTO 17004KT 10SM CLR 11/02 A2991 RMK AO2 SLP108
     T01110022 53004=
KBZN 241456Z 00000KT 10SM FEW080 FEW100 08/M01 A2980 RMK AO2
     SLP086 T00831011 55002=
KFLG 241457Z AUTO 00000KT 10SM CLR 11/00 A3002 RMK AO2 SLP089
     T01110000 53006=
KGNG 241500Z AUTO 00000KT 10SM FEW048 SCT065 SCT075 08/08 A2987
     RMK AO2=
KEDU 241455Z AUTO 00000KT 10SM CLR 12/09 A2994 RMK AO1=
KINW 241456Z AUTO 31008KT 10SM CLR 13/04 A2997 RMK AO2 SLP100
     T01330039 50010=
KLWS 241456Z 33010KT 10SM SCT060 OVC100 10/02 A2993 RMK AO2 SLP135
     T01000017 51014=
TJSJ 241456Z 36008KT 10SM SCT032 SCT140 27/22 A2992 RMK AO2 SLP131
     60000 T02720217 51012=
