SAUS70 KWBC 241500 RRQ
METAR
KFFL 241455Z AUTO 22009KT 10SM SCT070 BKN080 10/M06 A3019 RMK
     A01=
KFKR 241455Z AUTO 27007G14KT 10SM CLR 06/M04 A3023 RMK AO2=
KFOA 241455Z AUTO 15004KT 10SM CLR 09/M02 A3027 RMK AO2=
KFSW 241455Z AUTO 21007KT 10SM 10/M03 A3021 RMK AO2=
KGBG 241455Z AUTO 23006KT 10SM CLR 10/00 A3023 RMK AO2 T01040001
     TSNO=
KGON 241456Z 20008KT 10SM BKN020 12/08 A3003 RMK AO2 SLP168
     T01220078 53004 $=
KGPC 241455Z AUTO 26007KT 230V340 10SM CLR 07/M04 A3025 RMK AO2
     T00671038=
KGRN 241455Z AUTO 13009KT 10SM CLR 06/M07 A2994 RMK AO2
     T00641069=
KHNR 241455Z AUTO 13008KT 10SM CLR 09/M01 A3009 RMK A01=
KHPT 241455Z AUTO 22011KT 10SM CLR 10/M03 A3014 RMK AO2=
KI95 241455Z AUTO 30010KT 10SM SCT021 BKN027 OVC065 04/02 A3017
     RMK A01=
KJOT 241455Z AUTO 28008KT 10SM CLR 08/M02 A3022 RMK AO2
     T00781017=
KLCG 241455Z AUTO 10006KT 10SM SCT110 08/M02 A3007 RMK AO2
     T00831022=
KN03 241455Z AUTO 00000KT 10SM SCT023 BKN038 OVC090 05/01 A3005
     RMK AO2=
K1D1 241455Z AUTO 36005KT 10SM OVC049 02/02 A3017 RMK AO2=
K33N 241455Z AUTO 33004KT 10SM FEW085 11/00 A3009 RMK A01=
KADU 241455Z AUTO 16007KT 10SM SCT002 BKN049 OVC090 09/M03 A3009
     RMK AO2=
KAFK 241455Z AUTO 21007KT 10SM SCT060 SCT070 OVC095 09/M01 A3008
     RMK AO2 T00851008=
KANW 241455Z AUTO 10010KT 10SM CLR 07/M05 A3001 RMK AO2
     T00731047=
KART 241456Z AUTO 25007KT 10SM FEW020 OVC070 08/03 A3005 RMK AO2
     SLP177 60000 T00780028 52006=
KAWG 241455Z AUTO 22009KT 10SM CLR 10/M04 A3018 RMK AO2=
KAXA 241455Z AUTO 20006KT 10SM CLR 08/00 A3012 RMK A01=
KBNW 241455Z AUTO 19010KT 10SM CLR 09/M02 A3012 RMK AO2=
KFEP 241455Z AUTO 31006KT 10SM CLR 07/M01 A3022 RMK AO2
     T00741012=
KFET 241455Z AUTO 10004KT 10SM CLR 08/00 A3007 RMK AO2
     T00821001=
KFWC 241455Z AUTO 00000KT 10SM CLR 09/M03 A3027 RMK AO1
     T00861030=
KFXY 241455Z AUTO 29005KT 10SM CLR 06/M02 A3014 RMK AO2=
KMQB 241455Z AUTO 23007KT 10SM SCT100 10/M04 A3025 RMK AO2
     T00951037=
KOXD 241455Z AUTO 32005KT 10SM BKN034 OVC045 08/M02 A3021 RMK AO2
     T00761021=
KPCW 241455Z AUTO 32006G13KT 10SM SCT026 06/02 A3016 RMK AO2=
KPMH 241455Z AUTO 24004KT 10SM BKN055 BKN065 11/M04 A3020 RMK AO2
     T01051039=
KPNT 241455Z AUTO 27012KT 10SM CLR 09/M05 A3024 RMK AO2
     T00851051=
KUSE 241455Z AUTO 31012KT 10SM SCT026 BKN031 OVC060 05/00 A3018
     RMK AO2=
KY49 241455Z AUTO 01004KT 10SM SCT023 BKN050 OVC070 01/M05 A3015
     RMK AO2 T00081052=
KAZC 241455Z AUTO 17004KT 10SM CLR 11/04 A2997 RMK AO2=
KBVS 241455Z AUTO 18004KT 10SM OVC060 08/08 A3005 RMK A01=
KDKR 241455Z AUTO 05006KT 10SM FEW060 BKN075 13/09 A3013 RMK
     AO2=
KDUX 241455Z AUTO 17017G22KT 10SM OVC020 07/02 A3003 RMK AO2
     T00700018=
KDVO 241455Z AUTO 00000KT 10SM CLR 11/08 A2998 RMK AO2=
KDZB 241455Z AUTO 04004KT 10SM BKN011 OVC029 12/09 A3013 RMK AO2
     T01200088=
KE16 241455Z AUTO 00000KT 1 1/2SM BR OVC003 08/08 A3002 RMK
     AO2=
KE41 241455Z AUTO 13007KT 10SM OVC004 09/08 A3010 RMK AO2
     T00890079=
KECU 241455Z AUTO 08008KT 10SM 11/10 A3012 RMK AO2=
KEKS 241455Z AUTO 18017KT 10SM FEW048 FEW060 SCT070 07/M03 A2985
     RMK AO2=
KERV 241455Z AUTO 08003KT 10SM OVC010 12/10 A3011 RMK AO2
     T01200096=
KFMM 241455Z AUTO 00000KT 10SM CLR 06/M03 A2991 RMK AO2=
KGDJ 241455Z AUTO 13005KT 10SM OVC090 12/06 A3018 RMK AO2
     T01180060=
KHHF 241455Z AUTO 19012G21KT 10SM OVC039 09/02 A3010 RMK AO2
     T00900018=
KLRU 241455Z AUTO 16006KT 10SM BKN120 16/03 A2999 RMK AO2
     T01560031=
KMVH 241500Z AUTO 10004KT 10SM OVC100 08/M01 A2978 RMK AO2
     PWINO=
