SAUS70 KWBC 241500 RRX
METAR
KEDC 241455Z AUTO 02009KT 9SM OVC034 12/09 A3012 RMK AO2=
