SAUS70 KWBC 241500 RRA
METAR
KGWW 241500Z AUTO 02010G15KT 10SM OVC032 12/02 A3014 RMK AO2
     T01220016=
KHAE 241455Z AUTO 00000KT 10SM CLR 11/M04 A3023 RMK AO2=
KHBI 241445Z AUTO 35007KT 10SM CLR 12/00 A3017 RMK AO2
     T01181004=
KHNZ 241455Z AUTO 04004KT 10SM SCT060 11/M02 A3015 RMK AO2
     T01091022=
KHRJ 241445Z AUTO 01010KT 10SM SCT095 13/00 A3016 RMK AO2
     T01291002=
KIPJ 241445Z AUTO 05003KT 10SM CLR 13/00 A3015 RMK AO2
     T01271003=
TJBQ 241450Z 01008KT 10SM CLR 27/21 A2994=
KHQZ 241450Z 10006KT 10SM OVC100 13/07 A3018=
KLWB 241450Z 30008G14KT 10SM SCT040 07/M04 A3013=
K1P1 241455Z AUTO 09003KT 4SM -DZ OVC019 07/05 A3002 RMK AO2
     T00730050=
K2C8 241455Z AUTO 01004KT 10SM OVC049 01/M02 A3020 RMK AO2=
K2G4 241445Z AUTO 29009G19KT 250V310 10SM OVC036 03/M06 A3007 RMK
     AO2=
K2W6 241449Z AUTO 34003KT 10SM OVC070 11/00 A3014 RMK AO1=
K6L4 241455Z AUTO VRB06KT 10SM SCT049 08/M05 A3017 RMK AO2=
KALN 241450Z 16004KT 10SM CLR 09/M01 A3025=
KATW 241445Z 30004KT 10SM FEW040 06/M04 A3014=
KBVI 241447Z AUTO 28008KT 10SM -DZ SCT022 BKN043 OVC049 05/M01
     A3012=
KCGE 241445Z AUTO 33007KT 10SM BKN080 11/00 A3012 RMK A01=
KCGF 241445Z 30008KT 10SM OVC025 04/01 A3014=
KCGS 241450Z AUTO 31006KT 10SM SCT050 12/M01 A3013 RMK AO2
     T01181012=
KDMW 241445Z AUTO 31006KT 10SM SCT045 11/M01 A3010 RMK AO2=
KFDK 241447Z 27006KT 10SM SCT050 SCT065 12/M01 A3012=
KGYY 241445Z COR 30006KT 10SM SCT075 08/M05 A3021=
KGYY 241445Z 30006KT 10SM SCY075 08/M05 A3021=
KIUA 241455Z AUTO 30005KT 10SM SCT025 BKN032 OVC080 09/02 A3005
     RMK AO2 T00870022=
KMMU 241445Z 35003KT 10SM SCT047 12/02 A3006=
KMWA 241445Z 14006KT 20SM CLR 09/00 A3027=
KRID 241455Z AUTO 32010KT 10SM SCT029 BKN034 OVC048 05/M02 A3021
     RMK AO2=
KSAW 241447Z 32010G17KT 10SM SCT031 SCT046 03/M05 A3012=
KSWF 241445Z VRB05KT 10SM SCT025 10/03 A3003=
KADM 241450Z 14010KT 10SM FEW090 12/06 A3018=
KFIN 241450Z 09008KT 10SM SCT040 25/16 A3005=
KRYY 241450Z 35008KT 10SM CLR 13/M02 A3017 RMK AO2 SLP213
     T01331017 52012 $=
