SAUS70 KWBC 241532
METAR
K1A5 241530Z AUTO 00000KT 10SM CLR 12/00 A3017 RMK AO2
     T01161002=
K1S5 241535Z AUTO 00000KT 10SM SCT110 09/03 A2999 RMK AO2
     T00910032=
K24A 241525Z AUTO 00000KT 10SM CLR 09/M05 A3014 RMK AO2
     T00911050=
K2G4 241525Z AUTO 25009G18KT 230V300 10SM BKN038 04/M08 A3007 RMK
     AO2=
K2W6 241529Z AUTO 31004KT 10SM CLR 12/M01 A3013 RMK AO1=
K6L4 241535Z AUTO VRB05KT 10SM FEW050 09/M05 A3017 RMK AO2=
K7W6 241530Z AUTO 03014KT 10SM SCT027 OVC090 17/10 A3007 RMK AO2
     T01670097=
KACZ 241525Z AUTO 35007KT 10SM -RA OVC075 11/05 A3013 RMK AO2
     T01140052=
KAFP 241529Z AUTO 04007KT 10SM SCT090 14/01 A3015 RMK AO2
     T01390011=
KASJ 241525Z AUTO 01006KT 10SM OVC045 11/02 A3014 RMK AO2
     T01100020=
KCGE 241525Z AUTO VRB05KT 10SM SCT090 12/01 A3011 RMK A01=
KCGS 241530Z AUTO 28008G14KT 10SM SCT055 12/M02 A3013 RMK AO2
     T01231018=
KCPC 241525Z AUTO 01005KT 10SM SCT075 BKN085 13/07 A3013 RMK AO2
     T01270065=
KCTZ 241525Z AUTO 02008G14KT 360V070 10SM OVC095 12/03 A3014 RMK
     AO2 T01200031=
KDMW 241525Z AUTO 30005KT 10SM SCT047 BKN060 11/M02 A3010 RMK
     AO2=
KDPL 241525Z AUTO 36011G14KT 7SM SCT080 OVC100 11/03 A3014 RMK
     AO2=
KEDE 241530Z AUTO 04006KT 10SM OVC032 14/09 A3012 RMK AO2
     T01420091=
KEHO 241525Z AUTO 03005KT 10SM CLR 13/00 A3015 RMK AO2
     T01270003=
KETC 241520Z AUTO 36004KT 7SM OVC041 11/01 A3015 RMK AO2
     T01150014=
KEXX 241530Z AUTO 34003KT 10SM CLR 13/M01 A3015 RMK AO2
     T01321007=
KEYF 241530Z AUTO 35007KT 10SM SCT070 BKN085 OVC110 12/05 A3014
     RMK AO2 T01210046=
KFFA 241535Z AUTO 36009G16KT 340V040 10SM SCT021 BKN031 OVC100
     13/07 A3009 RMK AO2 T01260068=
KFME 241529Z AUTO 31006KT 10SM SCT055 12/M01 A3014 RMK AO1=
KFQD 241525Z AUTO 00000KT 10SM CLR 13/00 A3015 RMK AO2=
KGEV 241525Z AUTO 27006KT 10SM CLR 07/M06 A3012 RMK AO2
     T00711064=
KGWW 241540Z AUTO 01009KT 10SM OVC034 13/01 A3014 RMK AO2
     T01260013=
KHAE 241535Z AUTO 15004KT 10SM SCT090 12/M05 A3022 RMK AO2=
KHBI 241525Z AUTO 01009KT 320V020 10SM CLR 12/00 A3017 RMK AO2
     T01221002=
KHNZ 241535Z AUTO 01007KT 10SM SCT060 12/M02 A3014 RMK AO2
     T01171016=
KHRJ 241525Z AUTO 03010KT 10SM SCT095 14/01 A3015 RMK AO2
     T01440008=
KIPJ 241525Z AUTO 03003KT 10SM CLR 14/00 A3015 RMK AO2
     T01370003=
KIXA 241530Z AUTO 01010G14KT 10SM OVC050 11/03 A3015 RMK AO2=
KLHZ 241535Z AUTO 03007KT 10SM SCT048 12/00 A3016 RMK AO2=
KMCZ 241525Z AUTO 01009KT 10SM OVC035 13/04 A3013 RMK AO2
     T01260035=
KMQI 241530Z AUTO 04014G19KT 10SM BKN021 BKN034 OVC095 13/08 A3010
     RMK AO2 T01330075=
KMRN 241525Z AUTO 22005KT 10SM CLR 14/00 A3015 RMK AO2
     T01380000=
KMWK 241525Z AUTO 04004KT 10SM CLR 12/M01 A3016 RMK AO2
     T01181014=
KOCW 241525Z AUTO 35012G15KT 10SM SCT090 14/06 A3012 RMK AO2
     T01380055=
KONX 241525Z AUTO 02010G15KT OVC036 12/04 A3011 RMK AO2 T01180035
     PWINO=
KPGV 241525Z AUTO 04010KT 10SM OVC033 13/03 A3013 RMK AO2=
KRCZ 241535Z AUTO 03008KT 350V070 10SM CLR 14/02 A3015 RMK AO2
     T01390016=
KRHP 241529Z AUTO 02006KT 10SM CLR 12/M05 A3015 RMK AO2
     T01241049=
KRUQ 241525Z AUTO 36007KT 10SM CLR 13/00 A3015 RMK AO2
     T01251005=
KSCR 241525Z AUTO 01008KT 10SM CLR 13/01 A3014 RMK AO2
     T01310005=
KSIF 241525Z AUTO 29004KT 10SM CLR 13/M01 A3015 RMK AO2
     T01251014=
KSUT 241530Z AUTO 01006KT 10SM SCT100 BKN120 18/11 A3009 RMK AO2
     T01750113=
KSVH 241525Z AUTO 05007KT 10SM CLR 13/00 A3014 RMK AO2
     T01260000=
KTDF 241525Z AUTO 07007KT 10SM CLR 11/00 A3017 RMK AO2=
