SAUS70 KWBC 241500 RRV
METAR
KSBS 241455Z AUTO 00000KT 10SM SCT065 M01/M04 A2996 RMK AO1
     T10101041=
KSLR 241455Z AUTO 10006KT 10SM SCT110 13/06 A3021 RMK AO2
     T01260059=
KSWW 241455Z AUTO 13007KT 10SM OVC021 11/11 A3013 RMK AO2
     T01080108=
KTPH 241456Z AUTO 01004KT 10SM CLR 11/M01 A2999 RMK AO2 SLP107
     T01111011 50005=
KUKI 241456Z AUTO 35004KT 10SM CLR 09/05 A3005 RMK AO2 SLP172
     T00940050 51011=
K2V6 241459Z AUTO 33003KT 10SM BKN100 08/M02 A2991 RMK AO2=
K6P9 241455Z AUTO 14004KT 10SM SCT006 BKN075 09/07 A3015 RMK AO2
     T00940070=
KBDG 241455Z AUTO 10005KT 10SM 08/06 A3003 RMK AO1 T00760055=
KBMT 241455Z AUTO 04007KT 10SM OVC060 14/08 A3011 RMK AO2
     T01420081=
KC99 241455Z AUTO 33009G22KT 10SM CLR M04/M09 A3001 RMK AO2=
KE11 241455Z AUTO 12011KT 10SM OVC005 08/08 A3007 RMK AO2
     T00800080=
KEBG 241455Z AUTO 02009KT 10SM OVC012 17/15 A3005 RMK AO2
     T01700145=
KGNB 241455Z AUTO 20003KT 10SM SCT050 OVC060 M01/M05 A3002 RMK AO2
     T10151052=
KHBV 241455Z AUTO 05007KT 10SM OVC007 15/13 A3007 RMK AO2
     T01470126=
KMDD 241455Z AUTO 12011KT 10SM OVC007 09/07 A3008 RMK AO2
     T00860071=
KMLP 241453Z AUTO 00000KT 1/4SM -SN FZFG VV003 M02/M02 A2983 RMK
     AO2 SLP071 P0002 60005 T10221022 53010=
KMNH 241455Z AUTO 28006KT 10SM CLR 06/M01 A2996 RMK AO2=
KOSA 241455Z AUTO 09006KT 10SM OVC100 12/06 A3017 RMK AO2
     T01180063=
KOZA 241455Z AUTO 10SM OVC006 10/08 A3011 RMK AO2=
KPEQ 241455Z AUTO 00000KT 10SM OVC015 10/06 A3007 RMK AO2
     T00980062=
KPPA 241455Z AUTO 18015G18KT 10SM 08/04 A3009 RMK AO2
     T00830035=
KPSO 241455Z AUTO 00000KT 4SM -RA SCT012 BKN021 OVC028 02/02 A3003
     RMK AO2 T00240024=
KPVW 241455Z AUTO 17013KT 10SM OVC010 06/03 A3007 RMK AO2
     T00610032=
KRBO 241455Z AUTO 06010KT 10SM SCT090 17/13 A3006 RMK AO2
     T01700131=
KSAA 241455Z AUTO 16004KT 10SM CLR 05/M03 A2994 RMK AO2=
KSXU 241455Z AUTO 17008KT 10SM OVC013 06/03 A3000 RMK AO2
     T00640025=
KW43 241455Z AUTO 00000KT 10SM CLR 05/M03 A2989 RMK AO2=
KDUB 241457Z AUTO 30011KT 10SM OVC060 03/M09 A2988 RMK AO2=
K04V 241448Z AUTO 30008KT 10SM 06/M06 A3001 RMK AO2=
KAFO 241450Z AUTO 00000KT 10SM BKN060 OVC070 M01/M06 A2992 RMK
     AO2=
KANK 241450Z AUTO 36005KT 10SM CLR 07/M04 A3003 RMK AO1
     T00651037=
KBMC 241450Z AUTO 11009KT 5SM SCT041 OVC048 07/04 A2990 RMK AO1
     T00670036=
KCIC 241447Z 32004KT 10SM CLR 14/02 A2996=
KGNC 241450Z AUTO 15013G18KT 10SM OVC008 08/07 A3009 RMK AO2
     T00830072=
KLUV 241455Z AUTO 16016KT 10SM OVC007 08/07 A3008 RMK AO2=
KNOW 241450Z AUTO 16003KT 10SM SCT017 07/05 A3005 RMK AO2
     T00700053=
KRWV 241455Z AUTO 01004KT 10SM BKN044 OVC065 13/08 A3013 RMK AO2
     T01270081=
KRYN 241445Z 100KT 05 10SM CLR 23/M06 A2986=
KSUN 241455Z 29003KT 10SM SCT029 SCT120 06/02 A2986=
KSZT 241455Z AUTO 22004KT 10SM SCT010 BKN019 OVC023 06/04 A2988
     RMK AO2=
KT20 241455Z AUTO 03004KT 10SM BKN022 OVC035 15/11 A3010 RMK AO2
     60001 T01480108=
KT35 241455Z AUTO 00000KT 10SM BKN043 OVC060 12/08 A3015 RMK AO2
     T01150081=
KT41 241455Z AUTO 02007KT 10SM OVC080 14/10 A3011 RMK AO2
     T01440097=
KT74 241455Z AUTO 36007KT 10SM SCT012 OVC040 12/09 A3013 RMK AO2
     T01160085=
KTEX 241455Z AUTO 00000KT 10SM SCT025 SCT030 OVC043 01/M01 A3004
     RMK AO2 P0001=
KTMK 241450Z AUTO 00000KT 10SM OVC029 08/07 A3014 RMK AO2=
KTXW 241455Z AUTO 01014KT 10SM OVC010 18/15 A3003 RMK AO2
     T01770148=
KVHN 241455Z AUTO 07005KT 10SM CLR 09/03 A3008 RMK AO2
     T00880032=
KANE 241445Z 00000KT 10SM SCT034 BKN043 05/M01 A3014=
