SAUS70 KWBC 241500 RRE
METAR
KBPT 241453Z 03010KT 10SM OVC085 16/09 A3010 RMK AO2 SLP192
     T01560089 51023=
KBRD 241453Z AUTO 03006KT 10SM CLR 04/M06 A3015 RMK AO2 SLP221
     T00391056 50005=
KBRG 241455Z AUTO 19005KT 10SM CLR 14/M02 A2997 RMK AO2
     T01351024=
KBRL 241453Z AUTO 19007KT 10SM BKN095 09/M01 A3022 RMK AO2 SLP236
     T00941011 51007=
KBRO 241453Z 35011G17KT 10SM OVC010 19/17 A3000 RMK AO2 SLP159
     T01890167 51009=
KBTL 241453Z 29011KT 10SM SCT037 OVC065 06/M03 A3017 RMK AO2
     SLP222 T00561033 51005=
KBTM 241453Z AUTO 13003KT 10SM FEW045 BKN055 OVC070 06/M01 A2981
     RMK AO2 SLP078 T00611006 50001=
KBVO 241453Z AUTO 20011G16KT 10SM CLR 14/M01 A3019 RMK AO2 SLP218
     T01441006 51004=
KBVY 241453Z 22004KT 10SM OVC016 09/06 A3002 RMK AO2 SLP160
     T00890056 51007=
KBWG 241453Z AUTO VRB04KT 10SM CLR 11/00 A3026 RMK AO2 SLP248
     T01110000 51010=
KBYG 241453Z AUTO 10003KT 10SM CLR 07/M04 A2982 RMK AO2 SLP088
     T00721044 50000=
KBYI 241453Z AUTO 21009KT 10SM BKN090 09/04 A2984 RMK AO2 SLP091
     T00940039 58001=
KC35 241455Z AUTO 23007KT 10SM SCT047 BKN060 OVC100 06/M05 A3017
     RMK AO2 T00551047 PWINO=
KCAG 241453Z AUTO 00000KT 10SM CLR 03/M03 A2996 RMK AO2 SLP139
     T00331028 50002=
KCCR 241453Z 19010KT 10SM CLR 12/06 A2997 RMK AO2 SLP133 T01220061
     53006=
KCDA 241455Z AUTO 00000KT 10SM 07/04 A3001 RMK AO2 T00690037
     PWINO=
KCDC 241453Z AUTO 00000KT 10SM CLR 08/04 A2996 RMK AO2 SLP118
     T00780044 51007=
KCDI 241455Z AUTO 28004KT 10SM BKN041 OVC065 06/M01 A3018 RMK AO2
     T00571014=
KCDS 241453Z AUTO 16008KT 10SM OVC043 09/03 A3014 RMK AO2 SLP202
     T00940033 50006=
KCDW 241453Z 31005KT 10SM FEW049 12/M02 A3006 RMK AO2 SLP183
     T01171022 58003=
KCEW 241453Z AUTO VRB04KT 10SM CLR 18/08 A3010 RMK AO2 SLP189
     T01780083 50009=
KCEZ 241453Z AUTO 00000KT 10SM FEW042 07/04 A2998 RMK AO2 SLP123
     T00670039 58001=
KCHO 241453Z VRB03KT 10SM FEW055 12/M02 A3013 RMK AO2 SLP201
     T01221022 55001=
KCKB 241453Z 30006KT 10SM OVC060 08/M06 A3015 RMK AO2 SLP212
     T00781061 52004=
KCKI 241455Z AUTO 03005KT 10SM OVC100 15/03 A3012 RMK AO2=
KCLM 241453Z AUTO 27009KT 10SM BKN049 BKN085 09/04 A3006 RMK AO2
     SLP179 T00890044 53028=
KCMI 241453Z 24012G15KT 10SM CLR 09/M04 A3025 RMK AO2 SLP248
     T00891039 51009=
KCMX 241453Z AUTO 36010KT 10SM SCT023 BKN080 03/M04 A3015 RMK AO2
     SLP222 T00281039 51010=
KCNB 241455Z AUTO 02004KT 10SM OVC075 04/M01 A3017 RMK AO2
     T00361008=
KCNM 241453Z AUTO 16012KT 5SM BR FEW007 OVC013 08/06 A3004 RMK AO2
     SLP153 T00780061 50001=
KCNO 241453Z 00000KT 2 1/2SM BR OVC012 13/12 A2991 RMK AO2 SLP126
     T01330117 52013=
KCOQ 241455Z AUTO 05004KT 10SM SCT090 02/M06 A3013 RMK AO2
     TSNO=
KCOT 241453Z AUTO 04008KT 9SM OVC012 16/11 A3008 RMK AO2 SLP181
     T01560111 51000=
KCPR 241453Z 22016G24KT 10SM CLR 08/M06 A2985 RMK AO2 SLP097
     T00831061 53000=
KCPS 241453Z VRB05KT 10SM CLR 11/M01 A3026 RMK AO2 SLP247
     T01061006 51006=
KCRE 241453Z 02007KT 350V060 10SM BKN090 OVC110 16/09 A3009 RMK
     AO1 SLP189 T01560094 53016=
KCRG 241453Z 03007KT 10SM CLR 23/18 A3007 RMK AO2 SLP181 T02280183
     51020=
KCRS 241453Z AUTO 07005KT 10SM OVC090 12/06 A3017 RMK AO2 SLP215
     T01170061 51009=
KCSM 241453Z 19013KT 10SM OVC060 09/02 A3015 RMK AO2 SLP207
     T00940017 53005=
KCUB 241453Z AUTO VRB05KT 10SM OVC090 14/03 A3014 RMK AO2 SLP206
     T01440033 53014=
KCXO 241453Z 05007KT 10SM FEW044 OVC060 13/09 A3012 RMK AO2 SLP197
     T01280089 50012=
KCYS 241453Z 26005KT 10SM CLR 09/M04 A2990 RMK AO2 SLP094
     T00941044 50003=
