SACA41 KWBC 241500 RRA
METAR
TDCF 241500Z 28003KT 9999 FEW019 29/23 Q1011=
