SAUS70 KWBC 241518 RRG
METAR
K46D 241515Z AUTO 09007KT 10SM CLR 02/M03 A3018 RMK AO2=
K6B0 241515Z AUTO 21003KT 1 3/4SM +RA OVC004 06/06 A3002 RMK AO2
     T00550055 P0001=
KCAD 241515Z AUTO 33011G16KT 10SM SCT037 05/M06 A3010 RMK AO2
     T00481056=
KCFS 241515Z AUTO 27006KT 10SM SCT022 BKN041 OVC065 05/00 A3014
     RMK AO2 T00541003=
KD57 241515Z AUTO 09009KT 10SM CLR 04/M04 A3005 RMK AO2=
KD60 241515Z AUTO 14015G20KT 10SM CLR 05/M05 A3007 RMK AO2=
KDUH 241515Z AUTO 29007KT 10SM SCT027 SCT034 OVC065 05/M01 A3018
     RMK AO2 T00511008=
KHCO 241515Z AUTO 36003KT 10SM OVC050 01/M02 A3020 RMK AO2=
KI19 241515Z AUTO 32007KT 270V010 10SM SCT040 BKN045 OVC050 06/M02
     A3019 RMK AO2=
KJKJ 241515Z AUTO 03005KT 10SM CLR 02/M01 A3019 RMK AO2 TSNO=
KLJF 241515Z AUTO 03003KT 10SM CLR 04/M02 A3015 RMK AO2=
KMWM 241515Z AUTO 03008KT 10SM CLR 05/M01 A3013 RMK AO2=
KOIC 241515Z AUTO 00000KT 10SM SCT042 BKN070 OVC080 06/00 A3007
     RMK AO2 T00620000=
KOSC 241515Z AUTO 27009KT 10SM SCT036 OVC046 06/M03 A3010 RMK AO2
     T00571030=
KOYM 241515Z AUTO 25008KT 10SM SCT022 SCT050 OVC090 05/01 A3009
     RMK AO2 PWINO=
KPTD 241515Z AUTO 22008KT 9SM -RA SCT009 BKN015 BKN020 06/05 A3003
     RMK AO2=
KRUG 241515Z AUTO 12006KT 10SM CLR 02/M05 A3015 RMK AO2=
KS32 241515Z AUTO VRB03KT 10SM CLR 02/00 A3018 RMK AO2 TSNO=
K21D 241515Z AUTO 27005KT 10SM SCT025 BKN044 OVC049 03/M01 A3016
     RMK AO2=
KDTL 241515Z AUTO VRB06KT 10SM CLR 02/M03 A3015 RMK AO2=
KEFK 241515Z AUTO 00000KT 10SM SCT010 SCT014 OVC023 08/05 A3002
     RMK AO2 T00750050=
KFFM 241515Z AUTO 03003KT 10SM CLR 03/M03 A3015 RMK AO2=
KFGN 241515Z AUTO 00000KT 10SM CLR 01/M06 A3018 RMK AO2=
KGHG 241515Z AUTO 07005KT 10SM BKN013 OVC017 10/07 A3003 RMK
     AO2=
KGHW 241515Z AUTO 01007KT 10SM CLR 03/M03 A3015 RMK AO2=
KMOP 241515Z AUTO 27009G15KT 10SM BKN047 BKN060 06/M06 A3013 RMK
     AO2 T00581056=
KMQJ 241515Z AUTO 32010G16KT 10SM SCT049 10/M02 A3024 RMK AO1=
KMQS 241515Z AUTO RMK AO2 PNO PWINO=
KN38 241515Z AUTO 22008KT 10SM OVC036 05/M01 A3004 RMK AO2=
KONZ 241515Z AUTO 30008KT 10SM SCT036 BKN050 OVC070 06/M02 A3016
     RMK AO2 T00611023=
KPCZ 241515Z AUTO 28006KT 10SM SCT048 SCT075 SCT090 08/M06 A3015
     RMK AO2 T00801062=
KPJC 241515Z AUTO 29006G14KT 10SM SCT030 SCT036 OVC060 06/M01
     A3012 RMK AO2=
KRGK 241515Z AUTO 00000KT 10SM SCT047 06/M02 A3014 RMK AO2=
KSJX 241515Z AUTO 26008G15KT 10SM OVC040 03/M02 A3014 RMK AO2
     T00321021=
KUKT 241515Z AUTO 25007KT 220V300 10SM CLR 11/M01 A3007 RMK
     A01=
KY63 241515Z AUTO 04004KT 10SM CLR 02/02 A3017 RMK AO2
     T00210021=
K8B0 241515Z AUTO 10009KT 8SM BKN015 OVC022 04/04 A3004 RMK
     AO2=
KAIG 241515Z AUTO 00000KT 10SM SCT032 SCT043 02/M04 A3012 RMK AO2
     T00211038=
KBWW 241515Z AUTO 14013KT 10SM CLR 07/M07 A2998 RMK AO2=
KD95 241515Z AUTO 23008KT 10SM BKN028 BKN034 OVC065 05/M02 A3014
     RMK AO2 T00531019=
KEDJ 241515Z AUTO 32008G15KT 8SM 04/00 A3020 RMK A01=
KEKM 241515Z 26008KT 10SM SCT042 SCT055 OVC070 06/M01 A3020 RMK
     AO2 T00601010 $=
KFBL 241515Z AUTO 23003KT 10SM SCT026 OVC070 05/00 A3015 RMK
     AO2=
KFRH 241515Z AUTO 33004KT 10SM CLR 07/M08 A3026 RMK AO1=
KISQ 241515Z AUTO 33007KT 10SM BKN023 OVC048 04/M03 A3012 RMK AO2
     T00431030=
KLDM 241515Z AUTO 27005KT 10SM CLR 07/M05 A3015 RMK AO2
     T00711054=
KLXL 241515Z AUTO 04003KT 10SM CLR 03/M06 A3014 RMK AO2=
KMDS 241515Z AUTO 07010KT 10SM CLR 06/M02 A3010 RMK AO2=
KMOX 241515Z AUTO 02007KT 10SM CLR 03/M04 A3017 RMK AO2=
KOEO 241515Z AUTO 00000KT 10SM SCT047 SCT050 05/00 A3018 RMK AO2
     T00460001=
