SAUS70 KWBC 241640 RRE
METAR
K81R 241635Z AUTO 09005KT 10SM SCT012 OVC033 12/08 A3014 RMK AO2
     T01200085=
K9A5 241635Z AUTO 05008G14KT 020V080 10SM CLR 13/M03 A3020 RMK AO2
     T01301028=
KA39 241635Z AUTO 18006KT 10SM CLR 27/00 A2984 RMK AO2=
KADU 241635Z AUTO 12005KT 10SM SCT003 BKN040 OVC085 12/M04 A3006
     RMK AO2 PWINO=
KAFK 241635Z AUTO 22010KT 10SM BKN095 13/01 A3007 RMK AO2
     T01280010=
KAHQ 241635Z AUTO 25003KT 10SM SCT110 11/M01 A3006 RMK AO2
     T01081011=
KAIO 241635Z AUTO 17007KT 140V200 10SM CLR 11/M00 A3006 RMK
     AO2=
KAJR 241635Z AUTO 17003KT 7SM CLR 16/00 A3011 RMK AO2
     T01590002=
KANW 241635Z AUTO 11015G19KT 10SM CLR 12/M06 A2999 RMK AO2
     T01221057=
KAQO 241635Z AUTO 08004KT 10SM FEW017 OVC030 13/08 A3012 RMK
     AO2=
KASW 241635Z AUTO 28011G19KT 10SM SCT070 08/M03 A3020 RMK AO2
     T00811036=
KAUN 241635Z AUTO VRB04KT 10SM CLR 20/08 A2997 RMK A01=
KAVQ 241635Z AUTO 00000KT 10SM 27/M06 A2984 RMK AO2 T02721058=
KAWG 241635Z AUTO 18008G14KT 10SM CLR 12/M04 A3015 RMK AO2=
KAXA 241635Z AUTO VRB05KT 10SM CLR 11/M02 A3011 RMK A01=
KAXX 241635Z AUTO 25023G30KT 10SM BKN055 10/M03 A2999 RMK AO2
     T00971028=
KAZC 241635Z AUTO 00000KT 10SM CLR 15/05 A2997 RMK AO2=
KBBD 241635Z AUTO 12006KT 10SM OVC011 11/08 A3011 RMK AO2=
KBDU 241635Z AUTO 14003KT 10SM CLR 12/M03 A2990 RMK AO2=
KBEC 241635Z AUTO 20014G19KT 10SM SCT120 13/00 A3012 RMK AO2
     T01331003=
KBGE 241635Z AUTO 05010G16KT 10SM SCT034 23/09 A3008 RMK AO2
     T02290093=
KBHC 241635Z AUTO 04004KT 10SM CLR 20/07 A3008 RMK AO2=
KBIJ 241635Z AUTO 03006KT 10SM CLR 18/08 A3009 RMK AO2=
KBPG 241635Z AUTO 16010KT 10SM OVC012 11/07 A3006 RMK AO2
     T01110070=
KBQK 241635Z AUTO 01003KT 10SM SCT100 BKN120 21/10 A3007 RMK AO2
     T02070102=
KBQP 241635Z AUTO 06008G14KT 020V100 10SM OVC110 17/03 A3019 RMK
     AO2 T01660031=
KBTA 241635Z AUTO 15003KT 10SM CLR 12/M01 A3005 RMK AO2
     T01161006=
KBVN 241635Z AUTO 11009KT SCT110 11/M03 A3003 RMK AO2
     T01101029=
KBVS 241635Z AUTO 21006KT 10SM FEW012 OVC055 09/08 A3009 RMK
     A01=
KBYY 241635Z AUTO 06009KT 10SM BKN021 BKN070 16/12 A3008 RMK AO2
     T01630121=
KC65 241635Z AUTO 30011KT 10SM BKN055 OVC070 07/M05 A3019 RMK
     A01=
KCAV 241635Z AUTO 00000KT 10SM CLR 10/M02 A3012 RMK A01=
KCBF 241635Z AUTO VRB05KT 10SM FEW095 12/M03 A3004 RMK AO2=
KCCY 241635Z AUTO VRB05G13KT 10SM BKN080 09/M03 A3014 RMK AO2=
KCDH 241635Z AUTO 04008KT 010V070 10SM SCT110 18/04 A3019 RMK
     AO2=
KCFD 241635Z AUTO 06004KT 10SM BKN037 OVC060 14/09 A3014 RMK AO2
     T01400088=
KCHK 241635Z AUTO 18011KT 10SM OVC080 15/05 A3013 RMK AO2
     T01500051=
KCIN 241635Z AUTO 13005KT 10SM FEW090 11/M03 A3007 RMK AO2=
KCKF 241635Z AUTO 03006KT 10SM SCT110 19/04 A3012 RMK AO2
     T01850040=
KCNI 241635Z AUTO 26006KT 10SM CLR 15/M04 A3014 RMK AO2
     T01501036=
KCOM 241635Z AUTO 16005KT 10SM SCT014 OVC025 12/08 A3012 RMK AO2
     P0001 T01210081=
KCQB 241635Z AUTO 19012KT 10SM OVC090 16/04 A3017 RMK AO2
     T01600038=
KCQF 241635Z AUTO 03012G16KT 10SM SCT120 19/08 A3006 RMK AO2=
KCUH 241635Z AUTO 19012G16KT 10SM OVC095 16/01 A3015 RMK AO2
     T01610009=
KCWV 241635Z AUTO 11005KT 10SM SCT120 23/07 A3009 RMK AO2
     T02250070=
KD73 241635Z AUTO 00000KT 10SM SCT085 SCT120 16/01 A3013 RMK AO2
     T01580007=
KDCY 241635Z AUTO 27007KT 250V320 10SM BKN060 09/M04 A3027 RMK AO2
     T00911044=
KDEH 241635Z AUTO VRB06KT 10SM FEW095 08/M04 A3013 RMK AO2=
KDKR 241635Z AUTO VRB05G10KT 10SM FEW055 OVC075 16/09 A3013 RMK
     AO2=
KEQA 241635Z AUTO 21015G22KT 10SM CLR 17/M01 A3012 RMK AO2=
