SAUS70 KWBC 241700
METAR
KHXD 241650Z 02004KT 10SM CLR 22/08 A3010=
