SAUS70 KWBC 241522 RRA
METAR
KI95 241515Z AUTO 31011KT 10SM SCT021 BKN026 OVC060 05/01 A3017
     RMK A01=
KIBM 241515Z AUTO 24006KT 10SM CLR 12/M03 A2990 RMK AO2
     T01181031=
KICL 241515Z AUTO RMK AO2 PNO PWINO=
KIDP 241515Z AUTO 20012KT 10SM CLR 14/01 A3019 RMK AO2
     T01440007=
KIIB 241515Z AUTO 22008KT 10SM CLR 08/M03 A3019 RMK AO2=
KIIY 241515Z AUTO 06006KT 10SM SCT120 15/03 A3015 RMK AO2
     T01500031=
KIJX 241515Z AUTO 21006KT 10SM CLR 11/M04 A3024 RMK AO2
     T01051036=
KIKG 241515Z AUTO 02009G15KT 10SM BKN014 18/14 A3005 RMK AO2
     T01760136=
KIKV 241515Z AUTO 16008KT 10SM SCT075 09/M03 A3016 RMK AO2=
KJAS 241515Z AUTO 07004KT 9SM OVC055 13/08 A3013 RMK AO2=
KJOT 241515Z AUTO 29008KT 10SM SCT050 09/M03 A3022 RMK AO2
     T00881026=
KJSV 241515Z AUTO 14009KT 120V180 10SM CLR 14/02 A3020 RMK AO2=
KJYR 241515Z AUTO 21006KT 10SM CLR 09/M02 A3003 RMK AO2=
KLAM 241515Z AUTO 10008KT 10SM SCT075 11/M01 A2999 RMK AO2
     T01121011 $=
KLCG 241515Z AUTO 10007KT 10SM BKN110 09/M03 A3007 RMK AO2
     T00901026=
KLCQ 241515Z AUTO 04005KT 10SM CLR 22/15 A3005 RMK AO2=
KLGC 241515Z AUTO 00000KT 10SM OVC100 12/01 A3017 RMK AO2
     T01240011=
KLLN 241515Z AUTO 16007KT 5SM BR OVC005 06/05 A3008 RMK AO2=
KLMO 241515Z AUTO 22003KT 10SM CLR 09/M01 A2994 RMK AO2
     T00891008=
KLNN 241515Z AUTO 31011KT 10SM BKN027 BKN034 OVC080 06/00 A3015
     RMK AO1 T00571002=
KLNQ 241515Z AUTO 04012G20KT 10SM SCT090 OVC110 21/14 A3005 RMK
     AO2 T02110138=
KLOM 241515Z AUTO 33006KT 10SM SCT049 11/00 A3008 RMK AO2
     T01141002=
KLRJ 241515Z AUTO 15005KT 10SM BKN100 09/M01 A3008 RMK AO2=
KLUL 241515Z AUTO 04010KT 10SM SCT120 15/04 A3015 RMK A02
     T01450038=
KLXN 241515Z AUTO 23008G15KT 10SM CLR 13/00 A2998 RMK AO2
     T01281002=
KLYO 241515Z AUTO 21016G25KT 10SM CLR 14/M01 A3009 RMK AO2
     T01371009=
KMDD 241515Z AUTO 13008KT 10SM OVC007 09/07 A3009 RMK AO2
     T00860070=
KMDQ 241515Z AUTO 10SM CLR 12/M03 A3022 RMK A02 T01241032=
KMHP 241515Z AUTO 36006KT 10SM CLR 20/06 A3011 RMK AO2
     T02000055=
KMJD 241515Z AUTO 03008KT 10SM OVC095 15/08 A3010 RMK AO2=
KMLE 241515Z AUTO 16005KT 10SM BKN090 09/M01 A3007 RMK AO2
     T00921013=
KMLJ 241515Z AUTO VRB05KT 10SM BKN100 14/04 A3013 RMK AO2=
KMNH 241515Z AUTO 29005KT 10SM CLR 07/M02 A2996 RMK AO2=
KMNZ 241515Z AUTO 12006KT 10SM SCT049 OVC070 12/08 A3015 RMK AO2
     T01170084=
KMPR 241515Z AUTO 20013G18KT 10SM CLR 12/00 A3011 RMK AO2
     T01220000=
KMPZ 241515Z AUTO 20005KT 10SM CLR 10/M03 A3021 RMK AO2=
KMQW 241515Z AUTO 05007KT 10SM CLR 20/07 A3011 RMK AO2
     T01970066=
KMUT 241515Z AUTO 23008KT 10SM FEW085 11/M05 A3022 RMK AO2=
KMWO 241515Z AUTO 34006KT 10SM SCT039 BKN048 OVC055 06/M04 A3024
     RMK AO2 T00631037=
KMZZ 241515Z AUTO 29011KT 10SM SCT036 BKN042 06/M02 A3023 RMK AO2
     T00561018=
KN03 241515Z AUTO 30004KT 10SM SCT027 SCT038 OVC045 06/00 A3006
     RMK AO2=
KNRN 241515Z AUTO 22016G20KT 10SM CLR 15/00 A3001 RMK AO2=
KOBE 241515Z AUTO 20005KT 10SM CLR 28/21 A2997 RMK AO2 LTG DSNT
     E=
KOGA 241515Z AUTO 00000KT 10SM CLR 10/M04 A2992 RMK AO2
     T00971036=
KOGS 241515Z AUTO 29004KT 6SM -RA BKN029 06/04 A3002 RMK AO2=
KOKM 241515Z AUTO 18007G16KT 10SM CLR 14/04 A3018 RMK AO2
     T01390043=
KOKZ 241515Z AUTO 01005KT 10SM OVC100 17/04 A3013 RMK AO2
     T01720038=
KOLZ 241515Z AUTO 22010G17KT 10SM CLR 08/M03 A3016 RMK A01=
KONL 241515Z AUTO 09015KT 10SM CLR 10/M05 A3004 RMK AO2
     T01001055=
KS33 241515Z AUTO 00000KT 10SM BKN039 OVC065 A3006 RMK AO2=
KVWU 241515Z AUTO 00000KT 10SM CLR 02/M02 A3016 RMK AO2=
