SAUS70 KWBC 241700
METAR
KVOA 241645Z AUTO 05027KT 9SM FEW120 20/13 A2999 RMK A01=
