SAUS70 KWBC 241524 RRA
METAR
K2V6 241519Z AUTO 31003KT 10SM SCT100 09/M02 A2991 RMK AO2=
K5SM 241517Z AUTO 27004KT 10SM SCT028 M01/M08 A3008 RMK AO2=
K6P9 241515Z AUTO 12006KT 10SM SCT011 SCT060 BKN075 11/08 A3015
     RMK AO2 T01110081=
K7BM 241515Z AUTO 00000KT 10SM CLR 04/M07 A3000 RMK AO2=
KC99 241515Z AUTO 32014G22KT 10SM CLR M04/M08 A3001 RMK AO2=
KCZT 241515Z AUTO 10SM OVC014 14/11 A3009 RMK AO2=
KHBV 241515Z AUTO 06005KT 10SM OVC007 15/13 A3007 RMK AO2
     T01460125=
KJXI 241535Z AUTO 08006KT 10SM CLR 13/04 A3016 RMK AO2
     T01300036=
KLUV 241515Z AUTO 15015G19KT 10SM OVC007 09/07 A3007 RMK AO2=
KORG 241515Z AUTO 05008KT 10SM OVC085 17/09 A3013 RMK AO2
     T01670088=
KOSA 241515Z AUTO 11010KT 10SM BKN100 13/06 A3018 RMK AO2
     T01330059=
KPNA 241515Z AUTO 31003KT 10SM CLR 00/M06 A2993 RMK AO2=
KPPA 241515Z AUTO 18014G19KT 10SM 09/04 A3008 RMK AO2
     T00850037=
KSLR 241515Z AUTO 11008KT 10SM SCT110 14/05 A3020 RMK AO2
     T01370054=
KSXU 241515Z AUTO 18008KT 10SM OVC013 07/03 A3000 RMK AO2
     T00650026=
KSZT 241515Z AUTO 22004KT 10SM OVC021 06/03 A2988 RMK AO2=
KT35 241515Z AUTO 03006KT 10SM SCT045 OVC060 12/08 A3014 RMK AO2
     T01190082=
KT41 241515Z AUTO 05008KT 10SM SCT046 OVC080 16/10 A3010 RMK AO2
     T01560095=
KT74 241515Z AUTO 01007KT 10SM SCT012 OVC042 12/09 A3014 RMK AO2
     T01180086=
KTEX 241515Z AUTO 00000KT 10SM SCT027 BKN039 OVC049 02/M01 A3004
     RMK AO2=
KTXW 241515Z AUTO 02012KT 10SM OVC010 18/15 A3003 RMK AO2
     T01780148=
KVHN 241515Z AUTO 00000KT 10SM CLR 10/03 A3008 RMK AO2
     T00970032=
KAAA 241515Z AUTO 00000KT 10SM CLR 10/M02 A3025 RMK AO2=
KIKK 241515Z AUTO 29010G17KT 10SM CLR 08/M05 A3023 RMK AO2
     T00841052 PWINO=
KMCX 241535Z AUTO 26011KT 10SM SCT049 SCT060 08/M05 A3023 RMK AO2
     T00751048=
KMGC 241515Z AUTO 29008KT 10SM CLR 07/M03 A3022 RMK AO2=
KOOA 241515Z AUTO 20008KT 10SM CLR 11/M03 A3018 RMK AO2
     T01111035=
KOWX 241515Z AUTO 27006KT 10SM SCT031 SCT040 BKN065 06/M01 A3021
     RMK AO1=
KOXI 241515Z AUTO 30009G16KT 10SM SCT060 SCT075 07/M06 A3021 RMK
     AO1=
KOXV 241515Z AUTO 19010G15KT 10SM SCT075 BKN090 10/M04 A3015 RMK
     AO2=
KPEA 241515Z AUTO 18008KT 10SM OVC065 10/M04 A3016 RMK AO2
     T00991038=
KPMV 241515Z AUTO 18009KT 10SM BKN100 10/M01 A3007 RMK AO2
     T00961010=
KPPO 241515Z AUTO 29004KT 10SM SCT050 SCT070 SCT085 06/M01 A3021
     RMK AO2 T00571011=
KPPQ 241515Z AUTO 00000KT 10SM CLR 11/M01 A3024 RMK AO2
     T01101015=
KPRG 241515Z AUTO 25007KT 10SM CLR 08/00 A3027 RMK AO2
     T00841005=
KSLB 241515Z AUTO 18007KT 10SM CLR 10/M04 A3010 RMK AO2=
KTIF 241515Z AUTO 10007KT 10SM CLR 09/M06 A2998 RMK AO2
     T00871056=
KTYQ 241515Z AUTO 30005KT 10SM CLR 07/M02 A3024 RMK AO2
     T00651025=
KVYS 241515Z AUTO 28005KT 10SM CLR 09/M05 A3023 RMK AO2
     T00911050=
KW22 241515Z AUTO VRB05G18KT 10SM BKN055 08/M07 A3015 RMK AO2=
KXLL 241515Z AUTO 21008KT 10SM CLR 11/00 A3008 RMK AO2=
KZER 241515Z AUTO 29007KT 250V330 10SM SCT037 SCT042 BKN060 08/00
     A3006 RMK AO2=
K04V 241508Z AUTO 27005KT 10SM 07/M06 A3001 RMK AO2=
K6I2 241515Z AUTO 34009KT 10SM CLR 12/M04 A3025 RMK AO2=
K8A0 241510Z AUTO 07009G15KT 029V099 10SM CLR 12/00 A3019 RMK
     AO2=
KADT 241510Z AUTO 21011G16KT 10SM SCT120 13/02 A3000 RMK AO2
     T01340016=
KAFO 241510Z AUTO 08004KT 10SM BKN045 OVC050 00/M06 A2990 RMK
     AO2=
KANK 241510Z AUTO 01005KT 10SM CLR 07/M04 A3003 RMK AO1
     T00741043=
KBMC 241510Z AUTO 11007KT 10SM SCT048 BKN065 OVC080 07/04 A2990
     RMK AO1 T00740037=
KCQB 241510Z AUTO 15013G17KT 7SM BKN090 14/03 A3017 RMK AO2
     T01420034=
