SAUS80 KWBC 241534
METAR
KLZZ 241515Z AUTO 10004KT 10SM OVC034 11/07 A3013 RMK AO2
     T01060072=
KCBE 241525Z AUTO 32007G17KT 300V360 10SM OVC055 09/M03 A3017 RMK
     AO2 T00891033=
KNY0 241516Z AUTO 30009KT 10SM BKN027 OVC080 07/02 A3003 RMK
     AO2=
KAID 241535Z AUTO 29010G14KT 10SM SCT046 SCT060 07/M06 A3023 RMK
     AO2 T00711056=
