SACA42 KWBC 241600 RRC
METAR
TJPS 241635Z AUTO 21006KT 10SM CLR 29/21 A2989=
