SAUS70 KWBC 241500 RRI
METAR
KSTP 241453Z 01004KT 10SM FEW039 BKN055 06/M01 A3016 RMK AO2
     SLP218 T00561011 50002=
KTDZ 241453Z AUTO 28010KT 10SM OVC075 07/M02 A3018 RMK AO2 SLP223
     T00671017 51006=
KTHV 241453Z AUTO 24004KT 10SM FEW043 SCT050 10/00 A3010 RMK AO2
     SLP196 T01000000 58005=
KFLD 241453Z AUTO 27006KT 10SM BKN080 BKN095 07/M05 A3016 RMK AO2
     RAE06 SLP220 P0000 60000 T00671050 51005=
KFOK 241453Z VRB05KT 10SM FEW027 BKN085 13/00 A3005 RMK AO2 SLP177
     T01280000 53003=
KFRG 241453Z VRB04KT 10SM SCT034 12/04 A3005 RMK AO2 SLP176
     T01220044 50003 $=
KFWN 241453Z AUTO VRB04KT 10SM SCT049 12/02 A3005 RMK AO2 SLP178
     T01170017 56006=
KGDB 241455Z AUTO 02007KT 10SM CLR 05/00 A3017 RMK AO2
     T00500000=
KGFK 241453Z 04004KT 10SM SCT045 SCT250 03/M04 A3019 RMK AO2
     SLP236 T00331039 51007=
KHEI 241453Z AUTO 13013KT 10SM CLR 07/M08 A3001 RMK AO2 SLP180
     T00671078 51002=
KHFD 241453Z 28004KT 10SM BKN024 11/03 A3003 RMK AO2 SLP170
     T01110033 51004=
KHZL 241455Z AUTO 31003KT BKN031 BKN038 08/M01 A3008 RMK AO2
     PWINO=
KHZY 241453Z AUTO 28004KT 3SM -SN BR BKN006 OVC012 02/00 A3014 RMK
     AO2 RAE36SNB1359E14B36 SLP212 P0001 60001 T00220000 53013=
KMGN 241455Z AUTO 25009KT 10SM OVC025 01/M02 A3012 RMK AO2
     T00181026=
KMHT 241453Z 00000KT 10SM SCT026 BKN032 11/06 A2999 RMK AO2 SLP171
     60000 T01060056 50002=
KMMK 241453Z AUTO 10SM SCT038 BKN049 13/02 A3003 RMK AO2 SLP170
     T01280017 53002=
KMRB 241453Z 29011KT 10SM FEW070 10/M02 A3011 RMK AO2 SLP198
     T01001022 58003=
KS24 241455Z AUTO 32008KT 10SM SCT028 SCT036 BKN050 06/M01 A3017
     RMK AO2=
KDET 241453Z 28007KT 10SM FEW035 OVC065 07/M03 A3015 RMK AO2
     SLP212 T00671033 51005=
KFVE 241453Z AUTO 07006KT 10SM BKN016 OVC023 07/01 A3017 RMK AO2
     SLP221 T00670011 50001=
KGYL 241455Z AUTO 35004KT 10SM CLR 04/M01 A3015 RMK AO2
     T00371010=
KHGR 241453Z 30009KT 10SM CLR 11/M01 A3011 RMK AO2 SLP210
     T01061011 58003 $=
KIWI 241453Z AUTO 10009G16KT 1 3/4SM -RA BR BKN007 OVC011 06/04
     A3010 RMK AO2 RAB01 CIG 005V009 SLP193 P0003 60004 T00610044
     53005=
KJMR 241455Z AUTO 33003KT 10SM BKN035 BKN060 04/M04 A3018 RMK
     AO2=
KONA 241455Z AUTO 32005KT 10SM SCT040 BKN046 BKN050 05/M01 A3017
     RMK AO2=
KOSU 241453Z 31009KT 10SM FEW034 OVC047 06/M02 A3018 RMK AO2
     SLP223 T00611017 53004=
KOWD 241453Z VRB03KT 10SM BKN019 13/07 A3002 RMK AO2 SLP164
     T01280067 50004=
KPCZ 241455Z AUTO 30005KT 10SM SCT048 07/M07 A3015 RMK AO2
     T00671067=
KPLN 241454Z AUTO 27008KT 10SM OVC026 02/M02 A3013 RMK AO2 SLP210
     T00171022 53004=
KPOU 241453Z 00000KT 10SM BKN033 10/03 A3004 RMK AO2 SLP170
     T01000028 51002=
KPSF 241454Z AUTO 31007KT 10SM BKN016 OVC024 06/02 A3001 RMK AO2
     SLP159 T00610017 53003=
KUUU 241453Z AUTO 32006KT 10SM BKN011 10/07 A3003 RMK AO2 SLP167
     T01000072 51009=
KYIP 241453Z 31007KT 10SM FEW029 BKN047 OVC065 04/M03 A3016 RMK
     AO2 SLP217 T00441028 53006=
KDTW 241453Z 29010G17KT 10SM SCT025 BKN045 OVC120 06/M02 A3016 RMK
     AO2 SLP218 VIRGA SE-S T00561022 53005=
KDXX 241455Z AUTO 03006KT 10SM SCT070 05/M01 A3018 RMK AO2=
KEZS 241455Z AUTO 04004KT 10SM CLR 05/00 A3016 RMK AO2
     T00490003=
KFDY 241453Z AUTO 28010KT 10SM FEW026 BKN048 OVC060 06/M01 A3017
     RMK AO2 SLP219 60000 T00611006 51007=
KICR 241453Z AUTO 10012KT 10SM BKN100 09/M03 A3003 RMK AO2 SLP180
     T00891033 50003=
KMHE 241453Z AUTO VRB03KT 10SM CLR 06/M03 A3010 RMK AO2 SLP202
     T00611028 50004=
KMIW 241453Z AUTO 22007KT 10SM BKN085 10/M02 A3015 RMK AO2 SLP216
     T01001022 58002=
