SAUS80 KWBC 241522
METAR
KEHA 241515Z AUTO 19019KT 10SM OVC032 08/02 A3000 RMK AO2
     T00850018=
KGIC 241515Z AUTO 10005KT 5SM OVC017 01/01 A2993 RMK AO1=
KIZA 241515Z AUTO 26003KT 10SM OVC003 09/10 A2995 RMK AO2=
KVTI 241515Z AUTO 22005KT 10SM CLR 11/M05 A3018 RMK AO2
     T01111051=
K40U 241515Z AUTO 07003KT 10SM CLR 04/M03 A2994 RMK AO2
     T00421031=
KMKN 241515Z AUTO 13003KT 10SM 12/12 A3015 RMK AO2 T01160116=
KS39 241515Z AUTO 27008G14KT 230V290 10SM SCT060 05/M02 A3003 RMK
     AO2=
KCUL 241516Z AUTO 00000KT 10SM CLR 11/M04 A3027 RMK AO2=
KPSN 241515Z AUTO 09006G11KT 10SM BKN100 14/08 A3013 RMK AO2=
KSOA 241515Z AUTO 08005KT 10SM OVC009 11/09 A3014 RMK AO2=
K9V9 241515Z AUTO 15009KT 10SM CLR 11/M05 A3006 RMK AO2
     T01091054=
KCKP 241515Z AUTO 16003KT 10SM CLR 10/M02 A3011 RMK AO2
     T01011017=
KGIC 241515Z AUTO 10005KT 5SM OVC017 01/01 A2993 RMK AO1=
KIZA 241515Z AUTO 26003KT 10SM OVC003 09/10 A2995 RMK AO2=
