SAUS70 KWBC 241640 RRC
METAR
KJYM 241635Z AUTO 35003KT 10SM SCT041 BKN060 OVC070 04/M02 A3016
     RMK AO2 T00411023=
KOQN 241635Z AUTO 25006KT 10SM BKN060 12/M02 A3007 RMK AO2=
KRZL 241635Z AUTO 26011G17KT 10SM BKN060 09/M05 A3022 RMK AO2=
KSTE 241635Z AUTO 26007KT 10SM SCT021 SCT029 BKN055 06/M07 A3015
     RMK AO2 T00631072=
KULM 241635Z AUTO 33006KT 10SM 06/M03 A3015 RMK AO2=
KVAF 241635Z AUTO 05021KT 5SM HZ FEW018 FEW026 23/18 A2999 RMK
     A01=
KVGC 241635Z AUTO 35007KT 10SM SCT028 BKN042 OVC080 07/00 A3003
     RMK AO2=
KVVV 241635Z AUTO 03009KT 10SM SCT036 05/M05 A3017 RMK AO2=
KY31 241635Z AUTO 28013G23KT 240V300 10SM BKN050 07/M07 A3009 RMK
     AO2 T00651072=
KI74 241635Z AUTO 30006KT 10SM SCT029 BKN034 OVC050 05/00 A3021
     RMK AO2=
KJVY 241635Z AUTO 34009KT 300V010 10SM CLR 10/M03 A3023 RMK AO2
     PWINO=
KLWA 241635Z AUTO 28007KT 10SM CLR 08/00 A3019 RMK AO2
     T00820001=
KMOX 241635Z AUTO 03006KT 10SM 06/M03 A3017 RMK AO2=
KONZ 241635Z AUTO 28007KT 10SM OVC060 06/M02 A3016 RMK AO2
     T00591023=
KPJC 241635Z AUTO 20008KT 10SM SCT026 SCT035 OVC080 06/00 A3013
     RMK AO2=
KRZN 241635Z AUTO 36011KT 10SM BKN043 BKN055 05/M05 A3014 RMK AO2
     T00471050=
KS24 241635Z AUTO 31010KT 10SM FEW043 SCT050 BKN060 07/M02 A3018
     RMK AO2=
KTEW 241635Z AUTO 28004KT 10SM SCT026 SCT042 OVC065 07/M02 A3015
     RMK AO2 T00661021=
KTMA 241635Z AUTO RMK AO2 PWINO PNO $=
KTOB 241635Z AUTO 28008G14KT 10SM SCT030 SCT034 SCT060 06/M02
     A3014 RMK AO2=
KTTF 241635Z AUTO 29006KT 10SM BKN037 BKN045 OVC070 07/M02 A3016
     RMK AO2 T00651016=
KTWM 241635Z AUTO 09009KT 10SM CLR 02/M04 A3016 RMK AO2=
KUBE 241635Z AUTO 04004KT 10SM SCT041 BKN050 OVC065 04/M01 A3013
     RMK AO2=
KUKT 241635Z AUTO 19003G12KT 10SM FEW060 FEW070 FEW110 13/M01
     A3005 RMK A01=
KY19 241635Z AUTO 12011G16KT 10SM CLR 06/M03 A3010 RMK AO2=
KECS 241635Z AUTO 16007KT 10SM CLR 10/M07 A2990 RMK AO2=
KEIK 241635Z AUTO 00000KT 10SM CLR 11/M05 A2991 RMK AO2
     T01131051=
KGUL 241635Z AUTO 07011KT 8SM SCT018 SCT023 SCT028 23/20 A2997 RMK
     A01=
KGYB 241635Z AUTO 00000KT 10SM OVC030 14/09 A3012 RMK AO2
     T01420093=
KIKT 241640Z AUTO 05019G27KT 10SM CLR 21/14 A2997 RMK A01=
KLUD 241635Z AUTO 13010G15KT 110V170 10SM SCT065 15/00 A3015 RMK
     AO2 T01461004=
KMMH 241635Z AUTO 12005KT 10SM CLR 07/M04 A3007 RMK AO2
     T00731041=
KONP 241635Z AUTO 28004KT 10SM SCT011 BKN016 OVC030 08/07 A3020
     RMK AO2=
KPVF 241635Z AUTO 25003KT 10SM CLR 19/05 A3000 RMK AO1=
KPYX 241635Z AUTO 18018KT 10SM OVC024 07/01 A3004 RMK AO2
     T00660007=
KSEZ 241635Z AUTO 17006KT 10SM CLR 21/00 A2995 RMK AO2=
KSVC 241635Z AUTO 30006KT 10SM CLR 22/M02 A2999 RMK AO2
     T02221020=
KT82 241635Z AUTO 10003KT 10SM OVC013 12/10 A3011 RMK AO2
     T01230095=
KTBX 241635Z AUTO 10SM CLR 02/M07 A2994 RMK AO2=
KTMA 241635Z AUTO RMK AO2 PWINO PNO $=
KTSP 241635Z AUTO 31008G17KT 9SM CLR 15/11 A3002 RMK AO2=
KTYL 241635Z AUTO 31004KT 10SM CLR 17/00 A3000 RMK AO2=
KU42 241635Z AUTO 15014KT 10SM SCT070 SCT095 SCT110 15/03 A2989
     RMK AO1 T01450031=
KU68 241635Z AUTO 09006KT 10SM CLR 13/M07 A2980 RMK AO2=
KVAF 241635Z AUTO 05021KT 5SM HZ FEW018 FEW026 23/18 A2999 RMK
     A01=
KBWP 241635Z AUTO VRB05KT 10SM FEW029 FEW037 SCT050 05/M01 A3017
     RMK AO2=
KFPK 241635Z AUTO 30005KT 10SM SCT021 BKN065 OVC075 06/M03 A3015
     RMK AO2 T00561026=
KGGI 241635Z AUTO 20008KT 10SM OVC080 12/M01 A3016 RMK AO2
     T01171011=
KHCD 241635Z AUTO 33003KT 10SM SCT038 06/M03 A3016 RMK AO2
     T00621026=
KI23 241635Z AUTO 27007KT 10SM SCT042 OVC050 06/M04 A3020 RMK
     AO1=
