SAUS70 KWBC 241514
METAR
K1S5 241515Z AUTO 00000KT 10SM SCT110 09/02 A2998 RMK AO2
     T00910024=
KBEA 241515Z AUTO 03012KT 10SM SCT080 16/12 A3004 RMK AO2
     T01550123 PWINO=
KBFR 241515Z AUTO 33005KT 298V018 10SM CLR 07/M07 A3025 RMK
     AO2=
KC62 241515Z AUTO 30005KT 10SM SCT037 BKN060 OVC075 05/M01 A3019
     RMK AO2 T00511018=
KEFT 241515Z AUTO 29006KT 10SM SCT060 OVC100 06/M05 A3018 RMK AO2
     T00631053=
KETB 241515Z AUTO 27008KT 10SM SCT049 BKN060 05/M07 A3016 RMK
     AO2=
KGAF 241515Z AUTO 03004KT 9SM OVC050 02/M02 A3021 RMK AO2=
KL18 241515Z AUTO 7SM OVC008 13/11 A2991 RMK AO2=
KMAW 241515Z AUTO 06004KT 10SM CLR 12/05 A3027 RMK AO1=
KPDC 241515Z AUTO 00000KT 10SM BKN060 BKN080 OVC095 06/M02 A3018
     RMK AO2 T00631022=
KRPD 241515Z AUTO 23003KT 10SM SCT031 SCT042 05/M01 A3014 RMK AO2
     T00451010=
KUNU 241515Z AUTO 25005KT 10SM SCT042 06/M04 A3018 RMK AO2
     T00551040=
KVBW 241515Z AUTO 00000KT 10SM BKN050 09/M03 A3012 RMK AO1
     T00901030=
K0V4 241515Z AUTO 16004KT 10SM CLR 12/00 A3013 RMK AO1=
K3R7 241515Z AUTO 05009KT 10SM OVC075 15/09 A3010 RMK AO2
     T01510085=
K4R5 241515Z AUTO 10004KT 10SM CLR 03/M04 A3018 RMK AO2
     T00301039=
KDLL 241515Z AUTO 28004KT 10SM OVC050 06/M05 A3017 RMK AO2
     T00611049=
KDVP 241513Z AUTO 04006KT 10SM CLR 05/M06 A3014 RMK AO2
     T00471060=
KINF 241515Z AUTO 09005KT 7SM CLR 24/20 A3001 RMK AO2=
KLUM 241515Z 00000KT 10SM SCT050 05/M04 A3015 RMK AO2 T00531044
     PWINO=
KSUW 241515Z AUTO 06009KT 10SM SCT013 SCT100 03/M01 A3018 RMK AO2
     T00301014=
KVNW 241515Z AUTO 31006KT 10SM SCT036 SCT044 BKN060 06/M02 A3021
     RMK AO2=
K1P1 241515Z AUTO 08005KT 10SM OVC017 08/05 A3002 RMK AO2
     T00780053=
K2G4 241505Z AUTO 29013G21KT 10SM OVC036 02/M07 A3008 RMK AO2=
K2W6 241509Z AUTO 28003KT 10SM SCT085 11/00 A3013 RMK AO1=
K6L4 241515Z AUTO 15004KT 10SM SCT048 07/M05 A3017 RMK AO2=
KBFR 241515Z AUTO 33005KT 298V018 10SM CLR 07/M07 A3025 RMK
     AO2=
KCGE 241505Z AUTO 01003KT 10SM SCT080 BKN090 12/00 A3012 RMK
     A01=
KCGS 241510Z AUTO 26008KT 240V300 10SM SCT055 12/M01 A3013 RMK AO2
     T01221015=
KDMW 241505Z AUTO 25005KT 10SM BKN047 11/M02 A3010 RMK AO2=
KEFT 241515Z AUTO 29006KT 10SM SCT060 OVC100 06/M05 A3018 RMK AO2
     T00631053=
KFME 241509Z AUTO 32008KT 290V020 10SM SCT055 12/00 A3014 RMK
     AO1=
KGAF 241515Z AUTO 03004KT 9SM OVC050 02/M02 A3021 RMK AO2=
KIUA 241515Z AUTO 32010KT 10SM RA SCT027 BKN031 OVC050 08/02 A3006
     RMK AO2 T00810020=
KUNU 241515Z AUTO 25005KT 10SM SCT042 06/M04 A3018 RMK AO2
     T00551040=
KW29 241505Z AUTO 34006KT 10SM CLR 12/M01 A3012 RMK AO2
     T01171006=
KY51 241515Z AUTO 26009KT 10SM SCT044 SCT050 05/M01 A3015 RMK AO1
     T00511009=
