SAUS70 KWBC 241500 RRC
METAR
KD25 241455Z AUTO 00000KT 10SM BKN055 02/M06 A3012 RMK AO2
     T00231062=
KD39 241455Z AUTO 01003KT 10SM CLR 03/M03 A3015 RMK AO2
     T00261030=
KD57 241455Z AUTO 09011KT 10SM CLR 03/M04 A3006 RMK AO2=
KD60 241455Z AUTO 13013KT 10SM CLR 04/M04 A3008 RMK AO2=
KD95 241455Z AUTO 24007KT 10SM BKN028 OVC065 05/M01 A3014 RMK AO2
     T00501014=
KDEC 241454Z 24009KT 200V270 10SM CLR 09/M02 A3025 RMK AO2 SLP249
     T00891017 51009=
KDNA 241455Z AUTO 14010KT 10SM CLR 14/02 A2997 RMK AO2=
KDNN 241455Z AUTO 36007G20KT 10SM CLR 12/M00 A3019 RMK AO2
     T01201003=
KDRI 241455Z AUTO 06004KT 10SM OVC060 13/08 A3014 RMK AO2
     T01270082 $=
KDSV 241454Z AUTO 23005KT 10SM -RA BKN039 OVC060 08/00 A3006 RMK
     AO2 RAB52 SLP193 P0000 60000 T00780000 55002=
K0S9 241455Z AUTO 00000KT 10SM FEW017 BKN022 OVC060 07/07 A3006
     RMK AO2=
K0VG 241455Z AUTO 29003KT 10SM CLR 09/M05 A3021 RMK AO2=
K15M 241455Z AUTO 06006KT 10SM CLR 12/01 A3022 RMK AO2 T01200014
     $=
K1R7 241455Z AUTO 03010KT 10SM BKN095 13/08 A3015 RMK AO2
     PWINO=
K24J 241455Z AUTO 36003KT 10SM BKN070 21/14 A3007 RMK A01=
K2D5 241455Z AUTO 8.00000008KT 10SM OVC050 03/M03 A3016 RMK
     AO2=
K2J9 241455Z AUTO 08007G13KT 9SM -DZ FEW035 16/11 A3009 RMK
     AO2=
K3N8 241455Z AUTO 03003KT 10SM CLR 01/M01 A3016 RMK AO2
     T00141013=
K3T5 241455Z AUTO 04004KT 10SM OVC029 13/11 A3011 RMK AO2
     T01320114=
K42J 241455Z AUTO 05009KT 9SM CLR 22/19 A3005 RMK A01=
K46D 241455Z AUTO 07007KT 10SM CLR 02/M03 A3018 RMK AO2=
K4A6 241455Z AUTO 04009G14KT 360V090 10SM CLR 12/01 A3022 RMK
     AO2=
K4M9 241455Z AUTO 06004KT 10SM CLR 12/06 A3026 RMK AO2 PWINO=
K4O4 241455Z AUTO VRB07KT 8SM CLR 13/06 A3020 RMK AO2=
K54J 241455Z AUTO 04009G14KT 10SM SCT120 17/08 A3011 RMK AO2
     T01670077=
K5H4 241455Z AUTO 11010KT 10SM CLR 02/M09 A3017 RMK AO2=
K6B0 241455Z AUTO 00000KT 2SM RA OVC004 06/06 A3002 RMK AO2 60004
     T00550055 P0004=
K6B9 241455Z AUTO 25007KT 10SM FEW019 SCT075 OVC100 06/04 A3005
     RMK AO2=
K6S2 241455Z AUTO 30003KT 10SM OVC036 10/07 A3016 RMK AO2=
K7L2 241455Z AUTO 12010KT 10SM CLR 04/M03 A3012 RMK AO2=
K8B0 241455Z AUTO 11008KT 7SM FEW009 BKN013 OVC018 04/04 A3005 RMK
     AO2=
K96D 241455Z AUTO 36004KT 10SM OVC047 01/M01 A3021 RMK AO2=
K9D7 241455Z AUTO 06005KT 10SM BKN040 03/M05 A3020 RMK AO2
     TSNO=
KAAO 241454Z AUTO 21014G20KT 10SM CLR 14/M01 A3012 RMK AO2 SLP201
     T01391006 51007=
KACJ 241455Z AUTO 04010KT 10SM OVC120 15/03 A3013 RMK AO2
     T01550028=
KACK 241453Z 34005KT 10SM OVC006 10/08 A3003 RMK AO2 SLP169
     T01000078 53013=
KAGO 241455Z AUTO VRB05KT 10SM BKN110 15/04 A3017 RMK A01=
KAIG 241455Z AUTO 06003KT 10SM BKN029 BKN043 BKN050 02/M04 A3013
     RMK AO2 T00231038=
KAIK 241455Z AUTO 03009KT 360V060 10SM BKN090 14/04 A3013 RMK AO2
     T01440045=
KAIT 241455Z AUTO 00000KT 10SM CLR 04/M04 A3014 RMK AO2=
KAKH 241454Z AUTO VRB06KT 10SM CLR 14/02 A3014 RMK AO2 SLP205
     T01390022 53006=
KAKR 241454Z AUTO 31009KT 10SM BKN016 BKN024 OVC031 06/M01 A3013
     RMK AO2 RAE07 SLP208 P0000 60000 T00561006 53007=
KOFP 241454Z AUTO 32007KT 290V360 10SM CLR 13/M02 A3014 RMK AO2
     SLP206 T01331017 50000=
KOLM 241454Z 21007KT 10SM BKN013 OVC025 07/07 A3008 RMK AO2 SLP186
     T00720067 53025=
KOLS 241454Z AUTO 00000KT 10SM CLR 17/M04 A2994 RMK AO2 SLP085
     T01671044 51008=
KOMH 241455Z AUTO 00000KT 10SM CLR 11/M02 A3015 RMK AO2=
KONZ 241455Z AUTO 31007KT 10SM BKN034 BKN044 OVC070 05/M02 A3016
     RMK AO2 T00511020=
KORK 241455Z AUTO 05005KT 10SM CLR 12/05 A3021 RMK AO2=
