SAUS70 KWBC 241642 RRB
METAR
KLCG 241635Z AUTO 08011G16KT 10SM SCT110 13/M04 A3005 RMK AO2
     T01251039=
KLCQ 241635Z AUTO 05010KT 10SM SCT110 22/15 A3002 RMK AO2=
KOSA 241635Z AUTO 10008KT 10SM SCT110 16/05 A3018 RMK AO2
     T01590050=
KOXI 241635Z AUTO 28012G19KT 10SM BKN060 OVC070 07/M05 A3021 RMK
     AO1=
KOXV 241635Z AUTO 17009KT 10SM FEW080 FEW095 12/M03 A3012 RMK
     AO2=
KPBX 241635Z AUTO 31006KT 10SM SCT055 10/M03 A3018 RMK AO2
     T00991033=
KPEA 241635Z AUTO 15008KT 10SM SCT050 BKN065 OVC075 11/M03 A3014
     RMK AO2 T01111034=
KPEQ 241635Z AUTO 09009KT 10SM OVC020 12/06 A3004 RMK AO2
     T01210062=
KPMU 241635Z AUTO VRB05KT 10SM CLR 16/01 A3020 RMK AO2=
KPMV 241635Z AUTO 22006KT 10SM SCT085 OVC110 12/00 A3006 RMK AO2
     T01171005=
KPNA 241635Z AUTO 00000KT 10SM BKN075 03/M07 A2992 RMK AO2=
KPOY 241635Z AUTO 18004KT 10SM SCT090 13/M08 A2980 RMK AO2=
KPPA 241635Z AUTO 16022KT 10SM 09/04 A3003 RMK AO2 T00870040=
KPPO 241635Z AUTO 28007G15KT 240V310 10SM SCT060 SCT070 SCT090
     07/M03 A3021 RMK AO2 T00661029=
KPPQ 241635Z AUTO 00000KT 10SM CLR 13/M01 A3023 RMK AO2
     T01321009=
KPRG 241635Z AUTO 33010G16KT 10SM CLR 11/00 A3025 RMK AO2
     T01051005=
KPSO 241635Z AUTO 00000KT 7SM DZ SCT007 OVC011 04/04 A3003 RMK AO2
     T00400037=
KRAS 241635Z AUTO 04016G19KT 10SM SCT013 20/15 A3003 RMK AO2
     T01960152=
KRBO 241635Z AUTO 05005KT 10SM SCT017 SCT024 20/15 A3004 RMK AO2
     T01960151=
KRCR 241635Z AUTO 30013KT 10SM SCT060 OVC070 08/M05 A3020 RMK
     AO2=
KRDK 241635Z AUTO 23010KT 10SM SCT090 14/M00 A3006 RMK AO2=
KRGA 241635Z AUTO 29012G15KT 10SM BKN050 10/M01 A3024 RMK AO2=
KRPJ 241635Z AUTO 28013G16KT 10SM SCT060 BKN070 BKN100 09/M01
     A3021 RMK AO2 T00921008 TSNO=
KRVJ 241635Z AUTO 00000KT 10SM CLR 22/07 A3008 RMK AO2
     T02190073=
KS33 241635Z AUTO 26007KT 10SM SCT044 BKN065 A3007 RMK AO2=
KSAA 241635Z AUTO 22007KT 10SM CLR 10/M06 A2993 RMK AO2=
KSBS 241635Z AUTO 00000KT 10SM CLR 03/M04 A2994 RMK AO1
     T00281042=
KSDA 241635Z AUTO 22009G15KT 10SM FEW100 13/M00 A3006 RMK AO2=
KSEF 241635Z AUTO 08004KT 10SM SCT040 28/18 A2995 RMK AO2 LTG DSNT
     E T02840182=
KSHL 241635Z AUTO 00000KT 10SM CLR 11/M07 A3008 RMK AO2=
KSJS 241635Z AUTO 32003KT 10SM SCT060 11/M03 A3018 RMK AO2
     T01101029=
KSLB 241635Z AUTO 13008KT 100V160 10SM CLR 11/M05 A3009 RMK
     AO2=
KSLR 241635Z AUTO 12012KT 10SM BKN110 17/02 A3019 RMK AO2
     T01650016=
KSWW 241635Z AUTO 13009KT 10SM BKN019 OVC055 14/14 A3010 RMK AO2
     T01380138=
KSXK 241635Z AUTO 11007KT 10SM CLR 11/M08 A3007 RMK AO2=
KSXU 241635Z AUTO 17013G18KT 10SM OVC015 08/03 A2998 RMK AO2
     T00830026=
KT41 241635Z AUTO 07010KT 10SM SCT090 19/11 A3008 RMK AO2
     T01870105=
KT74 241635Z AUTO 03007KT 10SM SCT040 OVC050 13/09 A3012 RMK AO2
     T01320086=
KTAZ 241635Z AUTO 36008KT 10SM CLR 11/M04 A3024 RMK AO2
     T01141038=
KTBR 241635Z AUTO 01005KT 10SM CLR 21/06 A3009 RMK AO2 T02110064
     PWINO=
KTEX 241635Z AUTO 00000KT 10SM BKN050 05/M02 A3002 RMK AO2=
KTIF 241635Z AUTO 11012G15KT 10SM CLR 12/M04 A2996 RMK AO2
     T01231045=
KTNB 241635Z AUTO 31010G18KT 280V340 10SM CLR 09/M09 A3011 RMK AO2
     T00901086=
KTOC 241635Z AUTO 10006KT 10SM CLR 16/01 A3012 RMK AO2
     T01620005=
KTVI 241635Z AUTO 06008KT 10SM CLR 20/08 A3008 RMK AO2=
KTVK 241635Z AUTO 16012KT 10SM FEW095 12/M05 A3015 RMK AO2=
KTXW 241635Z AUTO 02013KT 10SM OVC014 20/16 A3002 RMK AO2
     T02000157=
KTYQ 241635Z AUTO 29009G16KT 260V330 10SM BKN060 08/M04 A3024 RMK
     AO2 T00761039=
KUNI 241635Z AUTO 26007KT 7SM SCT060 OVC070 10/M04 A3018 RMK AO2
     T00951041=
