SAUS80 KWBC 241500 RRA
METAR
KPVD 241451Z 00000KT 10SM BKN018 11/07 A3003 RMK AO2 SLP168
     T01060072 51005=
KN60 241452Z AUTO 12008KT 02/M02 A3010 RMK AO1 SLP213 T00221022
     50002=
KP59 241451Z AUTO 05010KT 01/M01 A3016 RMK AO1 SLP223 P0001 60009
     T00111011 51009=
