SAUS70 KWBC 241500 RRA
METAR
KMBL 241456Z AUTO VRB05KT 10SM CLR 06/M04 A3016 RMK AO2 SLP217
     T00561039 51006=
KMKT 241456Z AUTO 01004KT 10SM SCT075 BKN085 04/00 A3016 RMK AO2
     SLP225 T00440000 51006=
KMSV 241456Z AUTO VRB06KT 10SM SCT034 08/M01 A3004 RMK AO2 SLP180
     T00781006 55001=
KMTW 241456Z AUTO VRB03KT 10SM CLR 06/M04 A3016 RMK AO2 SLP220
     T00611039 51005=
KMVN 241456Z AUTO VRB03KT 10SM CLR 10/M01 A3027 RMK AO2 SLP257
     T01001011 51005=
KOKK 241456Z AUTO 29007KT 10SM SCT070 06/M03 A3023 RMK AO2 SLP245
     6//// T00611033 51008 PNO $=
KOTG 241456Z AUTO 04006KT 10SM CLR 06/M04 A3013 RMK AO2 SLP219
     6//// T00561044 51007 PNO $=
KTVF 241456Z AUTO 04006KT 10SM SCT060 02/M04 A3019 RMK AO2 SLP238
     6//// T00221044 51007 FZRANO=
KUCP 241456Z AUTO 24007KT 10SM FEW024 BKN035 BKN042 06/01 A3012
     RMK AO2 SLP222 T00560006 52004=
KWVL 241456Z AUTO VRB06KT 10SM -RA OVC007 06/05 A3008 RMK AO2
     SLP215 P0001 60003 T00560050 50000=
KWWD 241456Z AUTO 34005KT 10SM OVC065 10/03 A3011 RMK AO2 SLP198
     60000 T01000033 53002 $=
KY50 241456Z AUTO VRB03KT 10SM SCT044 SCT070 BKN100 06/M04 A3016
     RMK AO2 SLP219 6//// T00561044 50002 $=
KYKN 241456Z AUTO 10004KT 10SM SCT110 07/M01 A3009 RMK AO2 SLP209
     T00721011 58000=
KGUR 241455Z AUTO 10004KT 9SM CLR 06/M05 A2987 RMK AO2 SLP137
     T00591051 50001=
KAWO 241456Z AUTO 17005KT 10SM -RA FEW005 SCT023 OVC044 08/07
     A3007 RMK AO2 RAB1359E17B49 SLP186 P0001 60004 T00780067
     53029=
KGUR 241455Z AUTO 10004KT 9SM CLR 06/M05 A2987 RMK AO2 SLP137
     T00591051 50001=
KHWD 241454Z 24006KT 10SM CLR 12/07 A2999 RMK AO2 SLP166 T01170072
     53009 $=
KL08 241455Z AUTO 25004KT 10SM CLR 23/05 A2976 RMK AO2=
KLWT 241454Z AUTO 11004KT 10SM OVC100 04/M03 A2978 RMK AO2 SLP093
     T00391028 50002=
KMAN 241455Z AUTO 31012KT 10SM FEW020 SCT024 BKN033 09/07 A2990
     RMK A01=
KOLM 241454Z 21007KT 10SM BKN013 OVC025 07/07 A3008 RMK AO2 SLP186
     T00720067 53025=
KOLS 241454Z AUTO 00000KT 10SM CLR 17/M04 A2994 RMK AO2 SLP085
     T01671044 51008=
KORS 241455Z AUTO 17003KT 10SM BKN050 OVC065 07/07 A3003 RMK
     AO2=
KPAN 241455Z AUTO 00000KT 10SM CLR 16/M03 A2998 RMK AO2 PWINO
     TSNO=
KSLC 241454Z 15007KT 10SM FEW080 BKN110 11/03 A2988 RMK AO2 SLP094
     VIRGA T01110028 50000 $=
KT69 241455Z AUTO 06011KT 10SM FEW090 17/13 A3005 RMK A01=
KTMA 241455Z AUTO VRB04KT 9SM OVC140 19/08 A3012 RMK AO2 T01860080
     $=
KBKD 241455Z AUTO 18005KT 10SM OVC075 12/07 A3015 RMK AO2
     T01160073=
KCCU 241455Z AUTO 27003KT 10SM OVC019 M02/M08 A3006 RMK AO2=
KDSF 241500Z AUTO 03030KT 10SM CLR 23/16 A2996 RMK A01=
KEIK 241455Z AUTO 00000KT 10SM CLR 07/M04 A2992 RMK AO2
     T00701041=
KF70 241455Z AUTO 17004KT 7SM OVC004 11/11 A2991 RMK AO2=
KGDV 241456Z AUTO 09011KT 10SM CLR 06/M07 A2996 RMK AO2 SLP159
     T00561067 58001 TSNO=
KHND 241456Z 00000KT 10SM CLR 19/03 A2988 RMK AO2 SLP112 T01890033
     53014=
KILE 241456Z AUTO 05005KT 10SM OVC042 12/07 A3015 RMK AO2 SLP208
     T01170072 51010=
KJAC 241456Z 03006KT 5SM -SN BR BKN040 OVC055 M02/M04 A2992 RMK
     AO2 SLP156 P0000 60000 T10171039 58001=
KKLS 241456Z AUTO 00000KT BKN016 OVC025 08/07 A3012 RMK AO2 SLP204
     P0001 60008 T00830067 51026 PWINO $=
KLUD 241455Z AUTO 11008KT 10SM SCT065 12/05 A3016 RMK AO2
     T01150049=
KPTV 241456Z AUTO 18004KT 10SM CLR 16/12 A2996 RMK AO2 PK WND
     19028/1411 SLP142 T01560122 53010=
KPVF 241455Z AUTO 08006KT 10SM CLR 15/00 A2998 RMK AO1=
KPWG 241456Z AUTO 04005KT 10SM FEW012 12/08 A3016 RMK AO2 SLP212
     T01220083 50007=
