SANZ31 NZKL 241530
METAR NZAA 241530Z AUTO 35003KT 9999 NCD 08/06 Q1021=
METAR NZWN 241530Z AUTO 02003KT 9999 NCD 08/05 Q1018=
METAR NZCH 241530Z AUTO 03003KT 9999 NCD 02/02 Q1015=
