SAUS70 KWBC 241638 RRG
METAR
KDUA 241635Z AUTO 14010KT 10SM BKN090 16/02 A3017 RMK AO2=
KDWX 241635Z AUTO 18005KT 10SM CLR 09/M03 A2995 RMK AO2
     T00921026=
KECS 241635Z AUTO 16007KT 10SM CLR 10/M07 A2990 RMK AO2=
KEDN 241635Z AUTO 06004KT 10SM BKN110 17/09 A3009 RMK AO2
     T01680088 PWINO=
KEGV 241635Z AUTO 02004KT 10SM SCT038 SCT044 BKN050 03/M08 A3012
     RMK AO2 T00301079=
KEIK 241635Z AUTO 00000KT 10SM CLR 11/M05 A2991 RMK AO2
     T01131051=
KEKE 241635Z AUTO 03026KT 10SM SCT019 20/15 A2995 RMK A01=
KEMM 241635Z AUTO 02007KT 10SM SCT041 SCT049 04/M04 A2992 RMK AO2
     TSNO=
KEOE 241635Z AUTO 10003KT 10SM BKN085 15/01 A3016 RMK AO2=
KERY 241635Z AUTO 27009KT 3SM -SN BKN016 OVC022 03/01 A3010 RMK
     AO2 T00300005=
KEZF 241635Z AUTO 32007KT 290V010 10SM SCT065 13/M02 A3010 RMK AO2
     T01341021=
KEZM 241635Z AUTO 27003KT 10SM CLR 20/05 A3011 RMK AO2=
KF46 241635Z AUTO 10009G16KT 10SM SCT095 16/02 A3016 RMK AO2
     T01550024=
KF70 241635Z AUTO 00000KT 10SM OVC008 13/11 A2991 RMK AO2=
K0CO 241635Z AUTO 33013G19KT SCT012 BKN018 OVC024 M06/M09 A3005
     RMK AO2 PWINO=
K0F2 241635Z AUTO 10SM SCT070 SCT080 16/02 A3015 RMK AO2
     T01550020=
K1A9 241635Z AUTO 05006KT 10SM OVC120 16/03 A3014 RMK AO2
     T01610027=
K1F0 241635Z AUTO 15010KT 10SM OVC075 15/03 A3017 RMK AO2
     T01510033=
K28J 241635Z AUTO 07010KT 9SM SCT044 BKN050 23/15 A3002 RMK
     AO2=
K2P2 241635Z AUTO 27003KT 10SM SCT110 03/M05 A3015 RMK AO2
     T00331055=
K2V5 241635Z AUTO 14007KT 120V180 10SM BKN100 14/01 A2992 RMK
     AO2=
K33V 241635Z AUTO 23003KT 10SM OVC050 06/M06 A2997 RMK AO1=
K3D2 241635Z AUTO 03007KT 10SM CLR 04/M05 A3015 RMK AO2
     T00371055=
K3J7 241635Z AUTO 00000KT 10SM SCT080 16/03 A3012 RMK AO2=
K4V0 241635Z AUTO 00000KT 10SM CLR 10/M02 A2992 RMK AO2
     T01021017=
K66R 241635Z AUTO 06003KT 10SM OVC023 15/10 A3010 RMK AO2
     T01530102=
K6A2 241635Z AUTO 02007KT 10SM CLR 15/M02 A3014 RMK AO2=
K82C 241635Z AUTO 25006KT 10SM -RA SCT014 BKN032 OVC049 04/01
     A3017 RMK AO2 T00380011=
KAAS 241635Z AUTO 34005KT 10SM BKN050 10/M02 A3028 RMK AO1=
KACP 241640Z AUTO 04006KT 10SM BKN070 OVC075 17/06 A3012 RMK
     AO2=
KADH 241635Z AUTO 17011G15KT BKN090 15/05 A3019 RMK AO2 PWINO=
KAEJ 241635Z AUTO 17005KT 10SM OVC070 10/M10 A2995 RMK AO2
     T01011096=
KAEL 241635Z AUTO 01006KT 10SM 08/M01 A3013 RMK AO2=
KAGI 241635Z AUTO 06012G20KT 10SM SCT023 SCT029 24/16 A2999 RMK
     AO2 T02390164=
KAIK 241635Z AUTO 06008KT 10SM CLR 17/05 A3011 RMK AO2
     T01720052=
KAJG 241635Z AUTO 35003KT 10SM SCT065 11/M04 A3027 RMK AO2
     T01101037=
KAJZ 241635Z AUTO 13003KT 10SM OVC085 15/M01 A2994 RMK AO2
     T01471010=
KARM 241635Z AUTO 05005KT 10SM OVC020 14/14 A3010 RMK AO2
     T01410135 TSNO=
KASN 241635Z AUTO 04007KT 360V080 10SM CLR 16/02 A3018 RMK AO2
     T01580017=
KATP 241640Z AUTO 07021G27KT 9SM BKN065 OVC080 23/17 A2997 RMK
     A01=
KAUH 241635Z AUTO 25009KT 10SM SCT110 15/00 A3000 RMK AO2
     T01480001=
KAXH 241635Z AUTO 09004KT 10SM BKN026 OVC060 19/11 A3009 RMK AO2
     T01890110=
KAXS 241635Z AUTO 16009KT 10SM OVC055 13/01 A3015 RMK AO2
     T01280013=
KBAM 241635Z AUTO 24013KT 10SM CLR 15/02 A2992 RMK AO1=
KBIE 241635Z AUTO 24015KT 10SM CLR 18/M01 A3004 RMK AO2
     T01761009=
KBKD 241635Z AUTO 16007KT 10SM OVC060 15/07 A3012 RMK AO2
     T01510073=
KLVL 241635Z AUTO 31003KT 10SM SCT055 15/00 A3014 RMK AO1
     T01480004=
KLWA 241635Z AUTO 28007KT 10SM CLR 08/00 A3019 RMK AO2
     T00820001=
KM30 241635Z AUTO 00000KT 10SM CLR 12/M02 A3027 RMK AO2
     T01221024=
