SAPS31 NZKL 241500
METAR NIUE 241500Z 05004KT 010V080 9999 FEW018 BKN030 23/21 Q1009 RMK
DEW ON GRASS=
METAR NCAI 241500Z AUTO 14008KT //// ////// 26/22 Q1010=
