SAUS70 KWBC 241638 RRD
METAR
KTYL 241635Z AUTO 31004KT 10SM CLR 17/00 A3000 RMK AO2=
KU42 241635Z AUTO 15014KT 10SM SCT070 SCT095 SCT110 15/03 A2989
     RMK AO1 T01450031=
KUBE 241635Z AUTO 04004KT 10SM SCT041 BKN050 OVC065 04/M01 A3013
     RMK AO2=
KUKT 241635Z AUTO 19003G12KT 10SM FEW060 FEW070 FEW110 13/M01
     A3005 RMK A01=
KUOX 241635Z AUTO VRB05G11KT 10SM CLR 15/02 A3022 RMK AO2=
KUTA 241635Z AUTO 04009KT 9SM CLR 16/04 A3022 RMK AO2 T01590036
     $=
KVKS 241635Z AUTO 07008KT 030V090 10SM BKN090 17/05 A3014 RMK
     A01=
KVNC 241635Z AUTO VRB05G14KT 10SM SCT031 28/21 A2993 RMK AO2=
KW81 241635Z AUTO 00000KT 10SM CLR 13/M05 A3011 RMK AO1
     T01301049=
KX07 241635Z AUTO 07005KT 10SM SCT030 BKN038 28/20 A2996 RMK
     A01=
KX60 241635Z AUTO 08009KT 10SM SCT037 BKN044 BKN060 27/17 A3000
     RMK AO2 T02720171=
KY19 241635Z AUTO 12011G16KT 10SM CLR 06/M03 A3010 RMK AO2=
K10G 241635Z AUTO 34004KT 10SM SCT013 BKN046 OVC070 05/01 A3016
     RMK AO2=
KS24 241635Z AUTO 31010KT 10SM FEW043 SCT050 BKN060 07/M02 A3018
     RMK AO2=
K21D 241635Z AUTO 00000KT 10SM SCT034 SCT043 BKN070 05/M03 A3016
     RMK AO2=
K4I3 241635Z AUTO 28006KT 10SM -RA SCT006 SCT013 BKN020 04/00
     A3018 RMK AO2=
KAMN 241635Z AUTO 27011G15KT 10SM BKN060 OVC075 08/M06 A3014 RMK
     AO2 T00791056=
KCNB 241635Z AUTO 05005KT 10SM CLR 06/M02 A3017 RMK AO2
     T00631021=
KD55 241635Z AUTO 04007KT 10SM OVC040 02/M00 A3018 RMK AO2=
KDRM 241635Z AUTO 29005KT 2SM -SN OVC004 02/01 A3008 RMK AO2
     T00200010=
KFSO 241635Z AUTO RMK AO2 PWINO=
KHZE 241635Z AUTO 13011G17KT 10SM CLR 08/M04 A3010 RMK AO2=
KHZL 241635Z AUTO 25004G14KT SCT041 BKN060 08/M01 A3006 RMK AO2
     PWINO=
KI68 241635Z AUTO 36003KT 10SM 06/M01 A3023 RMK AO1 T00621013=
KJMR 241635Z AUTO 01003KT 10SM SCT040 BKN055 OVC070 05/M04 A3019
     RMK AO2=
KMGN 241635Z AUTO 25009G15KT 10SM OVC023 02/M02 A3012 RMK AO2
     T00201022=
KMJQ 241635Z AUTO 03005KT 10SM CLR 08/M02 A3012 RMK AO2=
KMOP 241635Z AUTO 31004G14KT 10SM BKN055 OVC065 08/M07 A3012 RMK
     AO2 T00781067=
KMQJ 241635Z AUTO 33008G16KT 10SM OVC055 10/M03 A3024 RMK AO1=
KOZW 241635Z AUTO 29007KT 10SM SCT021 BKN031 OVC065 05/00 A3015
     RMK AO2 T00520000=
KRCX 241635Z AUTO 27003KT 10SM SCT090 05/M03 A3014 RMK AO2
     T00541026=
KROX 241635Z AUTO 29003KT 10SM CLR 05/M07 A3018 RMK AO2=
KY63 241635Z AUTO 35004KT 10SM CLR 05/04 A3018 RMK AO2
     T00540043=
K14Y 241635Z AUTO 00000KT 10SM CLR 04/M06 A3016 RMK AO2=
K20U 241635Z AUTO 15020KT 10SM CLR 10/M08 A2997 RMK AO2=
KACQ 241635Z AUTO 33003KT 10SM SCT031 BKN070 BKN090 06/M01 A3016
     RMK AO2=
KAXV 241635Z AUTO 29006KT 10SM SCT042 OVC050 05/M03 A3021 RMK
     AO2=
KCDI 241635Z AUTO 22006KT 10SM BKN047 OVC065 07/M02 A3019 RMK AO2
     T00691020=
KDXX 241635Z AUTO 03005G10KT 10SM CLR 07/M04 A3018 RMK AO2=
KGDB 241635Z AUTO 02003KT 10SM SCT055 BKN075 07/M02 A3018 RMK AO2
     T00661024=
KGYL 241635Z AUTO 31005KT 10SM BKN037 05/M03 A3015 RMK AO2
     T00531027=
KHFY 241635Z AUTO 35008KT 10SM BKN060 09/M04 A3025 RMK AO2
     T00871040=
KHYX 241635Z AUTO 21003KT 10SM SCT017 BKN049 OVC065 04/02 A3014
     RMK AO2 T00440019=
KMDZ 241635Z AUTO 26004KT 10SM SCT034 SCT075 04/M02 A3012 RMK AO2
     T00411019 PWINO=
KONA 241635Z AUTO 04005KT 10SM SCT042 BKN050 OVC060 07/M01 A3016
     RMK AO2=
KORB 241633Z AUTO 24003KT 10SM SCT055 BKN070 04/M08 A3014 RMK
     AO2=
KOVL 241635Z AUTO 00000KT 10SM SCT050 SCT080 05/M03 A3015 RMK
     AO2=
KSGS 241635Z AUTO 00000KT 10SM SCT040 OVC060 06/M04 A3015 RMK AO2
     T00591038=
