SAUS70 KWBC 241508
METAR
KMCX 241515Z AUTO 25010G15KT 10SM SCT047 08/M03 A3022 RMK AO2
     T00761032=
KJXI 241515Z AUTO 07005KT 10SM CLR 12/04 A3017 RMK AO2
     T01230038=
KCLK 241515Z AUTO 20009KT 10SM OVC070 11/01 A3016 RMK AO2=
