SASA31 KWBC 241500 RRC
METAR
SKBO 241500Z 32004KT 9999 BKN020 17/11 Q1028 NOSIG=
SKCL 241500Z VRB02KT 5000 BR SCT012 BKN200 23/22 Q1018 NOSIG=
SOCA 241530Z AUTO 01007KT 9999 FEW020/// BKN045/// BKN200/// ///CB
     28/24 Q1012 TEMPO 1000 TSRA SCT005 BKN010CB=
