SAUS70 KWBC 241524 RRB
METAR
KEVM 241522Z AUTO 02005KT 10SM CLR 03/M09 A3015 RMK AO2=
KFGX 241515Z AUTO 31015KT 10SM CLR 08/M02 A3022 RMK AO2
     T00781023=
KGNC 241510Z AUTO 16012KT 10SM OVC008 09/07 A3009 RMK AO2
     T00900067=
KHZR 241510Z AUTO 05009KT 10SM BKN100 16/07 A3012 RMK AO2
     T01570072=
KK62 241515Z AUTO 31010KT 280V340 10SM SCT038 06/M02 A3022 RMK
     AO2=
KNOW 241510Z AUTO 26004KT 10SM BKN017 08/06 A3007 RMK AO2
     T00750057=
KOLY 241510Z AUTO 00000KT 10SM CLR 09/M06 A3028 RMK AO2 T00911059
     PWINO=
KOWP 241510Z AUTO 17012G19KT 10SM CLR 15/03 A3020 RMK AO2
     T01520033=
KRRL 241535Z AUTO 00000KT 10SM SCT043 06/M05 A3011 RMK AO2
     T00561048 TSNO=
KTMK 241510Z AUTO 00000KT 10SM SCT012 BKN034 OVC049 08/07 A3015
     RMK AO2=
KULS 241510Z AUTO 19015G23KT 10SM OVC037 10/02 A2998 RMK AO2=
KVES 241510Z AUTO 33006KT 10SM SCT024 SCT033 OVC060 05/M02 A3021
     RMK AO2=
KX26 241510Z AUTO 10SM -RA SCT029 BKN055 OVC080 24/21 RMK AO2 TSNO
     T02410210=
KXBP 241510Z AUTO 11004KT 10SM BKN070 OVC085 12/06 A3018 RMK AO2
     T01200055=
