SAUS70 KWBC 241500 RRX
METAR
KRMY 241455Z AUTO 27005KT 10SM SCT026 SCT038 BKN060 05/M01 A3016
     RMK AO2 T00491007=
KRQB 241455Z AUTO 29010G15KT 10SM BKN047 06/M05 A3013 RMK AO2
     T00561051=
KRRT 241455Z AUTO 31006KT 10SM BKN075 03/M04 A3018 RMK AO2=
KRYW 241455Z AUTO 02005KT 10SM OVC029 11/09 A3013 RMK AO2
     T01110085=
KRZL 241455Z AUTO 25011KT 10SM CLR 07/M03 A3023 RMK AO2=
KSAR 241455Z AUTO 13006KT 10SM CLR 09/00 A3027 RMK AO2
     T00911002=
KSCD 241455Z AUTO 04007KT 340V070 10SM BKN100 OVC120 13/02 A3018
     RMK AO2 T01300019=
KSEZ 241455Z AUTO 00000KT 10SM CLR 17/00 A2995 RMK AO2=
KSIK 241455Z AUTO 00000KT 10SM CLR 11/03 A3027 RMK AO2=
KSQL 241452Z 00000KT 10SM CLR 11/08 A3001=
KSTE 241455Z AUTO 28004KT 10SM SCT090 06/M09 A3014 RMK AO2
     T00561088=
KSVC 241455Z AUTO 00000KT 10SM CLR 17/M01 A3000 RMK AO2
     T01741008=
KSYF 241455Z AUTO 17013KT 10SM BKN110 09/01 A2994 RMK AO2
     T00910011 PWINO=
KT82 241455Z AUTO 00000KT 10SM SCT009 OVC018 11/09 A3012 RMK AO2
     T01110091=
KTBX 241455Z AUTO 10SM CLR 01/M08 A2994 RMK AO2=
KTTS 241455Z AUTO 07008KT 10SM FEW029 SCT038 BKN150 M A3000 RMK
     AO2 SLPNO ALSTG ESTMD 51016 $=
KU64 241455Z AUTO 15009KT 10SM BKN010 06/03 A2997 RMK AO2 CIG
     009V011 T00580025 $=
KU68 241455Z AUTO 07006KT 10SM CLR 09/M07 A2982 RMK AO2=
KULM 241455Z AUTO 02004KT 10SM 04/M01 A3015 RMK AO2=
KUVA 241455Z AUTO 06009KT 10SM OVC009 13/13 A3010 RMK AO2 6////
     T01270127=
KVAF 241455Z AUTO 04020KT 4SM HZ 23/19 A2999 RMK A01=
KVJI 241455Z AUTO 01004KT 10SM CLR 07/M04 A3016 RMK AO2
     T00691041=
KVKY 241455Z AUTO 06024G29KT 10SM CLR A3004 RMK A01=
KVVV 241455Z AUTO 04005KT 10SM SCT060 03/M03 A3016 RMK AO2=
KY31 241455Z AUTO 27015G18KT 10SM SCT037 BKN045 04/M05 A3010 RMK
     AO2 T00431046=
KY70 241455Z AUTO 31007KT 10SM SCT033 SCT039 BKN060 06/M06 A3015
     RMK AO2 T00631056=
KFKN 241455Z AUTO 36003KT 10SM OVC049 11/03 A3014 RMK AO2
     T01060033=
KFKS 241455Z AUTO 36003KT 10SM CLR 05/M02 A3016 RMK AO2
     T00481025=
KFPK 241455Z AUTO 28006KT 10SM SCT030 BKN040 OVC070 04/M02 A3015
     RMK AO2 T00431020=
KGGI 241455Z AUTO 20008KT 10SM SCT070 BKN080 BKN100 10/M01 A3018
     RMK AO2 T00951012=
KGRY 241455Z AUTO 05024KT 10SM CLR 22/14 A2998 RMK A01=
KGUL 241500Z AUTO 08010KT 9SM CLR 24/18 A2996 RMK A01=
KGYB 241455Z AUTO 00000KT 10SM OVC032 12/09 A3012 RMK AO2
     T01240085=
KHAI 241455Z AUTO 28008KT 10SM SCT037 SCT050 OVC060 06/M02 A3018
     RMK AO2 T00601025=
KHCD 241455Z AUTO 01006KT 10SM SCT022 SCT028 04/M02 A3016 RMK AO2
     T00441019=
KHFF 241455Z AUTO 08009KT 10SM OVC080 12/01 A3012 RMK AO2 SLP202
     60000 T01240008 51016 $=
KHOE 241455Z AUTO 02003KT 10SM -RA SCT019 SCT034 BKN060 16/10
     A3009 RMK AO2 T01650104=
KHQG 241455Z AUTO 19021G26KT 10SM OVC037 09/02 A3001 RMK AO2
     T00940017=
KHSB 241455Z AUTO 00000KT 10SM CLR 09/03 A3028 RMK AO2
     T00890026=
KI23 241455Z AUTO 29011KT 10SM BKN037 OVC044 05/M03 A3018 RMK
     AO1=
KI67 241455Z AUTO 32006KT 10SM OVC043 06/M02 A3024 RMK AO1=
KI74 241455Z AUTO 33006KT 10SM BKN020 BKN027 OVC060 04/00 A3019
     RMK AO2=
KIER 241455Z AUTO 08007KT 10SM OVC110 14/05 A3015 RMK AO2
     T01430053=
KIGQ 241455Z AUTO 26005KT 10SM BKN070 08/M03 A3021 RMK AO2
     T00751027=
KIKT 241500Z AUTO 03018G27KT 10SM FEW120 21/15 A2997 RMK A01=
KIRS 241455Z AUTO 31006KT 10SM SCT031 BKN041 OVC070 05/M06 A3018
     RMK AO2 T00451061=
KIYA 241455Z AUTO 04008G14KT 10SM OVC075 16/07 A3009 RMK AO2
     T01560074=
KJPX 241455Z AUTO 30004KT 10SM BKN026 OVC075 11/04 A3004 RMK AO2
     T01070035 FZRANO=
