SAUS70 KWBC 241638 RRE
METAR
KVLL 241635Z AUTO 26005KT 10SM SCT038 SCT046 OVC075 07/M03 A3016
     RMK AO2 T00661031=
TISX 241630Z 04005KT 10SM SCT024 OVC036 28/22 A2991 RMK AO2 RAE05
     P0000 T02780222=
K0E0 241635Z AUTO 19011KT 10SM SCT090 BKN120 13/M01 A2998 RMK AO2
     T01301013=
K0S9 241635Z AUTO 00000KT 10SM FEW032 BKN055 OVC065 08/06 A3009
     RMK AO2=
K3N8 241635Z AUTO 01006KT 10SM SCT033 SCT039 SCT048 03/M03 A3017
     RMK AO2 T00331032=
K3T5 241635Z AUTO 05006KT 10SM OVC028 16/12 A3009 RMK AO2
     T01560124=
KALM 241635Z AUTO 00000KT 10SM CLR 16/01 A2998 RMK AO2=
KAQP 241633Z AUTO 08008KT 10SM 06/M05 A3016 RMK AO2=
KBKS 241635Z AUTO 09007KT 7SM SCT022 SCT340 20/16 A3003 RMK AO2
     SLP131 T02040157 $=
KBRG 241635Z AUTO 17007KT 10SM CLR 18/M03 A2995 RMK AO2
     T01831034=
KBVU 241635Z AUTO VRB04G12KT 10SM CLR 23/03 A2985 RMK AO2=
KBXK 241635Z AUTO VRB03KT 10SM CLR 25/M01 A2980 RMK A01=
KCPT 241635Z AUTO 12009KT 10SM BKN090 15/05 A3015 RMK A01=
KHAF 241635Z AUTO 35010G18KT 4SM HZ CLR 11/08 A3003 RMK AO2=
KJAQ 241635Z AUTO 36004KT 10SM CLR 16/09 A2996 RMK AO1
     T01640093=
KJSO 241635Z AUTO 08007KT 10SM OVC100 16/05 A3015 RMK AO2
     T01560046 TSNO=
KL35 241635Z AUTO 11003KT 10SM CLR 13/M01 A3006 RMK AO2=
KONM 241635Z AUTO 16007KT 10SM CLR 17/M02 A2995 RMK AO2
     T01741021=
KSNK 241635Z AUTO 14010G16KT 10SM BKN013 12/08 A3005 RMK AO2
     T01160078=
KTVY 241635Z AUTO 33003KT 10SM SCT090 BKN110 16/02 A2988 RMK
     AO2=
K9D7 241635Z AUTO 04008KT 10SM CLR 04/M06 A3019 RMK AO2 TSNO=
KAIG 241635Z AUTO 00000KT 10SM SCT045 BKN070 BKN100 04/M06 A3011
     RMK AO2 T00401060=
KAUM 241636Z AUTO 32004KT 10SM CLR 08/M01 A3014 RMK AO2=
KBAC 241635Z AUTO 04007G12KT 10SM CLR 03/M04 A3018 RMK AO2=
KBDH 241635Z AUTO 35006KT 10SM SCT065 06/M04 A3019 RMK AO2=
KBJI 241635Z AUTO 27004KT 10SM OVC050 03/M06 A3015 RMK AO2
     T00291062=
KBUU 241635Z AUTO 28007KT 10SM BKN060 08/M05 A3019 RMK AO2
     T00801053 PWINO=
KC29 241635Z AUTO 28006KT 10SM SCT046 OVC050 07/M03 A3019 RMK AO1
     T00721026=
KCAD 241635Z AUTO 29010G15KT 10SM OVC046 06/M07 A3010 RMK AO2
     T00621066=
KCBG 241635Z AUTO 00000KT 10SM SCT042 SCT070 06/M04 A3015 RMK
     AO2=
KCKC 241635Z AUTO 04006KT 10SM OVC042 01/M11 A3014 RMK AO2=
KCVX 241635Z AUTO 26011KT 10SM SCT034 05/M03 A3014 RMK AO2
     T00481035=
KDYT 241635Z AUTO 05015KT 10SM CLR 03/00 A3018 RMK AO2=
KEKM 241635Z 26011KT 10SM FEW036 BKN055 OVC070 07/M02 A3021 RMK
     AO2 T00671024 $=
KFGN 241635Z AUTO 18005KT 10SM BKN070 02/M04 A3018 RMK AO2=
KGWR 241635Z AUTO 03010KT 10SM BKN035 05/M01 A3017 RMK A01=
KHCO 241635Z AUTO 33003KT 10SM SCT046 OVC050 02/M03 A3021 RMK
     AO2=
KIDI 241635Z AUTO 25007G13KT 9SM FEW018 SCT023 BKN031 05/01 A3014
     RMK A01=
KLDM 241635Z AUTO 27007KT 10SM CLR 08/M04 A3016 RMK AO2
     T00821045=
KLVN 241635Z AUTO 30004KT 10SM SCT046 BKN050 07/M05 A3015 RMK
     AO2=
KMDS 241635Z AUTO 11012KT 10SM CLR 08/M01 A3010 RMK AO2=
K6B9 241635Z AUTO 00000KT 10SM SCT030 BKN070 SCT080 08/01 A3004
     RMK AO2=
K8B0 241635Z AUTO 11011KT 9SM -UP FEW008 OVC016 05/04 A3004 RMK
     AO2=
K96D 241635Z AUTO 01005KT 10SM OVC048 02/M02 A3022 RMK AO2=
KADC 241635Z AUTO 32003KT 10SM SCT046 04/M07 A3015 RMK AO2
     TSNO=
KAIT 241635Z AUTO 02003KT 10SM SCT049 SCT055 BKN075 04/M07 A3015
     RMK AO2=
KANQ 241635Z AUTO 24007KT 200V260 10SM FEW043 FEW050 FEW080 06/M01
     A3017 RMK AO2=
KBAX 241635Z AUTO 24006KT 10SM BKN023 BKN030 OVC046 04/01 A3012
     RMK AO2 T00410010=
KBCK 241635Z AUTO 28008KT 10SM SCT042 BKN049 BKN065 08/M05 A3014
     RMK AO2 T00761050=
