SAUS80 KWBC 241500 RRD
METAR
KP53 241456Z AUTO 32010G18KT 01/M02 A3013 RMK AO1 SLP212 T00061017
     51008=
KIZA 241455Z AUTO 00000KT 7SM OVC003 09/09 A2994 RMK AO2=
KRFI 241455Z AUTO 08006KT 10SM OVC095 15/00 A3018 RMK AO2
     T01460004=
KS39 241455Z AUTO 28012KT 10SM CLR 06/M01 A3003 RMK AO2=
KSDM 241453Z COR 00000KT 5SM HZ OVC012 14/11 A2990 RMK AO2 SLP123
     T01390106 51006=
KSFO 241456Z 28013KT 10SM FEW250 12/07 A3000 RMK AO2 SLP157
     T01170072 53008 $=
