SAUS70 KWBC 241638 RRB
METAR
KCKM 241635Z AUTO 04007KT 10SM CLR 16/03 A3022 RMK A01=
KCKZ 241635Z AUTO 34004KT 10SM SCT065 12/M03 A3006 RMK AO2=
KCLS 241635Z AUTO 25004KT 4SM BR BKN023 BKN028 OVC047 09/07 A3012
     RMK AO2=
KCMR 241635Z AUTO 28010KT 10SM FEW080 15/M02 A3001 RMK AO2=
KCPT 241635Z AUTO 12009KT 10SM BKN090 15/05 A3015 RMK A01=
KHCO 241635Z AUTO 33003KT 10SM SCT046 OVC050 02/M03 A3021 RMK
     AO2=
KHLX 241635Z AUTO 36005G15KT 10SM CLR 09/M04 A3010 RMK AO2
     T00851042=
KHVS 241635Z AUTO 01006KT 10SM SCT080 SCT090 15/03 A3012 RMK
     AO2=
KI19 241635Z AUTO VRB05KT 10SM BKN043 OVC055 07/M02 A3021 RMK
     AO2=
KI69 241635Z AUTO 32005KT 10SM OVC043 06/M03 A3024 RMK AO2
     T00621033=
KIDI 241635Z AUTO 25007G13KT 9SM FEW018 SCT023 BKN031 05/01 A3014
     RMK A01=
KISQ 241635Z AUTO 29010G15KT 270V330 10SM BKN027 BKN034 OVC050
     06/M03 A3012 RMK AO2 T00551030=
KJFZ 241635Z AUTO 34008KT 280V360 10SM CLR 09/M01 A3014 RMK AO2
     T00891015=
KJKJ 241635Z AUTO 02004KT 10SM SCT032 04/M03 A3019 RMK AO2
     TSNO=
KJYO 241635Z AUTO 33009G17KT 290V360 10SM SCT060 13/00 A3012 RMK
     AO2=
KJZI 241635Z AUTO 07005KT 10SM FEW110 21/06 A3008 RMK AO2=
KKY8 241635Z AUTO 34008G17KT 10SM CLR 11/M05 A3027 RMK A01=
KL08 241635Z AUTO 00000KT 10SM CLR 27/03 A2977 RMK AO2=
KL35 241635Z AUTO 11003KT 10SM CLR 13/M01 A3006 RMK AO2=
KLBO 241635Z AUTO 15006KT 10SM CLR 14/M07 A3021 RMK AO2=
KLDM 241635Z AUTO 27007KT 10SM CLR 08/M04 A3016 RMK AO2
     T00821045=
KLJF 241635Z AUTO 35004KT 10SM SCT026 SCT036 05/M03 A3015 RMK
     AO2=
KLKR 241635Z AUTO 09010KT 7SM FEW120 16/05 A3012 RMK AO2=
KLKU 241635Z AUTO 27005KT 10SM CLR 14/M02 A3012 RMK AO2
     T01361017=
KLNL 241635Z AUTO 02007KT 10SM BKN060 BKN070 05/M08 A3013 RMK AO2
     T00481085=
KLNP 241635Z AUTO 35004KT 10SM CLR 07/M04 A3016 RMK AO2=
KLQK 241635Z AUTO 18005KT 10SM CLR 17/00 A3011 RMK AO2
     T01660003=
KLRO 241635Z AUTO 00000KT 9SM CLR 22/06 A3008 RMK AO2=
KLRY 241635Z AUTO 20008KT 176V236 10SM CLR 16/M01 A3019 RMK
     AO2=
KLUA 241635Z AUTO 00000KT 10SM OVC055 11/M03 A3011 RMK AO2=
KLUX 241635Z AUTO 10005KT 10SM SCT085 SCT110 16/01 A3012 RMK
     AO2=
KLVN 241635Z AUTO 30004KT 10SM SCT046 BKN050 07/M05 A3015 RMK
     AO2=
KLXL 241635Z AUTO 34006KT 10SM SCT049 OVC060 04/M07 A3015 RMK
     AO2=
KM01 241635Z AUTO 07008KT 10SM CLR 16/01 A3021 RMK AO2 T01580005
     $=
KM40 241635Z AUTO 01008G17KT 10SM CLR 17/00 A3020 RMK AO2=
KMAN 241635Z AUTO 30016G22KT 10SM BKN050 OVC065 11/02 A2994 RMK
     A01=
KMBO 241635Z AUTO 10007KT 10SM SCT085 16/03 A3015 RMK AO2=
KMBY 241635Z AUTO 17007G14KT 10SM CLR 14/M05 A3019 RMK AO2=
KMDS 241635Z AUTO 11012KT 10SM CLR 08/M01 A3010 RMK AO2=
KMEZ 241635Z AUTO 06005KT 10SM CLR 14/07 A3019 RMK AO2
     T01390069=
KMGR 241635Z AUTO 05009KT 10SM FEW085 BKN130 OVC170 20/07 A3008
     RMK AO2 T02050075=
KMHL 241635Z AUTO 19007KT 10SM CLR 15/M02 A3018 RMK AO2=
KMKJ 241635Z AUTO 30013G22KT 10SM CLR 08/M05 A3014 RMK AO2
     T00841053=
KMKS 241635Z AUTO 36005KT 10SM CLR 20/08 A3010 RMK AO2=
KMOX 241635Z AUTO 03006KT 10SM 06/M03 A3017 RMK AO2=
KMQS 241635Z AUTO RMK AO2 PNO PWINO=
KMTV 241635Z AUTO 31005KT 10SM CLR 13/M04 A3015 RMK AO2
     T01281045=
KMVE 241635Z AUTO 01006KT 10SM SCT060 06/M02 A3017 RMK AO2=
KMWM 241635Z AUTO 01004KT 10SM CLR 07/M01 A3013 RMK AO2=
KN38 241635Z AUTO 20008G16KT 10SM FEW043 FEW050 07/M01 A3002 RMK
     AO2=
KN79 241635Z AUTO VRB06KT 10SM FEW044 SCT090 11/M01 A3005 RMK AO2
     T01051013=
KO22 241635Z AUTO 00000KT 10SM CLR 19/01 A2996 RMK A01=
KO32 241635Z AUTO 17006KT 10SM CLR 19/17 A2994 RMK AO2 T01910167
     $=
