SAUS70 KWBC 241500
METAR
KFMH 241445Z 00000KT 10SM BKN013 10/07 A3002=
KFMH 241445Z 00000KT 10SM BKN013 10/07 A3002=
KFMH 241445Z 00000KT 10SM BKN013 10/07 A3002=
KMCX 241455Z AUTO 28010G16KT 10SM CLR 07/M04 A3023 RMK AO2
     T00711037=
KRRL 241455Z AUTO 25003KT 10SM CLR 04/M04 A3012 RMK AO2 T00351045
     TSNO=
KALN 241450Z 16004KT 10SM CLR 09/M01 A3025=
KHUM 241447Z 04013KT 7SM OVC080 17/11 A3006=
KHXD 241450Z 03010KT 10SM CLR 21/09 A3010=
KMWA 241445Z 14006KT 20SM CLR 09/00 A3027=
TJIG 241445Z 04007KT 10SM SCT020 SCT055 27/22 A2992=
KEVB 241447Z 08010G15KT 10SM OVC030 25/19 A3003=
KGYY 241445Z 30006KT 10SM SCY075 08/M05 A3021=
KSWF 241445Z VRB05KT 10SM SCT025 10/03 A3003=
KJXI 241455Z AUTO 06004KT 10SM CLR 11/05 A3017 RMK AO2
     T01130046=
KCLK 241455Z AUTO 19008KT 10SM OVC070 10/01 A3016 RMK AO2=
KFDK 241447Z 27006KT 10SM SCT050 SCT065 12/M01 A3012=
KGYY 241445Z COR 30006KT 10SM SCT075 08/M05 A3021=
KSAW 241447Z 32010G17KT 10SM SCT031 SCT046 03/M05 A3012=
PAEL 241445Z 00000KT 12SM -SHRA BKN028 04/03 A2960 RMK SEA 0 SWELL
     2 SW NOSPECI=
