SAUS70 KWBC 241640
METAR
TISX 241630Z 04005KT 10SM SCT024 OVC036 28/22 A2991 RMK AO2 RAE05
     P0000 T02780222=
K05U 241630Z AUTO 30009KT 270V350 10SM 12/00 A2997 RMK A01=
K0A0 241635Z AUTO 18009G14KT 10SM CLR 19/M01 A2995 RMK AO2=
K0A9 241635Z AUTO 00000KT 9SM CLR 12/M02 A3015 RMK AO2=
K0R0 241635Z AUTO 05007KT 010V070 10SM CLR 17/05 A3015 RMK AO2=
K1D1 241635Z AUTO 02012KT 10SM FEW055 05/M03 A3017 RMK AO2=
K2A0 241635Z AUTO VRB05G13KT 10SM CLR 13/M01 A3019 RMK A01=
K2G2 241635Z AUTO 22010KT 10SM OVC045 06/M03 A3013 RMK A01=
K2G4 241635Z AUTO 28013G20KT 10SM SCT041 04/M07 A3008 RMK AO2=
K2M2 241630Z AUTO 02007G14KT 10SM CLR 13/M01 A3020 RMK A01=
K33N 241635Z AUTO 27007G13KT 250V320 10SM CLR 13/M00 A3008 RMK
     A01=
K3AU 241635Z AUTO 21012G18KT 10SM CLR 14/M03 A3013 RMK AO2=
K3L4 241635Z AUTO 04009G15KT 10SM FEW070 SCT080 SCT100 17/12 A3008
     RMK A01=
K3S8 241635Z AUTO 00000KT 10SM OVC046 10/03 A3018 RMK AO2=
K46U 241635Z AUTO 00000KT 10SM OVC043 03/M03 A2990 RMK A01=
K4S2 241635Z AUTO 28007KT 10SM SCT033 SCT040 11/05 A3007 RMK
     AO2=
K54A 241635Z AUTO 14007KT 120V180 10SM FEW028 29/21 A2994 RMK
     AO2=
K5A6 241635Z AUTO 07006G16KT 10SM 16/02 A3018 RMK AO2
     T01600015=
K5T9 241635Z AUTO 13005KT 10SM OVC014 15/13 A3007 RMK A01=
K65S 241635Z AUTO 19008G14KT 10SM OVC055 07/04 A2986 RMK AO2=
K7W4 241635Z AUTO 10SM CLR 13/M01 A3011 RMK AO1 T01321015=
K8A3 241635Z AUTO VRB05G14KT 10SM CLR 11/M03 A3020 RMK A01=
KAVK 241640Z AUTO 20018KT 10SM OVC075 14/M00 A3012 RMK AO2
     PWINO=
KBBB 241636Z AUTO 06005KT 10SM SCT038 SCT070 05/M03 A3018 RMK
     AO2=
KBBP 241635Z AUTO 06007KT 10SM BKN090 15/04 A3013 RMK AO2=
KBDN 241635Z AUTO VRB03KT 10SM SCT038 SCT044 08/M02 A3003 RMK
     AO2=
KBGF 241635Z AUTO 01013G18KT 10SM CLR 13/M04 A3019 RMK A01=
KBTN 241635Z AUTO 05010KT 10SM CLR 05/M05 A3015 RMK AO2=
KC83 241635Z AUTO 22012KT 10SM CLR 17/06 A2996 RMK AO2=
KCKN 241635Z AUTO 02003KT 10SM BKN060 07/M07 A3019 RMK AO2=
KCNC 241635Z AUTO 17013G18KT 10SM SCT090 12/M02 A3011 RMK AO2=
KCQM 241637Z AUTO 00000KT 10SM BKN075 03/M11 A3015 RMK AO2=
KCRX 241635Z AUTO 36009KT 330V040 10SM CLR 15/M01 A3021 RMK
     AO2=
KCSQ 241635Z AUTO 21012KT 10SM FEW100 12/M00 A3008 RMK AO2=
KCXE 241635Z AUTO 25005KT 10SM CLR 13/M01 A3012 RMK AO1
     T01331006=
KCXP 241635Z AUTO 28008G17KT 10SM CLR 16/M03 A2999 RMK AO2=
KCXW 241635Z AUTO 07008KT 10SM CLR 16/ A3020 RMK A01=
KCZL 241635Z AUTO 02009G15KT 10SM CLR 15/00 A3019 RMK AO2=
KDKX 241635Z AUTO 10004KT 10SM CLR 13/M03 A3019 RMK A01=
KDLZ 241635Z AUTO 30005KT SCT025 SCT031 BKN050 04/00 A3020 RMK AO2
     PWINO=
KDZB 241635Z AUTO 00000KT 10SM SCT015 OVC026 13/09 A3012 RMK AO2
     T01320089=
KE42 241635Z AUTO 18018G26KT 10SM OVC022 09/03 A3004 RMK AO2
     T00890031=
KEKS 241635Z AUTO 20010G16KT 10SM OVC060 10/M00 A2984 RMK AO2=
KF05 241635Z AUTO 15008KT 10SM OVC060 13/04 A3013 RMK AO2
     T01330041=
KF44 241635Z AUTO 12005KT 10SM BKN110 14/05 A3014 RMK AO2=
KFLY 241635Z AUTO 01010G16KT 10SM CLR 13/M06 A2993 RMK AO2
     T01301062=
KFTN 241635Z AUTO 04006KT 10SM OVC014 16/12 A3009 RMK A01=
KFYE 241635Z AUTO VRB05KT 10SM CLR 15/M01 A3021 RMK A01=
KFYM 241635Z AUTO 35008G15KT 10SM CLR 13/M01 A3021 RMK A01=
KGCY 241635Z AUTO 23005G11KT 10SM CLR 11/M05 A3015 RMK A01=
KGKT 241635Z AUTO 00000G11KT 10SM CLR 12/M02 A3018 RMK A01=
KGOO 241635Z AUTO 00000KT 10SM CLR 16/07 A2999 RMK A01=
KGRN 241635Z AUTO 13006G14KT 10SM CLR 12/M08 A2993 RMK AO2
     T01161077=
KGZN 241620Z AUTO 14013G18KT 10SM OVC046 12/07 A3010 RMK AO2=
KGZS 241635Z AUTO 03009KT 350V080 10SM CLR 14/M00 A3020 RMK
     A01=
