SAUS70 KWBC 241638 RRH
METAR
KMMH 241635Z AUTO 12005KT 10SM CLR 07/M04 A3007 RMK AO2
     T00731041=
KONP 241635Z AUTO 28004KT 10SM SCT011 BKN016 OVC030 08/07 A3020
     RMK AO2=
KOQN 241635Z AUTO 25006KT 10SM BKN060 12/M02 A3007 RMK AO2=
KPCM 241635Z AUTO 10006KT 10SM BKN028 BKN070 BKN100 29/19 A2998
     RMK AO2=
KPKV 241635Z AUTO 04013KT 10SM SCT020 BKN090 19/14 A3005 RMK AO2
     T01860137=
KPRO 241635Z AUTO 15009KT 10SM SCT065 12/M02 A3010 RMK AO2
     T01201021=
KPUJ 241635Z AUTO 05009KT 10SM CLR 13/M01 A3015 RMK AO2=
KPVB 241635Z AUTO 25008KT 10SM SCT050 BKN065 BKN100 09/M06 A3017
     RMK AO1 T00871061=
KPVF 241635Z AUTO 25003KT 10SM CLR 19/05 A3000 RMK AO1=
KPVJ 241635Z AUTO 13006KT 110V180 10SM OVC090 15/03 A3017 RMK AO2
     T01480030=
KPYX 241635Z AUTO 18018KT 10SM OVC024 07/01 A3004 RMK AO2
     T00660007=
KREG 241635Z AUTO 05006KT 10SM BKN080 OVC095 17/09 A3009 RMK AO2
     T01700088=
KRKR 241635Z AUTO 09006KT 10SM CLR 16/M02 A3019 RMK AO2=
KRMY 241635Z AUTO 26011KT 10SM SCT037 BKN047 OVC060 04/00 A3017
     RMK AO2 T00421005=
KRNH 241635Z AUTO 24006KT 10SM SCT038 BKN044 OVC070 04/00 A3015
     RMK AO2 T00400003=
KRNP 241635Z AUTO 27008KT 10SM BKN033 BKN041 OVC048 05/M02 A3014
     RMK AO2 T00541020=
KRQB 241635Z AUTO 32004KT 10SM SCT055 BKN070 OVC085 06/M07 A3012
     RMK AO2 T00641069=
KRRT 241635Z AUTO 10004KT 10SM CLR 04/M02 A3018 RMK AO2=
KRZL 241635Z AUTO 26011G17KT 10SM BKN060 09/M05 A3022 RMK AO2=
KSAR 241635Z AUTO 01003KT 10SM CLR 12/M02 A3027 RMK AO2
     T01181019=
KSCD 241635Z AUTO 02006KT 10SM CLR 16/02 A3016 RMK AO2
     T01550021=
KSEZ 241635Z AUTO 17006KT 10SM CLR 21/00 A2995 RMK AO2=
KSFQ 241635Z AUTO 35005KT 10SM OVC049 14/02 A3013 RMK AO2
     T01370023=
KSIK 241635Z AUTO 00000KT 10SM CLR 15/M01 A3026 RMK AO2=
KSTE 241635Z AUTO 26007KT 10SM SCT021 SCT029 BKN055 06/M07 A3015
     RMK AO2 T00631072=
KSVC 241635Z AUTO 30006KT 10SM CLR 22/M02 A2999 RMK AO2
     T02221020=
KSYF 241635Z AUTO 16013G16KT 10SM SCT110 13/01 A2994 RMK AO2
     T01310014 PWINO=
KT82 241635Z AUTO 10003KT 10SM OVC013 12/10 A3011 RMK AO2
     T01230095=
KTBX 241635Z AUTO 10SM CLR 02/M07 A2994 RMK AO2=
KU64 241635Z AUTO 14009KT 10SM BKN022 08/01 A2996 RMK AO2 CIG
     019V025 T00840012 $=
KU68 241635Z AUTO 09006KT 10SM CLR 13/M07 A2980 RMK AO2=
KULM 241635Z AUTO 33006KT 10SM 06/M03 A3015 RMK AO2=
KUVA 241635Z AUTO 12003KT 10SM OVC017 15/13 A3009 RMK AO2
     T01530131=
KVAF 241635Z AUTO 05021KT 5SM HZ FEW018 FEW026 23/18 A2999 RMK
     A01=
KVGC 241635Z AUTO 35007KT 10SM SCT028 BKN042 OVC080 07/00 A3003
     RMK AO2=
KVJI 241635Z AUTO 30006KT 10SM CLR 09/M05 A3015 RMK AO2
     T00901051=
KVKY 241635Z AUTO 07025KT 10SM CLR A3002 RMK A01=
KVVV 241635Z AUTO 03009KT 10SM SCT036 05/M05 A3017 RMK AO2=
KY31 241635Z AUTO 28013G23KT 240V300 10SM BKN050 07/M07 A3009 RMK
     AO2 T00651072=
KY70 241635Z AUTO 32005KT 10SM BKN060 OVC080 07/M08 A3015 RMK AO2
     T00681080=
KFFX 241635Z AUTO 25007KT 10SM SCT040 SCT050 BKN090 07/M03 A3015
     RMK AO2 T00701027=
KFKN 241635Z AUTO 35005KT 10SM SCT055 OVC065 13/01 A3014 RMK AO2
     T01300010=
KFKS 241635Z AUTO 32007KT 290V360 10SM BKN090 06/M03 A3016 RMK AO2
     T00611028=
KFPK 241635Z AUTO 30005KT 10SM SCT021 BKN065 OVC075 06/M03 A3015
     RMK AO2 T00561026=
KGGI 241635Z AUTO 20008KT 10SM OVC080 12/M01 A3016 RMK AO2
     T01171011=
KGRY 241630Z AUTO 06026KT 10SM SCT024 BKN085 21/16 A2999 RMK
     A01=
KGUL 241635Z AUTO 07011KT 8SM SCT018 SCT023 SCT028 23/20 A2997 RMK
     A01=
KGYB 241635Z AUTO 00000KT 10SM OVC030 14/09 A3012 RMK AO2
     T01420093=
