SAUS70 KWBC 241452
METAR
KETC 241440Z AUTO 01007KT 7SM OVC037 11/01 A3014 RMK AO2
     T01090014=
