SAUS70 KWBC 241518 RRH
METAR
KPNM 241515Z AUTO 28005KT 10SM SCT037 05/M04 A3015 RMK AO2=
KPWC 241515Z AUTO 04005KT 10SM CLR 03/M06 A3018 RMK AO2=
KS24 241515Z AUTO 31007KT 10SM FEW032 BKN055 BKN070 06/M01 A3018
     RMK AO2=
KSLH 241515Z AUTO 27007KT 10SM SCT020 OVC035 03/01 A3010 RMK
     AO2=
KTMA 241515Z AUTO 05010KT 9SM OVC140 20/07 A3012 RMK AO2 T01970072
     $=
KTOB 241515Z AUTO 32006KT 10SM SCT060 SCT075 04/M01 A3014 RMK
     AO2=
K10G 241515Z AUTO 24008KT 10SM RA BKN035 BKN048 BKN070 03/00 A3015
     RMK AO2=
K3N8 241515Z AUTO 05005KT 10SM CLR 02/M02 A3016 RMK AO2
     T00191019=
K7L2 241515Z AUTO 13010KT 10SM CLR 06/M03 A3012 RMK AO2=
KAIT 241515Z AUTO 00000KT 10SM CLR 04/M04 A3014 RMK AO2=
KBBB 241515Z AUTO 11003KT 10SM SCT024 04/M01 A3018 RMK AO2=
KBDH 241515Z AUTO 36007KT 10SM CLR 05/M02 A3019 RMK AO2=
KBUU 241515Z AUTO 25006KT 10SM BKN050 BKN065 06/M06 A3019 RMK AO2
     T00601057 PWINO=
KC35 241515Z AUTO 24008KT 10SM BKN046 OVC060 05/M02 A3017 RMK AO2
     T00471024 PWINO=
KCDD 241513Z AUTO 02003KT 10SM CLR 02/M07 A3019 RMK AO2=
KCFE 241515Z AUTO VRB04KT 10SM SCT043 SCT050 04/M01 A3015 RMK
     AO2=
KELO 241515Z AUTO 00000KT 10SM CLR 01/M08 A3016 RMK AO2=
KI69 241515Z AUTO 31007KT 280V340 10SM BKN039 06/M03 A3023 RMK AO2
     T00571029=
KIDI 241515Z AUTO 26007G18KT 10SM BKN032 BKN055 BKN070 05/M02
     A3013 RMK A01=
KLVN 241515Z AUTO 33006KT 10SM SCT040 06/M03 A3015 RMK AO2=
KRNP 241515Z AUTO 27007KT 10SM SCT020 BKN040 OVC050 05/M01 A3016
     RMK AO2 T00481006=
KRZN 241515Z AUTO 04005KT 10SM SCT033 SCT040 05/M04 A3014 RMK AO2
     T00471045=
KSAZ 241515Z AUTO 00000KT 10SM CLR 04/M07 A3015 RMK AO2=
KSPF 241515Z AUTO 11011KT 10SM CLR 09/M05 A2989 RMK AO2=
KTTF 241515Z AUTO 27011KT 10SM SCT034 BKN039 OVC070 05/M02 A3017
     RMK AO2 T00511018=
KUBE 241515Z AUTO 09003KT 10SM BKN037 BKN046 05/M01 A3013 RMK
     AO2=
K3N8 241515Z AUTO 05005KT 10SM CLR 02/M02 A3016 RMK AO2
     T00191019=
KASL 241515Z AUTO 07009KT 050V110 10SM CLR 14/04 A3016 RMK AO2
     T01450037 $=
KBRG 241515Z AUTO 22006KT 10SM CLR 14/M02 A2997 RMK AO2
     T01421025=
KBVU 241515Z AUTO 01009KT 10SM CLR 21/03 A2984 RMK AO2=
KBXK 241515Z AUTO 11006KT 10SM CLR 23/M02 A2981 RMK A01=
KCLS 241515Z AUTO 22005KT 10SM OVC014 09/08 A3010 RMK AO2=
KCPT 241515Z AUTO 07010KT 9SM SCT090 13/07 A3017 RMK A01=
KHAF 241515Z AUTO 34007KT 4SM HZ CLR 10/07 A3002 RMK AO2=
KL08 241515Z AUTO 21005KT 10SM CLR 23/05 A2976 RMK AO2=
KL35 241515Z AUTO 28003KT 10SM CLR 07/00 A3005 RMK AO2=
KMAN 241515Z AUTO 31012G17KT 10SM SCT024 BKN040 BKN046 09/05 A2991
     RMK A01=
KO22 241515Z AUTO 00000KT 10SM CLR 17/03 A2994 RMK A01=
KO32 241515Z AUTO 11004KT 10SM CLR 16/16 A2992 RMK AO2 T01630163
     $=
KORS 241515Z AUTO VRB04KT 10SM FEW050 SCT055 08/07 A3004 RMK
     AO2=
KPLU 241515Z AUTO 23007KT 10SM SCT010 BKN013 OVC060 08/07 A3008
     RMK AO2=
KT69 241515Z AUTO 08006KT 10SM FEW090 17/14 A3005 RMK A01=
KTSP 241515Z AUTO 28009G15KT 9SM BKN013 OVC020 12/11 A3002 RMK
     AO2=
KU42 241515Z AUTO 17013KT 10SM SCT070 OVC100 12/02 A2990 RMK AO1
     T01200020=
