SAUS70 KWBC 042312
METAR
K2C8 042315Z AUTO 02014G19KT 1/2SM -SN OVC003 M05/M05 A2995 RMK
     AO2=
K8W2 042315Z AUTO 20003KT 10SM BKN100 BKN120 25/14 A2996 RMK AO1
     T02480136=
KIUA 042315Z AUTO 05004KT 10SM OVC075 09/04 A3011 RMK AO2
     T00870041=
KJSO 042315Z AUTO 17013G20KT 10SM SCT024 SCT031 BKN050 26/21 A2967
     RMK AO2 T02560210 TSNO=
KRID 042315Z AUTO 14009KT 10SM CLR 20/17 A2983 RMK AO2=
KIPJ 042310Z AUTO 19003KT 10SM CLR 26/16 A3005 RMK AO2
     T02550161=
KIXA 042310Z AUTO 18003KT 10SM CLR 22/18 A3003 RMK AO2=
KLHZ 042315Z AUTO 16003KT 10SM CLR 24/15 A3005 RMK AO2=
KMCZ 042305Z AUTO 21003KT 10SM CLR 23/16 A3004 RMK AO2
     T02350163=
KMQI 042310Z AUTO 20006KT 10SM CLR 19/16 A3007 RMK AO2
     T01910163=
KMRN 042305Z AUTO 00000KT 10SM CLR 26/16 A3008 RMK AO2
     T02600156=
KMWK 042305Z AUTO 20003KT 10SM CLR 24/14 A3007 RMK AO2
     T02400140=
KOCW 042305Z AUTO 14004KT 10SM CLR 23/16 A3006 RMK AO2
     T02300162=
KONX 042305Z AUTO 15003KT 10SM CLR 21/15 A3005 RMK AO2
     T02140151=
KPGV 042305Z AUTO 24003KT 10SM CLR 23/18 A3004 RMK AO2=
KRCZ 042315Z AUTO 18004KT 10SM CLR 26/17 A3005 RMK AO2
     T02590168=
KRHP 042316Z AUTO 23005KT 10SM CLR 26/12 A3002 RMK AO2
     T02550121=
KRUQ 042305Z AUTO 18006KT 10SM CLR 25/15 A3004 RMK AO2
     T02510150=
KSCR 042305Z AUTO 20004KT 10SM CLR 25/16 A3005 RMK AO2
     T02520155=
KSIF 042305Z AUTO 24003KT 10SM CLR 26/14 A3003 RMK AO2
     T02580140=
KSUT 042310Z AUTO 00000KT 10SM CLR 21/17 A3008 RMK AO2
     T02100170=
KSVH 042305Z AUTO 17005KT 10SM CLR 25/16 A3004 RMK AO2
     T02500158=
KTDF 042305Z AUTO 21005KT 10SM CLR 25/13 A3004 RMK AO2=
KTTA 042305Z AUTO 00000KT 10SM CLR 25/15 A3004 RMK AO2
     T02520149=
KUKF 042305Z AUTO 18008KT 10SM CLR 23/14 A3009 RMK AO2=
KVUJ 042305Z AUTO 17003KT 10SM CLR 25/16 A3009 RMK AO2
     T02470163=
KW29 042305Z AUTO 16008KT 10SM CLR 20/16 A2999 RMK AO2
     T02030160=
KW40 042305Z AUTO 17004KT 10SM CLR 23/16 A3005 RMK AO2
     T02340156=
KW63 042315Z AUTO 00000KT 10SM CLR 25/14 A3001 RMK AO1=
K1A5 042315Z AUTO 16004KT 10SM CLR 23/15 A3008 RMK AO2
     T02330152=
K1P1 042315Z AUTO 00000KT 10SM OVC065 06/04 A3017 RMK AO2
     T00600044=
K24A 042305Z AUTO 17010KT 10SM BKN060 22/14 A3010 RMK AO2
     T02220135=
K2G4 042305Z AUTO VRB06KT 10SM CLR 20/09 A3006 RMK AO2=
K2W6 042309Z AUTO 13008KT 10SM CLR 20/15 A3002 RMK AO1=
K6L4 042315Z AUTO 20005G14KT 10SM CLR 26/09 A2997 RMK AO2=
K7W6 042310Z AUTO 19008KT 10SM CLR 19/17 A3007 RMK AO2
     T01920174=
KACZ 042305Z AUTO 00000KT 10SM CLR 23/17 A3005 RMK AO2
     T02310166=
KAFP 042309Z AUTO 00000KT 10SM CLR 26/16 A3005 RMK AO2
     T02580159=
KASJ 042305Z AUTO 21003KT 10SM CLR 23/15 A3004 RMK AO2
     T02340149=
KBEA 042315Z AUTO 14010G16KT 10SM CLR 28/22 A2957 RMK AO2
     T02800222 PWINO=
KCGS 042310Z AUTO 19005KT 10SM CLR 26/12 A2997 RMK AO2
     T02650115=
KCPC 042310Z AUTO 00000KT 10SM CLR 25/18 A3007 RMK AO2
     T02450181=
KCPK 042315Z AUTO 15004KT 10SM CLR 22/15 A3004 RMK AO2
     T02170151=
KCQW 042315Z AUTO 00000KT 10SM CLR 26/17 A3004 RMK AO2=
KCTZ 042305Z AUTO 00000KT 10SM CLR 24/19 A3006 RMK AO2
     T02360186=
KDMW 042305Z AUTO 17005KT 10SM CLR 24/10 A2999 RMK AO2=
KDPL 042305Z AUTO 00000KT 10SM CLR 22/18 A3006 RMK AO2=
KEDE 042310Z AUTO 10004KT 10SM CLR 23/20 A3006 RMK AO2
     T02250195=
KEHO 042315Z AUTO 21007KT 10SM CLR 25/16 A3005 RMK AO2
     T02450161=
KEXX 042310Z AUTO 17005KT 10SM CLR 25/16 A3004 RMK AO2
     T02510156=
KEYF 042310Z AUTO 00000KT 10SM CLR 25/16 A3006 RMK AO2
     T02540162=
