SAUS70 KWBC 241500 RRC
METAR
KSLK 241451Z AUTO 24005KT 8SM OVC009 03/02 A2998 RMK AO2 CIG
     005V014 SLP166 T00330022 53005=
KXWA 241451Z AUTO 13015G21KT 10SM CLR 04/M04 A3003 RMK AO2 SLP197
     T00441044 58003=
KAFN 241452Z AUTO 00000KT 10SM FEW018 BKN026 OVC045 09/04 A2999
     RMK AO2 SLP166 T00890039 53001=
KAQW 241452Z AUTO 30005KT 10SM OVC020 07/03 A3004 RMK AO2 SLP175
     T00720028 53005=
KBLF 241452Z AUTO 26006G17KT 10SM CLR 05/M04 A3013 RMK AO2 SLP206
     T00501044 51003=
KETH 241453Z AUTO 01005KT 10SM CLR 03/M01 A3019 RMK AO2=
KFOZ 241453Z AUTO 00000KT 10SM CLR 04/M07 A3019 RMK AO2=
KGLR 241453Z AUTO 26010G16KT 10SM OVC025 02/M05 A3010 RMK AO2
     SLP206 T00171050 51005=
KIOW 241452Z AUTO 19008KT 10SM FEW100 09/M02 A3021 RMK AO2 SLP236
     T00891022 51003=
KLBF 241453Z AUTO 00000KT 10SM CLR 10/M03 A2995 RMK AO2 SLP146
     T01001028 51004=
KMDH 241452Z 16006KT 10SM CLR 10/01 A3027 RMK AO2 SLP250 T01000011
     50007=
KMLI 241452Z 00000KT 10SM CLR 11/M04 A3021 RMK AO2 SLP232
     T01111039 50003=
KOMA 241452Z 17004KT 10SM BKN110 08/M02 A3008 RMK AO2 SLP190
     T00781017 58001=
KPYM 241452Z AUTO 27005KT 10SM OVC012 11/07 A3002 RMK AO2 SLP168
     T01060067 51008=
KTZR 241445Z 28004KT 10SM OVC050 06/M04 A3019=
KXVG 241453Z AUTO 35003KT 10SM CLR 02/M07 A3015 RMK AO2=
K0E0 241455Z AUTO 17009KT 10SM CLR 05/00 A3000 RMK AO2
     T00461005=
K10G 241455Z AUTO 27015G19KT 10SM SCT030 SCT041 BKN049 06/M01
     A3014 RMK AO2=
K14Y 241455Z AUTO 01004KT 10SM CLR 01/M03 A3015 RMK AO2=
K20U 241455Z AUTO 13015G20KT 10SM CLR 05/M09 A2998 RMK AO2=
K21D 241455Z AUTO 00000KT 10SM SCT025 SCT030 BKN044 04/M01 A3016
     RMK AO2=
K22N 241455Z AUTO 25005KT 10SM SCT050 10/M02 A3008 RMK AO2=
K35A 241455Z AUTO 09008KT 10SM CLR 15/00 A3018 RMK A02
     T01470001=
K4I3 241455Z AUTO 27008KT 10SM SCT025 SCT034 BKN049 05/M00 A3016
     RMK AO2=
K57C 241455Z AUTO 21006KT 10SM 06/M05 A3018 RMK AO2 6////
     T00551049=
KABR 241453Z AUTO 07014KT 10SM CLR 06/M06 A3014 RMK AO2 SLP218
     T00561056 50002=
KABY 241453Z 06009KT 10SM CLR 18/07 A3014 RMK AO2 SLP204 T01780067
     51018=
KACB 241455Z AUTO 21006KT 10SM OVC030 03/M04 A3015 RMK AO2
     T00331036=
KACQ 241455Z AUTO 00000KT 10SM SCT045 SCT050 BKN060 05/00 A3016
     RMK AO2=
KACV 241453Z AUTO 05003KT 10SM CLR 08/07 A3014 RMK AO2 SLP212
     T00830067 53008=
KADG 241453Z AUTO 31011KT 10SM FEW025 SCT032 OVC065 04/M01 A3018
     RMK AO2 SLP230 T00441011 51009=
KAEX 241453Z 07007KT 10SM OVC095 13/05 A3014 RMK AO2 SLP210
     T01330050 53009=
KAFW 241453Z 11006KT 10SM BKN070 BKN100 12/03 A3016 RMK AO2 SLP215
     T01220033 51008=
KAGC 241453Z 26011G20KT 10SM SCT024 BKN034 BKN075 07/M01 A3011 RMK
     AO2 SLP206 T00721006 51005=
KAGS 241453Z 03008KT 360V070 10SM BKN100 16/04 A3012 RMK AO2
     SLP200 T01610039 53015=
KAIA 241453Z AUTO 17003KT 10SM CLR 09/M05 A2990 RMK AO2 SLP126
     T00891050 50000=
KALI 241453Z AUTO 06008KT 10SM OVC009 14/14 A3005 RMK AO2 SLP174
     6//// T01440139 51004=
KALW 241453Z 21014G19KT 10SM -RA BKN034 BKN042 OVC050 08/02 A2997
     RMK AO2 RAB12E22B39 SLP150 P0000 60000 T00830017 53013=
KAMA 241453Z 18018G23KT 10SM BKN016 OVC030 07/03 A3005 RMK AO2
     SLP166 T00720028 53002=
KAMN 241455Z AUTO 30009KT 10SM SCT029 BKN070 OVC080 06/M03 A3014
     RMK AO2 T00581031=
KAMW 241453Z AUTO 17007KT 10SM BKN080 OVC090 09/M01 A3014 RMK AO2
     SLP210 T00891006 58002=
KANB 241453Z AUTO 04010G17KT 010V080 10SM FEW110 14/01 A3018 RMK
     AO2 SLP220 T01440011 53008=
KAOH 241453Z AUTO 32006KT 10SM SCT024 BKN047 OVC065 06/00 A3019
     RMK AO2 SLP228 60000 T00560000 51004=
