SAUS70 KWBC 241638 RRI
METAR
KHAI 241635Z AUTO 29007KT 10SM SCT028 SCT038 OVC080 08/M03 A3018
     RMK AO2 T00751029=
KHCD 241635Z AUTO 33003KT 10SM SCT038 06/M03 A3016 RMK AO2
     T00621026=
KHOE 241635Z AUTO 03004KT 10SM CLR 21/10 A3007 RMK AO2
     T02090098=
KHQG 241635Z AUTO 18017G26KT 10SM SCT029 BKN034 10/02 A3000 RMK
     AO2 T00960022=
KHSB 241635Z AUTO 00000KT 10SM CLR 11/02 A3028 RMK AO2
     T01120018=
KI23 241635Z AUTO 27007KT 10SM SCT042 OVC050 06/M04 A3020 RMK
     AO1=
KI67 241635Z AUTO 36007KT 340V040 10SM OVC049 07/M03 A3024 RMK
     AO1=
KI74 241635Z AUTO 30006KT 10SM SCT029 BKN034 OVC050 05/00 A3021
     RMK AO2=
KIER 241635Z AUTO 07007KT 10SM BKN095 BKN120 18/06 A3015 RMK AO2
     T01790059=
KIGQ 241635Z AUTO 27010KT 10SM OVC055 09/M03 A3021 RMK AO2
     T00851034=
KIKT 241640Z AUTO 05019G27KT 10SM CLR 21/14 A2997 RMK A01=
KIRS 241635Z AUTO 33008KT 10SM SCT049 OVC055 06/M08 A3018 RMK AO2
     T00611082=
KIYA 241635Z AUTO 03008KT 10SM OVC085 17/08 A3008 RMK AO2
     T01700075=
KJPX 241635Z AUTO 34006KT 10SM SCT033 BKN070 OVC110 12/02 A3003
     RMK AO2 T01200021 FZRANO=
KJVY 241635Z AUTO 34009KT 300V010 10SM CLR 10/M03 A3023 RMK AO2
     PWINO=
KJYL 241635Z AUTO 34005KT 10SM CLR 22/07 A3011 RMK AO2
     T02150068=
KJYM 241635Z AUTO 35003KT 10SM SCT041 BKN060 OVC070 04/M02 A3016
     RMK AO2 T00411023=
KJZP 241635Z AUTO 35007KT 10SM CLR 14/M04 A3017 RMK AO2
     T01361042=
KLNA 241635Z AUTO 13009KT 10SM SCT019 SCT055 27/22 A2998 RMK AO2
     LTG DSNT NE AND W T02720220=
KLUD 241635Z AUTO 13010G15KT 110V170 10SM SCT065 15/00 A3015 RMK
     AO2 T01461004=
KMQS 241635Z AUTO RMK AO2 PNO PWINO=
KMVE 241635Z AUTO 01006KT 10SM SCT060 06/M02 A3017 RMK AO2=
KMWM 241635Z AUTO 01004KT 10SM CLR 07/M01 A3013 RMK AO2=
KN38 241635Z AUTO 20008G16KT 10SM FEW043 FEW050 07/M01 A3002 RMK
     AO2=
KN79 241635Z AUTO VRB06KT 10SM FEW044 SCT090 11/M01 A3005 RMK AO2
     T01051013=
KOIC 241635Z AUTO 29005KT 10SM SCT045 BKN070 OVC085 08/00 A3006
     RMK AO2 T00781002=
KOSC 241635Z AUTO 31007KT 260V320 10SM BKN035 OVC045 05/M03 A3011
     RMK AO2 T00471028=
KOYM 241635Z AUTO 26007KT 10SM SCT016 BKN033 OVC043 03/00 A3010
     RMK AO2 PWINO=
KPCZ 241635Z AUTO 25004KT 10SM BKN060 BKN070 07/M06 A3016 RMK AO2
     T00721064=
KPNM 241635Z AUTO 02005KT 10SM SCT042 BKN065 06/M04 A3016 RMK
     AO2=
KPTD 241635Z AUTO VRB04KT 10SM BKN013 OVC018 06/05 A3004 RMK
     AO2=
KPWC 241635Z AUTO 01009KT 10SM CLR 05/M07 A3017 RMK AO2=
KRUG 241635Z AUTO 12007KT 070V140 10SM CLR 04/M05 A3016 RMK
     AO2=
KS25 241635Z AUTO 12014G20KT 10SM CLR 09/M05 A3002 RMK AO2=
KS32 241635Z AUTO 05006KT 10SM FEW029 03/M04 A3018 RMK AO2
     TSNO=
KSAZ 241635Z AUTO 11003KT 10SM SCT070 06/M09 A3015 RMK AO2=
KSJX 241635Z AUTO 25011KT 10SM OVC044 05/M02 A3013 RMK AO2
     T00501022=
KSLH 241635Z AUTO 26010G15KT 10SM SCT022 OVC033 03/00 A3010 RMK
     AO2=
KSPF 241635Z AUTO 09016KT 10SM CLR 11/M05 A2988 RMK AO2=
K6S2 241635Z AUTO VRB06KT 10SM BKN018 BKN039 BKN050 10/09 A3019
     RMK AO2=
KASL 241635Z AUTO 09008G14KT 10SM FEW310 SCT350 SCT380 16/02 A3014
     RMK AO2 T01610021 $=
KATA 241635Z AUTO 10010KT 10SM SCT110 16/04 A3016 RMK AO2 SLP113
     T01630036 $=
KATS 241635Z AUTO 15013KT 10SM OVC013 09/06 A3004 RMK AO2=
KCLS 241635Z AUTO 25004KT 4SM BR BKN023 BKN028 OVC047 09/07 A3012
     RMK AO2=
KCMR 241635Z AUTO 28010KT 10SM FEW080 15/M02 A3001 RMK AO2=
KCVH 241635Z AUTO 00000KT 6SM BR OVC002 10/09 A3004 RMK A01=
KDNA 241635Z AUTO 12007KT 10SM CLR 19/02 A2996 RMK AO2=
KL08 241635Z AUTO 00000KT 10SM CLR 27/03 A2977 RMK AO2=
