SAUS80 KWBC 241500
METAR
KJDN 241448Z AUTO 12010KT 06/M03 A2984 RMK AO1 SLP120 T00611033
     58003=
KJNX 241450Z AUTO 04008KT 10SM SCT041 13/01 A3014 RMK AO2=
KCBE 241445Z AUTO 35003KT 10SM BKN050 OVC060 08/M01 A3017 RMK AO2
     T00831005=
KJQF 241450Z 04014G20KT 10SM CLR 14/01 A3017=
KCBE 241445Z AUTO 35003KT 10SM BKN050 OVC060 08/M01 A3017 RMK AO2
     T00831005=
KESN 241445Z 33004KT 10SM SCT120 11/00 A3015=
