SAUS70 KWBC 241500 RRM
METAR
KRHI 241453Z AUTO 00000KT 10SM FEW080 02/M05 A3012 RMK AO2 SLP217
     60000 T00171050 50004=
KRME 241453Z 30007KT 10SM BKN022 BKN028 OVC045 07/02 A3006 RMK AO2
     SLP182 T00670022 53001=
KRWF 241453Z AUTO 02005KT 10SM SCT065 BKN080 05/01 A3015 RMK AO2
     SLP220 T00500006 51007=
KSBM 241453Z AUTO 31008KT 10SM CLR 08/M04 A3015 RMK AO2 SLP217
     T00781039 51005=
KSEG 241453Z AUTO 19004KT 10SM BKN040 BKN049 09/01 A3009 RMK AO2
     SLP192 T00940011 58005=
KSGS 241455Z AUTO 35003KT 10SM SCT024 SCT029 BKN044 04/M02 A3015
     RMK AO2 T00441022=
KSMQ 241453Z AUTO 35007KT 10SM FEW047 12/01 A3005 RMK AO2 SLP175
     T01220006 58007=
KSPW 241453Z AUTO 23005KT 10SM CLR 09/M04 A3012 RMK AO2 SLP208
     T00891039 50002=
KDFW 241453Z 14004KT 10SM SCT070 BKN100 13/04 A3016 RMK AO2 SLP212
     T01330039 51007=
KEEO 241453Z AUTO 00000KT 10SM BKN075 BKN085 04/M03 A2995 RMK AO2
     SLP121 T00441028 58000=
KEPH 241453Z AUTO 27007KT 10SM OVC065 10/01 A2989 RMK AO2 SLP125
     T01000006 53019=
KFHR 241453Z AUTO 00000KT 10SM OVC048 07/05 A3005 RMK AO2 SLP175
     T00720050 52029=
KIDA 241453Z 20010KT 10SM -RA OVC048 08/00 A2987 RMK AO2 RAB42
     SLP104 P0000 60000 T00830000 55001=
KITR 241453Z AUTO 19009KT 10SM CLR 09/02 A2993 RMK AO2 SLP126
     T00940017 50004=
KLAA 241453Z AUTO 20012KT 10SM FEW120 11/02 A2988 RMK AO2 SLP101
     T01110017 58000=
KPSX 241453Z AUTO 04012KT 10SM SCT018 SCT024 OVC060 16/12 A3008
     RMK AO2 SLP185 T01560117 50010=
KPUC 241453Z AUTO 24003KT 10SM CLR 09/M01 A2992 RMK AO2 SLP115
     T00891011 56002=
KUAO 241453Z VRB04KT 10SM FEW025 BKN036 OVC047 08/06 A3013 RMK AO2
     SLP202 T00830061 51021=
KVGT 241453Z 32007KT 10SM CLR 22/03 A2983 RMK AO2 SLP099 T02170028
     51015=
K2DP 241455Z AUTO 03014KT 10SM BKN027 BKN033 16/11 A3005 RMK AO2
     SLPNO T01600112 52011 $=
KBAF 241453Z 23003KT 10SM OVC029 09/03 A3003 RMK AO2 SLP170
     T00940033 53003=
KTOI 241453Z AUTO 05010KT 10SM SCT110 16/05 A3015 RMK AO2 SLP206
     T01610050 51020=
PASC 241453Z 24005KT 9SM OVC002 M28/M31 A3063 RMK AO2 SLP375
     T12831311 58014=
TIST 241453Z 34006KT 10SM FEW036 29/21 A2990 RMK AO2 SLP126
     T02890206 51010=
TISX 241453Z 11005KT 10SM FEW028 BKN035 BKN095 26/24 A2992 RMK AO2
     RAB06E42 SLP129 P0014 60014 T02560239 51004=
KDEW 241453Z AUTO 18010KT 10SM FEW018 SCT030 SCT055 06/03 A2987
     RMK AO2 SLP120 T00610033 53015=
KGEY 241453Z AUTO VRB04KT 10SM CLR 07/M04 A2982 RMK AO2 SLP095
     T00721044 58002=
KJAQ 241455Z AUTO 33004KT 10SM CLR 13/08 A2994 RMK AO1
     T01330080=
KJSO 241455Z AUTO 08008KT 10SM OVC100 12/06 A3016 RMK AO2
     T01220060 TSNO=
KMFE 241453Z 02008KT 10SM OVC012 18/14 A3004 RMK AO2 SLP170
     T01780144 51007=
KMOD 241453Z 35006KT 10SM CLR 15/06 A2993 RMK AO2 SLP133 T01500056
     53008=
KMWL 241453Z AUTO 14006KT 10SM SCT060 BKN085 13/06 A3014 RMK AO2
     SLP203 T01280056 50005=
KOAK 241453Z 21007KT 10SM FEW011 SCT200 11/09 A3001 RMK AO2 SLP160
     T01110089 53007=
KOMK 241453Z AUTO 33008KT 10SM OVC090 10/04 A2988 RMK AO2 SLP120
     T01000044 52019=
KPRB 241453Z AUTO 07003KT 10SM OVC004 09/08 A2999 RMK AO2 SLP153
     T00940078 53010=
KVCB 241453Z AUTO 00000KT 10SM CLR 13/08 A2994 RMK AO2 SLP138
     T01330078 53011=
KWRL 241453Z AUTO 00000KT 10SM CLR 06/M05 A2982 RMK AO2 SLP103
     T00611050 58001=
KWVI 241453Z AUTO 00000KT 6SM BR OVC005 09/08 A3001 RMK AO2 SLP162
     T00890078 53004=
KEMT 241445Z 00000KT 4SM CLR 14/12 A2991=
KPAO 241447Z VRB03KT 6SM HZ SKC 11/08 A3000=
KRTN 241453Z AUTO 19004KT 10SM OVC012 04/01 A2996 RMK AO2 SLP121
     T00390006 58001=
