SACA35 KWBC 241500 RRA
METAR
MGPB 241500Z 00000KT 5000 HZ SKC 30/25 Q1008 A2977=
MNPC 241500Z 18004KT 7000 SCT016 30/25 Q1012 HZ 2CS300=
