SAUS70 KWBC 241536 RRB
METAR
KUNU 241535Z AUTO 23008KT 10SM SCT045 06/M04 A3018 RMK AO2
     T00561045=
KVNW 241535Z AUTO 30009KT 10SM SCT036 OVC060 06/M03 A3021 RMK
     AO2=
