SACA42 KWBC 241500
METAR
TIST 241453Z 34006KT 10SM FEW036 29/21 A2990=
TISX 241453Z 11005KT 10SM FEW028 BKN035 BKN095 26/24 A2992=
TJBQ 241450Z 01008KT 10SM CLR 27/21 A2994=
TJMZ NIL=
TJNR 241453Z AUTO 03009KT 10SM FEW040 28/22 A2993=
TJPS 241455Z AUTO VRB04KT 10SM CLR 29/20 A2989=
TJSJ 241456Z 36008KT 10SM SCT032 SCT140 27/22 A2992=
