SAUS80 KWBC 241536
METAR
KGNT 241535Z AUTO 01008G14KT 10SM BKN090 13/M06 A3001 RMK AO2
     T01341059=
KLYV 241535Z AUTO 08008KT 10SM CLR 07/M03 A3012 RMK AO2=
KPOV 241535Z AUTO 30007KT 280V340 10SM BKN015 BKN025 OVC033 04/00
     A3012 RMK AO2 T00351001 PWINO=
KPTS 241535Z AUTO 20006KT 10SM CLR 13/01 A3018 RMK AO2 T01300005
     PWINO=
KROS 241535Z AUTO 00000KT 10SM -RA SCT033 BKN048 OVC075 06/M01
     A3014 RMK AO2 T00621011=
KAID 241535Z AUTO 29010G14KT 10SM SCT046 SCT060 07/M06 A3023 RMK
     AO2 T00711056=
