SAUS80 KWBC 241500 CCA
METAR
KSDB 241451Z AUTO 34005KT 10SM SCT013 BKN018 11/07 A3002 RMK AO2
     SLP133 T01110067 53025=
