SAUS70 KWBC 241530
METAR
K8W2 241535Z AUTO 17004KT 10SM BKN050 09/M04 A3013 RMK AO1
     T00901044=
KTGI 241535Z AUTO 35007KT 10SM OVC060 12/03 A3012 RMK AO1
     T01170029=
K1P1 241535Z AUTO 00000KT 10SM OVC015 08/05 A3002 RMK AO2
     T00810054=
K2C8 241535Z AUTO 36005KT 10SM OVC050 02/M03 A3020 RMK AO2=
KBEA 241535Z AUTO 05011KT 10SM CLR 16/13 A3005 RMK AO2
     T01640126=
KCPK 241535Z AUTO 36005KT 10SM OVC048 12/05 A3012 RMK AO2
     T01200048=
KIUA 241535Z AUTO 32005KT 10SM SCT029 BKN055 OVC110 05/01 A3006
     RMK AO2 P0006 T00460012=
KRID 241535Z AUTO 31009KT 10SM SCT041 OVC050 05/M03 A3022 RMK
     AO2=
