SAUS70 KWBC 241518 RRE
METAR
KAIK 241515Z AUTO 04008KT 10SM BKN090 15/04 A3014 RMK AO2
     T01470043=
KATP 241520Z AUTO 07025KT 9SM BKN075 OVC085 23/16 A2994 RMK
     A01=
KBQX 241515Z AUTO 02019KT 6SM HZ OVC015 17/14 A3007 RMK A01=
KBWP 241515Z AUTO 01007KT 10SM BKN020 03/M01 A3017 RMK AO2=
KBYL 241515Z AUTO 00000KT 10SM CLR 09/M03 A3022 RMK AO1=
KCCA 241515Z AUTO VRB04KT 10SM CLR 14/M01 A3024 RMK AO2=
KCFJ 241515Z AUTO 29008G14KT 10SM CLR 06/M08 A3025 RMK AO2
     T00621079=
KCGC 241515Z AUTO 11008KT 080V140 10SM CLR 26/18 A3000 RMK AO2=
KCJR 241515Z AUTO 32007KT 10SM SCT050 13/M04 A3014 RMK AO2
     T01261036=
KCKZ 241515Z AUTO 29005KT 10SM CLR 11/M01 A3008 RMK AO2=
KCLW 241515Z AUTO 12008KT 10SM SCT065 25/19 A2997 RMK AO2
     PWINO=
KCQM 241516Z AUTO 00000KT 10SM CLR 03/M09 A3015 RMK AO2=
KD25 241515Z AUTO 18004KT 10SM SCT037 BKN048 OVC055 03/M06 A3012
     RMK AO2 T00251065=
KDLP 241515Z AUTO 06018G28KT 10SM SCT080 21/13 A2993 RMK A01=
KDSF 241520Z AUTO 03029KT 10SM CLR 23/16 A2996 RMK A01=
KEGV 241515Z AUTO 01004KT 10SM OVC048 02/M08 A3012 RMK AO2
     T00211080=
KEKE 241515Z AUTO 03027KT 10SM CLR 20/15 A2995 RMK A01=
KEOE 241515Z AUTO 05008KT 10SM SCT085 13/02 A3018 RMK AO2=
KERY 241515Z AUTO 26009KT 5SM HZ OVC012 03/00 A3009 RMK AO2
     T00251003=
KEZF 241515Z AUTO 34003KT 10SM CLR 12/M03 A3012 RMK AO2
     T01211026=
KEZM 241515Z AUTO 05008KT 10SM CLR 18/04 A3011 RMK AO2=
KF70 241515Z AUTO 00000KT 10SM OVC004 11/11 A2991 RMK AO2=
KFFX 241515Z AUTO 32003KT 10SM SCT047 SCT055 SCT075 08/M03 A3015
     RMK AO2 T00761027=
KFKN 241515Z AUTO 36006KT 10SM OVC049 11/03 A3014 RMK AO2
     T01090031=
KFKS 241515Z AUTO 02008KT 360V060 10SM CLR 05/M03 A3016 RMK AO2
     T00471029=
KFPK 241515Z AUTO 33004KT 10SM SCT032 BKN037 OVC060 05/M03 A3015
     RMK AO2 T00471035=
KGRY 241515Z AUTO 05024KT 10SM SCT070 22/15 A2998 RMK A01=
KGUL 241520Z AUTO 07011KT 9SM FEW023 24/18 A2996 RMK A01=
KHAI 241515Z AUTO 30008KT 10SM SCT038 BKN060 OVC070 07/M05 A3018
     RMK AO2 T00701046=
KHCD 241515Z AUTO 03003KT 10SM SCT027 SCT033 05/M02 A3017 RMK AO2
     T00471023=
KI23 241515Z AUTO 29009G14KT 10SM SCT039 BKN044 OVC050 06/M03
     A3019 RMK AO1=
KI67 241515Z AUTO 33003KT 10SM OVC045 06/M02 A3024 RMK AO1=
KIKT 241520Z AUTO 04019G27KT 10SM CLR 21/15 A2997 RMK A01=
KIRS 241515Z AUTO 26006KT 10SM SCT034 BKN060 OVC070 05/M05 A3018
     RMK AO2 T00511051=
KJVY 241515Z AUTO 33007KT 10SM CLR 09/M04 A3023 RMK AO2 PWINO=
KJYG 241516Z AUTO 02005KT 10SM 05/00 A3015 RMK AO2=
KJYM 241515Z AUTO 27006KT 10SM SCT021 SCT027 OVC060 03/M01 A3016
     RMK AO2 T00341011=
KLWA 241515Z AUTO 28007KT 260V330 10SM CLR 07/02 A3019 RMK AO2
     T00730018=
KMMH 241515Z AUTO 10003KT 10SM CLR 03/M03 A3007 RMK AO2
     T00271030=
KOQN 241515Z AUTO 29005KT 10SM SCT050 12/M02 A3008 RMK AO2=
KPCM 241515Z AUTO 10006KT 10SM SCT019 SCT065 27/20 A3000 RMK
     AO2=
KPVB 241515Z AUTO 26005KT 10SM BKN065 BKN070 07/M06 A3019 RMK AO1
     T00661056=
KPVF 241515Z AUTO 10003KT 10SM CLR 17/02 A2998 RMK AO1=
KRMY 241515Z AUTO 27008KT 10SM SCT038 BKN050 BKN070 05/M01 A3016
     RMK AO2 T00481015=
KRNH 241515Z AUTO 09003KT 10SM SCT050 SCT060 05/01 A3014 RMK AO2
     T00450005=
KRQB 241515Z AUTO 30007KT 10SM BKN047 OVC055 05/M06 A3014 RMK AO2
     T00491060=
KRRT 241515Z AUTO 32003KT 10SM SCT075 03/M04 A3018 RMK AO2=
KSFQ 241515Z AUTO 36004KT 10SM OVC049 12/06 A3013 RMK AO2
     T01220064=
KSIK 241515Z AUTO 00000KT 10SM CLR 12/03 A3027 RMK AO2=
KSTE 241515Z AUTO 28004KT 10SM CLR 07/M07 A3014 RMK AO2
     T00661075=
KSVC 241515Z AUTO 00000KT 10SM CLR 18/M01 A3000 RMK AO2
     T01841011=
