SACA32 KWBC 241500
METAR
MDLR 241500Z 36005KT 9999 FEW020 29/22 Q1012=
MDPC 241500Z 04006KT 9999 FEW022 29/19 Q1013=
MDPP 241500Z 36005KT 9999 FEW023 28/20 Q1013=
MDSD 241500Z 00000KT 9999 SCT020 28/21 Q1013=
MDST 241500Z 29004KT 220V280 9999 FEW022 SCT300 28/16 Q1013=
MTCH NIL=
MTPP 241452Z 30005KT 220V360 9999 FEW025 29/20 Q1012 A2990=
TAPA 241500Z 26007KT 190V330 9999 FEW018 31/21 Q1012 NOSIG=
TIST 241453Z 34006KT 10SM FEW036 29/21 A2990 RMK AO2 SLP126
     T02890206 51010=
TISX 241453Z 11005KT 10SM FEW028 BKN035 BKN095 26/24 A2992 RMK AO2
     RAB06E42 SLP129 P0014 60014 T02560239 51004=
TJBQ 241450Z 01008KT 10SM CLR 27/21 A2994=
TJMZ NIL=
TJNR 241453Z AUTO 03009KT 10SM FEW040 28/22 A2993 RMK AO2 SLP133
     T02830222 51010=
TJPS 241455Z AUTO VRB04KT 10SM CLR 29/20 A2989 RMK AO2 TSNO=
TJSJ 241456Z 36008KT 10SM SCT032 SCT140 27/22 A2992 RMK AO2 SLP131
     60000 T02720217 51012=
TKPK 241500Z 24010KT 9999 FEW024 31/22 Q1012=
TKPN NIL=
TQPF NIL=
TRPM NIL=
TUPJ 241500Z 36005KT 10SM SCT022 29/21 A2992 RMK Q1013 VIS16KM=
TUPW NIL=
