SAUS70 KWBC 241500 RRJ
METAR
KMJQ 241455Z AUTO 03007KT 10SM CLR 06/M03 A3013 RMK AO2=
KMOP 241455Z AUTO 27008G14KT 10SM SCT045 BKN055 07/M04 A3013 RMK
     AO2 T00681045=
KOXB 241453Z AUTO 31005KT 10SM OVC055 10/05 A3011 RMK AO2 SLP194
     60000 T01000050 53004=
KPIR 241453Z AUTO 11008KT 10SM CLR 07/M05 A3004 RMK AO2 SLP184
     T00721050 50003=
KPTK 241453Z 28007KT 9SM BKN018 OVC060 03/M02 A3014 RMK AO2
     SNB37E48 SLP213 P0000 60000 T00331017 51003=
KVLL 241455Z AUTO 25006KT 10SM SCT029 BKN055 OVC075 05/M02 A3017
     RMK AO2 T00481022=
KY63 241455Z AUTO 04004KT 10SM CLR 02/02 A3017 RMK AO2
     T00160016=
KDXR 241453Z VRB03KT 10SM BKN038 12/02 A3005 RMK AO2 SLP176
     T01170017 51004=
KFRH 241455Z AUTO 30004G16KT 10SM CLR 07/M08 A3026 RMK AO1=
KGFL 241453Z AUTO 16005KT 10SM FEW016 OVC025 07/04 A3004 RMK AO2
     RAB32E41 SLP176 P0000 60000 T00670044 51005=
KHAO 241453Z AUTO 30009KT 10SM BKN045 06/M03 A3024 RMK AO2 SLP242
     T00611028 53009=
KMDW 241453Z 25006KT 10SM FEW055 SCT070 08/M04 A3020 RMK AO2
     SLP234 T00781039 51006=
KMDZ 241455Z AUTO 24004KT 10SM SCT048 BKN060 03/M03 A3012 RMK AO2
     T00291028 PWINO=
KMGW 241453Z 24007KT 200V280 10SM OVC055 07/M06 A3015 RMK AO2
     SLP216 T00721056 53005=
KMIC 241453Z 28003KT 10SM SCT027 04/M02 A3014 RMK AO2 SLP214
     T00441017 50002=
KMPO 241453Z AUTO 30010G14KT 10SM FEW042 08/M02 A3002 RMK AO2
     SLP176 T00781022 56001=
KMQJ 241455Z AUTO 30010G14KT 10SM CLR 10/M01 A3024 RMK AO1=
KMSS 241453Z AUTO 25008KT 8SM -RA FEW009 OVC015 06/04 A3004 RMK
     AO2 SLP176 P0001 60002 T00560039 53011=
KMTJ 241453Z AUTO 15008KT 10SM BKN060 OVC075 09/02 A2997 RMK AO2
     SLP110 T00890022 51002=
KN38 241455Z AUTO 26007KT 220V280 10SM BKN032 OVC040 05/M01 A3004
     RMK AO2=
KOIC 241455Z AUTO 34005KT 10SM SCT030 BKN050 OVC085 06/01 A3007
     RMK AO2 T00600007=
KOSH 241453Z 25006KT 10SM BKN070 BKN085 07/M03 A3015 RMK AO2
     SLP219 T00671033 51006=
KOZW 241455Z AUTO 26008KT 10SM SCT018 BKN023 OVC070 05/00 A3015
     RMK AO2 T00451003=
KDHT 241453Z AUTO 19018KT 10SM OVC019 08/02 A3000 RMK AO2 PK WND
     18026/1423 SLP144 T00830022 58002=
KDRO 241453Z AUTO 23005KT 10SM -RA SCT040 BKN049 OVC110 07/01
     A2999 RMK AO2 RAB52 SLP122 P0000 60000 T00720011 50003=
KGGG 241453Z 09008KT 10SM OVC100 13/05 A3016 RMK AO2 SLP215
     T01280050 50010=
KGUP 241453Z AUTO 06007KT 10SM CLR 11/M01 A3001 RMK AO2 SLP069
     T01111011 50008=
KIPL 241453Z AUTO 17003KT 10SM CLR 23/05 A2974 RMK AO2 SLP072
     T02280050 51023=
KMAF 241453Z 12011KT 6SM BR OVC007 08/08 A3008 RMK AO2 CIG 004V011
     SLP172 T00830083 50004=
KMFR 241453Z 00000KT 10SM SCT036 OVC044 08/03 A3013 RMK AO2 SLP203
     T00830028 53012 $=
KMYV 241453Z AUTO 00000KT 10SM CLR 15/10 A2994 RMK AO2 SLP142
     T01500100 53013=
KOLF 241453Z AUTO 09012KT 10SM BKN110 05/M04 A2995 RMK AO2 SLP159
     T00501044 58008=
KONT 241453Z 21004KT 2 1/2SM -DZ BR BKN006 OVC014 13/13 A2990 RMK
     AO2 SLP120 P0000 60000 T01330128 52013=
KPUW 241453Z AUTO 25015G22KT 10SM SCT022 BKN060 OVC080 06/02 A2993
     RMK AO2 SLP141 T00560017 53012=
KVEL 241453Z AUTO 00000KT 10SM CLR 07/M03 A2994 RMK AO2 SLP119
     T00721028 50002=
KDLN 241453Z AUTO 20004KT 10SM BKN110 05/M01 A2980 RMK AO2 SLP077
     T00501006 58001=
KDTO 241453Z 10007KT 070V150 10SM FEW070 SCT100 13/04 A3017 RMK
     AO2 SLP215 T01280044 51006=
KELN 241453Z AUTO 29015G22KT 10SM SCT110 08/02 A2994 RMK AO2
     SLP142 T00780017 53019=
KEVW 241453Z AUTO 19005KT 10SM SCT055 BKN070 01/M04 A2992 RMK AO2
     SLP120 T00111039 58002=
