SAUS70 KWBC 241500 RRX
METAR
KNSE 241456Z 03009KT 10SM FEW040 BKN120 BKN160 16/09 A3010 RMK AO2
     SLP179 T01610089 51015=
KAPG 241455Z 30004KT 8SM SCT050 12/00 A3011 RMK AO2A=
KEFD 241454Z 04008KT 10SM BKN065 15/09 A3008=
K04W 241459Z AUTO 03004KT 10SM SCT037 BKN044 OVC080 05/M05 A3014
     RMK AO2=
KAAA 241458Z AUTO 24004KT 10SM CLR 09/M02 A3025 RMK AO2=
KOLY 241450Z AUTO 00000KT 10SM CLR 09/M04 A3028 RMK AO2 T00861040
     PWINO=
KVES 241450Z AUTO 32007KT 10SM BKN024 BKN034 OVC060 03/M01 A3020
     RMK AO2=
KVVS 241450Z AUTO 27009KT 10SM -RA SCT031 SCT037 OVC050 05/M02
     A3014 RMK AO2 T00481020=
KGOV 241455Z AUTO 32008KT 10SM OVC028 03/M04 A3011 RMK AO2 SLP215
     60000 T00261042 52007 $=
KNSE 241456Z 03009KT 10SM FEW040 BKN120 BKN160 16/09 A3010 RMK AO2
     SLP179 T01610089 51015=
KETC 241500Z AUTO 36006KT 7SM OVC039 12/02 A3014 RMK AO2
     T01150021=
