SAUS70 KWBC 241500 RRX
METAR
KBWD 241455Z AUTO 12004KT 9SM FEW013 OVC034 10/09 A3015 RMK
     AO1=
KDUB 241457Z AUTO 30011KT 10SM OVC060 03/M09 A2988 RMK AO2=
KEAN 241450Z AUTO 31005KT 10SM CLR 12/M06 A2987 RMK AO2
     T01161063=
KETN 241450Z AUTO 15010KT 10SM SCT011 OVC060 10/07 A3015 RMK AO2
     T00970068=
KGLE 241455Z AUTO 14009KT 10SM BKN090 14/05 A3018 RMK AO2
     T01390051=
KXBP 241450Z AUTO 14008KT 10SM SCT070 BKN085 BKN120 12/05 A3018
     RMK AO2 T01150051=
KEDC 241455Z AUTO 02009KT 9SM OVC034 12/09 A3012 RMK AO2=
KAPG 241455Z 30004KT 8SM SCT050 12/00 A3011 RMK AO2A=
