SAUS70 KWBC 241500 RRI
METAR
KHQM 241453Z AUTO 28003KT 10SM FEW030 09/07 A3007 RMK AO2 SLP187
     T00940067 51023=
KHRI 241453Z AUTO 24018G26KT 10SM OVC090 10/03 A2999 RMK AO2 PK
     WND 25026/1449 SLP153 T01000033 53010=
KHRO 241453Z AUTO 15009KT 10SM CLR 11/M02 A3022 RMK AO2 SLP233
     T01111017 51007=
KHSI 241453Z AUTO 23010G17KT 10SM CLR 12/M01 A3001 RMK AO2 SLP164
     T01221011 50006=
KHUF 241453Z 24006KT 10SM CLR 08/M04 A3026 RMK AO2 SLP250
     T00781039 51008=
KHUL 241453Z AUTO VRB04KT 10SM OVC009 05/01 A3018 RMK AO2 SLP225
     T00500011 51003=
KHVN 241453Z 16008KT 10SM CLR 12/06 A3004 RMK AO2 SLP172 T01220061
     53003=
KHWO 241453Z 12007KT 10SM -RA SCT032 SCT050 OVC080 23/21 A2999 RMK
     AO2 RAB35 SLP157 P0006 60006 T02280211 51018=
KHWY 241455Z AUTO 33008G16KT 280V360 10SM SCT050 13/M07 A3013 RMK
     AO2 T01331066=
KHYR 241453Z AUTO VRB05KT 10SM FEW031 04/M04 A3013 RMK AO2 SLP218
     T00391044 51004=
KHYX 241455Z AUTO 27006KT 10SM SCT022 BKN034 OVC050 05/01 A3015
     RMK AO2 T00450011=
KHZE 241455Z AUTO 10007KT 10SM CLR 04/M00 A3011 RMK AO2=
KHZL 241455Z AUTO 31003KT BKN031 BKN038 08/M01 A3008 RMK AO2
     PWINO=
KHZY 241453Z AUTO 28004KT 3SM -SN BR BKN006 OVC012 02/00 A3014 RMK
     AO2 RAE36SNB1359E14B36 SLP212 P0001 60001 T00220000 53013=
KI68 241455Z AUTO 33009KT 10SM 06/M01 A3021 RMK AO1 6////
     T00571011=
KIAH 241453Z 05010KT 10SM SCT055 OVC080 14/09 A3010 RMK AO2 SLP193
     T01390089 50014=
KICR 241453Z AUTO 10012KT 10SM BKN100 09/M03 A3003 RMK AO2 SLP180
     T00891033 50003=
KICT 241453Z 21012G20KT 10SM FEW130 SCT160 BKN220 13/00 A3012 RMK
     AO2 SLP200 T01330000 51007=
KIDA 241453Z 20010KT 10SM -RA OVC048 08/00 A2987 RMK AO2 RAB42
     SLP104 P0000 60000 T00830000 55001=
KILM 241453Z 35008KT 10SM FEW015 OVC090 17/12 A3009 RMK AO2 SLP187
     T01670117 53019=
KIML 241453Z AUTO 20008KT 10SM CLR 12/01 A2993 RMK AO2 SLP137
     T01170006 50003=
KIPL 241453Z AUTO 17003KT 10SM CLR 23/05 A2974 RMK AO2 SLP072
     T02280050 51023=
KISO 241456Z 02011G15KT 10SM SCT110 12/04 A3012=
KITR 241453Z AUTO 19009KT 10SM CLR 09/02 A2993 RMK AO2 SLP126
     T00940017 50004=
KIWI 241453Z AUTO 10009G16KT 1 3/4SM -RA BR BKN007 OVC011 06/04
     A3010 RMK AO2 RAB01 CIG 005V009 SLP193 P0003 60004 T00610044
     53005=
KIXD 241453Z 19013G20KT 10SM CLR 11/M01 A3016 RMK AO2 SLP214
     T01111006 50007=
KJAQ 241455Z AUTO 33004KT 10SM CLR 13/08 A2994 RMK AO1
     T01330080=
KJEF 241453Z 12006KT 10SM CLR 12/M02 A3023 RMK AO2 SLP226
     T01171022 50004 $=
KJER 241453Z AUTO 19005KT 9SM -RA FEW050 SCT060 BKN075 09/03 A2985
     RMK AO2 RAB47 SLP096 P0000 60000 T00890033 58000=
KJKL 241453Z AUTO VRB03KT 10SM FEW047 10/M02 A3020 RMK AO2 SLP228
     T01001022 53006=
KJMR 241455Z AUTO 33003KT 10SM BKN035 BKN060 04/M04 A3018 RMK
     AO2=
KJSO 241455Z AUTO 08008KT 10SM OVC100 12/06 A3016 RMK AO2
     T01220060 TSNO=
KJWN 241450Z 07003KT 10SM CLR 11/M00 A3023=
KJYO 241455Z AUTO 33012G15KT 10SM SCT050 SCT060 12/01 A3014 RMK
     AO2=
KL35 241455Z AUTO 00000KT 10SM CLR 05/M01 A3006 RMK AO2=
KLAA 241453Z AUTO 20012KT 10SM FEW120 11/02 A2988 RMK AO2 SLP101
     T01110017 58000=
KLAR 241453Z AUTO 23006KT 10SM CLR 05/M05 A2992 RMK AO2 SLP093
     T00501050 58000=
KLAW 241453Z 16008KT 10SM OVC080 12/04 A3016 RMK AO2 SLP215
     T01220044 51006=
KLBO 241455Z AUTO 14007KT 10SM CLR 11/M05 A3022 RMK AO2=
KODO 241453Z AUTO 13009KT 3SM BR OVC006 08/07 A3008 RMK AO2 CIG
     004V009 SLP172 T00830072 58005=
KOGB 241453Z AUTO 01006KT 10SM BKN100 16/04 A3012 RMK AO2 SLP198
     T01610039 51017=
