SAUS70 KWBC 241522
METAR
KDQH 241515Z AUTO 06005KT 10SM CLR 19/07 A3012 RMK AO2
     T01860067=
KDUC 241515Z AUTO 16009KT 110V180 10SM SCT080 13/05 A3018 RMK AO2
     T01310048=
KDUX 241515Z AUTO 17017G20KT 10SM BKN020 OVC026 08/02 A3003 RMK
     AO2 T00750020=
KDVO 241515Z AUTO 00000KT 10SM CLR 12/07 A2998 RMK AO2=
KDZJ 241515Z AUTO 19003KT 10SM CLR 11/M02 A3016 RMK AO2
     T01091021=
KE16 241515Z AUTO 00000KT 2 1/2SM BR OVC003 09/09 A3003 RMK
     AO2=
KE38 241515Z AUTO 00000KT 10SM CLR 12/06 A3009 RMK AO2
     T01200055=
KE41 241515Z AUTO 12007KT 10SM OVC004 09/08 A3010 RMK AO2
     T00920080=
KEBA 241515Z AUTO 09008KT 10SM SCT090 14/03 A3015 RMK AO2
     T01410028=
KECU 241515Z AUTO 08008KT 10SM 11/10 A3012 RMK AO2=
KEGT 241515Z AUTO 22010KT 10SM SCT120 13/00 A3015 RMK AO2
     T01270005=
KENL 241515Z AUTO 00000KT 10SM CLR 10/00 A3027 RMK AO2
     T01011005=
KEOK 241515Z AUTO 19006KT 10SM FEW060 11/M03 A3021 RMK A01=
KERV 241515Z AUTO 05003KT 10SM OVC010 12/10 A3010 RMK AO2
     T01200095=
KEZZ 241515Z AUTO 19010KT 10SM CLR 12/M02 A3015 RMK AO2
     T01221021=
KF00 241515Z AUTO 11010KT 10SM OVC100 14/03 A3019 RMK AO2
     T01390032=
KFEP 241515Z AUTO 27008KT 10SM BKN065 08/M01 A3022 RMK AO2
     T00781011=
KFET 241515Z AUTO 08005KT 10SM CLR 09/00 A3006 RMK AO2
     T00921002=
KFFL 241515Z AUTO 22010KT 10SM FEW070 FEW085 10/M06 A3019 RMK
     A01=
KFHB 241515Z AUTO 05009KT 10SM CLR 22/20 A3007 RMK AO2=
KFKR 241515Z AUTO 25009KT 10SM CLR 07/M04 A3022 RMK AO2=
KFMM 241515Z AUTO 00000KT 10SM CLR 07/M02 A2991 RMK AO2=
KFOA 241515Z AUTO 20005KT 10SM CLR 09/M03 A3027 RMK AO2=
KFPY 241515Z AUTO 04004KT 10SM CLR 21/16 A3005 RMK AO2
     T02100156=
KFSW 241515Z AUTO 19006KT 10SM 11/M03 A3020 RMK AO2=
KFWC 241515Z AUTO 00000KT 10SM CLR 09/M02 A3026 RMK AO1
     T00931024=
KFXY 241515Z AUTO 28004KT 10SM CLR 07/M01 A3014 RMK AO2=
KFZG 241515Z AUTO 04003KT 10SM CLR 18/06 A3013 RMK AO2
     T01810058=
KGAO 241515Z AUTO 04011G17KT 10SM OVC090 20/13 A3006 RMK AO2
     T02000127=
KGBG 241515Z AUTO 25004KT 10SM SCT100 11/00 A3023 RMK AO2
     T01061002 TSNO=
KGCM 241515Z AUTO 18011KT 10SM CLR 14/02 A3019 RMK AO2=
KGDJ 241515Z AUTO 09007KT 10SM OVC080 12/06 A3017 RMK AO2
     T01180057=
KGLW 241515Z AUTO 00000KT 10SM CLR 10/00 A3025 RMK AO2
     T00980000=
KGMJ 241515Z AUTO 16006KT 10SM CLR 14/M02 A3019 RMK AO2=
KGPC 241515Z AUTO 34007KT 10SM CLR 08/M04 A3025 RMK AO2
     T00781038=
KGWB 241515Z AUTO 27006G09KT 10SM SCT037 SCT050 OVC065 05/M01
     A3020 RMK AO2=
KGZL 241515Z AUTO 14010G16KT 10SM CLR 14/03 A3019 RMK AO2=
KHCR 241515Z AUTO 00000KT 10SM OVC090 03/M01 A2992 RMK AO2=
KHDC 241515Z AUTO 05008KT 10SM OVC095 16/07 A3011 RMK AO2
     T01580067=
KHDE 241515Z AUTO 21014G17KT 10SM SCT100 12/00 A2998 RMK AO2
     T01201005=
KHDL 241515Z AUTO RMK AO2 PNO PWINO TSNO=
KHEQ 241515Z AUTO 17004KT 10SM CLR 12/00 A2992 RMK AO2=
KHHG 241515Z AUTO 27005G09KT 10SM SCT035 BKN044 OVC065 07/M02
     A3021 RMK AO2 T00661017=
KHII 241515Z AUTO 21006KT 10SM CLR 27/01 A2975 RMK AO2=
KHMP 241515Z AUTO 04005KT 10SM OVC120 13/01 A3019 RMK AO2
     T01330012=
KHMZ 241515Z AUTO 27007G15KT 10SM SCT060 OVC070 07/M04 A3010 RMK
     AO2 T00741044=
KHNR 241515Z AUTO VRB05KT 10SM CLR 10/M01 A3009 RMK A01=
KHPT 241515Z AUTO 22007G14KT 10SM CLR 11/M02 A3014 RMK AO2=
KHQU 241515Z AUTO 04007KT 10SM BKN100 BKN120 15/04 A3014 RMK AO2
     T01460036=
KHVE 241515Z AUTO 00000KT 10SM CLR 11/06 A2993 RMK AO2=
KI63 241515Z AUTO 20004KT 10SM CLR 10/M03 A3023 RMK AO2
     T01031031=
KI75 241515Z AUTO 14015G19KT 10SM CLR 11/M02 A3013 RMK AO2
     T01131022=
