SAUS70 KWBC 241518 RRA
METAR
KBVU 241515Z AUTO 01009KT 10SM CLR 21/03 A2984 RMK AO2=
KBWW 241515Z AUTO 14013KT 10SM CLR 07/M07 A2998 RMK AO2=
KBXK 241515Z AUTO 11006KT 10SM CLR 23/M02 A2981 RMK A01=
KC29 241515Z AUTO 28004KT 10SM SCT049 SCT080 OVC100 07/M05 A3019
     RMK AO1 T00731053=
KC35 241515Z AUTO 24008KT 10SM BKN046 OVC060 05/M02 A3017 RMK AO2
     T00471024 PWINO=
KCAD 241515Z AUTO 33011G16KT 10SM SCT037 05/M06 A3010 RMK AO2
     T00481056=
KCBG 241515Z AUTO 00000KT 10SM SCT037 BKN048 06/M04 A3015 RMK
     AO2=
KCDD 241513Z AUTO 02003KT 10SM CLR 02/M07 A3019 RMK AO2=
KCDN 241515Z AUTO 02009KT 10SM OVC080 13/02 A3015 RMK AO2=
KCEY 241515Z AUTO 00000KT 10SM CLR 11/01 A3026 RMK A01=
KCFE 241515Z AUTO VRB04KT 10SM SCT043 SCT050 04/M01 A3015 RMK
     AO2=
KCFS 241515Z AUTO 27006KT 10SM SCT022 BKN041 OVC065 05/00 A3014
     RMK AO2 T00541003=
KCKM 241515Z AUTO 04006KT 10SM CLR 14/03 A3023 RMK A01=
KCLS 241515Z AUTO 22005KT 10SM OVC014 09/08 A3010 RMK AO2=
KCMR 241515Z AUTO 27006KT 10SM BKN085 15/M01 A3000 RMK AO2=
KCPT 241515Z AUTO 07010KT 9SM SCT090 13/07 A3017 RMK A01=
KCQW 241515Z AUTO 05009KT 10SM BKN080 12/02 A3014 RMK AO2=
KCVH 241515Z AUTO 00000KT 1SM BR OVC001 09/08 A3002 RMK A01=
KCVX 241515Z AUTO 27010KT 10SM OVC034 04/M04 A3014 RMK AO2
     T00421036=
KD39 241515Z AUTO 04003KT 10SM CLR 03/M04 A3015 RMK AO2
     T00311041=
KD57 241515Z AUTO 09009KT 10SM CLR 04/M04 A3005 RMK AO2=
KD60 241515Z AUTO 14015G20KT 10SM CLR 05/M05 A3007 RMK AO2=
KD95 241515Z AUTO 23008KT 10SM BKN028 BKN034 OVC065 05/M02 A3014
     RMK AO2 T00531019=
KDCM 241515Z AUTO 04008G14KT 10SM CLR 15/01 A3015 RMK AO2=
KDNN 241515Z AUTO 01007KT 290V040 10SM CLR 13/M01 A3019 RMK AO2
     T01251006=
KDRI 241515Z AUTO 07006KT 10SM OVC060 13/08 A3014 RMK AO2
     T01320080 $=
KDTL 241515Z AUTO VRB06KT 10SM CLR 02/M03 A3015 RMK AO2=
KDUH 241515Z AUTO 29007KT 10SM SCT027 SCT034 OVC065 05/M01 A3018
     RMK AO2 T00511008=
KDYB 241515Z AUTO VRB04KT 9SM CLR 20/05 A3009 RMK AO2=
KDYT 241515Z AUTO 05010G15KT 10SM BKN055 BKN065 02/M00 A3018 RMK
     AO2=
KEDJ 241515Z AUTO 32008G15KT 8SM 04/00 A3020 RMK A01=
KEFK 241515Z AUTO 00000KT 10SM SCT010 SCT014 OVC023 08/05 A3002
     RMK AO2 T00750050=
KEKM 241515Z 26008KT 10SM SCT042 SCT055 OVC070 06/M01 A3020 RMK
     AO2 T00601010 $=
KELK 241515Z AUTO 18011KT 10SM OVC050 09/02 A3014 RMK AO2 SLP488
     T00940019 $=
KELO 241515Z AUTO 00000KT 10SM CLR 01/M08 A3016 RMK AO2=
KEVU 241515Z AUTO 20012KT 10SM BKN100 BKN120 12/00 A3009 RMK AO2
     T01240002=
KEZS 241515Z AUTO 04005KT 10SM CLR 05/00 A3016 RMK AO2
     T00510004=
KFBL 241515Z AUTO 23003KT 10SM SCT026 OVC070 05/00 A3015 RMK
     AO2=
KFDW 241515Z AUTO 03005KT 10SM OVC075 12/03 A3015 RMK AO1=
KFFM 241515Z AUTO 03003KT 10SM CLR 03/M03 A3015 RMK AO2=
KFGN 241515Z AUTO 00000KT 10SM CLR 01/M06 A3018 RMK AO2=
KFRH 241515Z AUTO 33004KT 10SM CLR 07/M08 A3026 RMK AO1=
KFSE 241515Z AUTO 00000KT 10SM CLR 01/M03 A3017 RMK AO2=
KFWB 241515Z AUTO 14006G13KT 10SM CLR 12/M04 A3022 RMK AO2=
KFYG 241515Z AUTO 16005G11KT 10SM CLR 11/M02 A3025 RMK AO2=
KGHG 241515Z AUTO 07005KT 10SM BKN013 OVC017 10/07 A3003 RMK
     AO2=
KGHW 241515Z AUTO 01007KT 10SM CLR 03/M03 A3015 RMK AO2=
KGLY 241515Z AUTO 19007KT 9SM CLR 14/M02 A3019 RMK AO2=
KGWR 241515Z AUTO 05010KT 10SM CLR 03/02 A3016 RMK A01=
KHAF 241515Z AUTO 34007KT 4SM HZ CLR 10/07 A3002 RMK AO2=
KHCO 241515Z AUTO 36003KT 10SM OVC050 01/M02 A3020 RMK AO2=
KHLX 241515Z AUTO 30007KT 10SM CLR 07/M05 A3011 RMK AO2
     T00731052=
KHVS 241515Z AUTO 02009KT 10SM OVC080 12/03 A3013 RMK AO2=
