SAUS70 KWBC 241518 RRD
METAR
KPTD 241515Z AUTO 22008KT 9SM -RA SCT009 BKN015 BKN020 06/05 A3003
     RMK AO2=
KPWC 241515Z AUTO 04005KT 10SM CLR 03/M06 A3018 RMK AO2=
KRBW 241515Z AUTO 35006KT 10SM CLR 20/05 A3011 RMK AO2=
KRCE 241515Z AUTO 19013G20KT 10SM OVC085 13/03 A3015 RMK AO2=
KRMN 241515Z AUTO 29005KT 10SM CLR 15/M02 A3013 RMK AO2
     T01541022=
KRNP 241515Z AUTO 27007KT 10SM SCT020 BKN040 OVC050 05/M01 A3016
     RMK AO2 T00481006=
KRPH 241515Z AUTO VRB06KT 10SM OVC080 12/07 A3015 RMK AO2
     T01240066 $=
KRSN 241515Z AUTO 06008KT 10SM SCT090 OVC100 13/06 A3018 RMK AO2
     T01290060 $=
KRUG 241515Z AUTO 12006KT 10SM CLR 02/M05 A3015 RMK AO2=
KRVL 241515Z AUTO 20007G14KT 10SM SCT043 BKN050 BKN060 11/M00
     A3008 RMK AO2=
KRZN 241515Z AUTO 04005KT 10SM SCT033 SCT040 05/M04 A3014 RMK AO2
     T00471045=
KS25 241515Z AUTO 11017KT 10SM CLR 06/M05 A3003 RMK AO2=
KS32 241515Z AUTO VRB03KT 10SM CLR 02/00 A3018 RMK AO2 TSNO=
KSAZ 241515Z AUTO 00000KT 10SM CLR 04/M07 A3015 RMK AO2=
KSHD 241515Z AUTO 30006KT 10SM BKN050 10/M03 A3014 RMK AO2
     T00951029=
KSJX 241515Z AUTO 26008G15KT 10SM OVC040 03/M02 A3014 RMK AO2
     T00321021=
KSLH 241515Z AUTO 27007KT 10SM SCT020 OVC035 03/01 A3010 RMK
     AO2=
KSPF 241515Z AUTO 11011KT 10SM CLR 09/M05 A2989 RMK AO2=
KSRR 241515Z AUTO 24003KT 10SM 12/M01 A3005 RMK AO2=
KSTF 241515Z AUTO 04008G14KT 030V100 10SM FEW120 14/05 A3017 RMK
     AO2=
KSUZ 241515Z AUTO VRB04KT 10SM CLR 13/07 A3022 RMK A01=
KSYM 241515Z AUTO 25011G16KT 10SM SCT047 10/M04 A3021 RMK AO2=
KT69 241515Z AUTO 08006KT 10SM FEW090 17/14 A3005 RMK A01=
KTEW 241515Z AUTO 27004KT 10SM BKN024 OVC030 04/M02 A3016 RMK AO2
     T00431016=
KTKX 241515Z AUTO VRB03KT 6SM HZ CLR 13/03 A3025 RMK AO2=
KTMA 241515Z AUTO 05010KT 9SM OVC140 20/07 A3012 RMK AO2 T01970072
     $=
KTOB 241515Z AUTO 32006KT 10SM SCT060 SCT075 04/M01 A3014 RMK
     AO2=
KTSP 241515Z AUTO 28009G15KT 9SM BKN013 OVC020 12/11 A3002 RMK
     AO2=
KTTF 241515Z AUTO 27011KT 10SM SCT034 BKN039 OVC070 05/M02 A3017
     RMK AO2 T00511018=
KTWT 241515Z AUTO 00000KT 10SM CLR 10/M01 A3028 RMK AO2=
KTYL 241515Z AUTO 32005KT 10SM CLR 13/00 A3001 RMK AO2=
KU42 241515Z AUTO 17013KT 10SM SCT070 OVC100 12/02 A2990 RMK AO1
     T01200020=
KUBE 241515Z AUTO 09003KT 10SM BKN037 BKN046 05/M01 A3013 RMK
     AO2=
KUKT 241515Z AUTO 25007KT 220V300 10SM CLR 11/M01 A3007 RMK
     A01=
KUOX 241515Z AUTO 05008KT 10SM CLR 14/02 A3023 RMK AO2=
KUTA 241515Z AUTO 02008KT 10SM CLR 15/06 A3023 RMK AO2 T01460057
     $=
KUXL 241515Z AUTO 04010KT 10SM OVC100 17/10 A3011 RMK AO2
     T01710095=
KVKS 241515Z AUTO VRB06KT 10SM FEW110 15/05 A3015 RMK A01=
KVNC 241515Z AUTO 13009G18KT 100V170 10SM CLR 27/21 A2996 RMK
     AO2=
KW81 241515Z AUTO 04007KT 10SM BKN070 11/M05 A3014 RMK AO1
     T01141050=
KX07 241515Z AUTO 10009KT 10SM FEW022 SCT070 26/21 A2999 RMK
     A01=
KX60 241515Z AUTO 09007KT 060V120 10SM CLR 26/17 A3001 RMK AO2
     T02560175=
KY19 241515Z AUTO 11011KT 10SM CLR 02/M02 A3011 RMK AO2=
K10G 241515Z AUTO 24008KT 10SM RA BKN035 BKN048 BKN070 03/00 A3015
     RMK AO2=
KS24 241515Z AUTO 31007KT 10SM FEW032 BKN055 BKN070 06/M01 A3018
     RMK AO2=
K27K 241535Z AUTO 26013G16KT 10SM CLR 07/M02 A3022 RMK AO1=
K28J 241515Z AUTO 06009KT 10SM CLR 22/16 A3005 RMK AO2=
K2P2 241515Z AUTO 31006KT 10SM BKN090 OVC110 03/M05 A3016 RMK AO2
     T00311054=
K3D2 241515Z AUTO 03005KT 10SM SCT060 02/M06 A3016 RMK AO2
     T00241057=
K82C 241515Z AUTO 23011KT 10SM OVC040 04/M01 A3017 RMK AO2
     T00391007=
KAEL 241515Z AUTO 01004KT 10SM 06/M02 A3014 RMK AO2=
