SAUS70 KWBC 241500 RRV
METAR
KMQS 241455Z AUTO RMK AO2 PNO PWINO=
KOEO 241455Z AUTO 00000KT 10SM SCT033 SCT041 BKN050 04/00 A3018
     RMK AO2 T00360000=
KPEX 241455Z AUTO 01004KT 10SM CLR 01/M00 A3016 RMK AO2 P0001=
KPTD 241455Z AUTO 22006KT 6SM -RA FEW009 SCT014 BKN020 06/05 A3003
     RMK AO2 P0001=
KPTW 241454Z AUTO VRB05KT 10SM CLR 10/M02 A3010 RMK AO2 SLP189
     T01001017 58003=
KPWC 241455Z AUTO 01007KT 10SM CLR 03/M07 A3018 RMK AO2=
KRGK 241455Z AUTO 00000KT 10SM BKN049 05/M03 A3015 RMK AO2=
KSAZ 241455Z AUTO 00000KT 10SM CLR 03/M06 A3015 RMK AO2=
KSDC 241455Z AUTO 34003KT 10SM SCT043 SCT050 OVC060 07/02 A3007
     RMK AO2=
KSJX 241455Z AUTO 26010KT 10SM OVC038 03/M02 A3013 RMK AO2
     T00321021=
KVSF 241454Z AUTO 31004KT 8SM -RA FEW018 BKN034 OVC049 08/06 A3000
     RMK AO2 SLP164 P0003 60003 T00830056 51002=
K2D5 241455Z AUTO 8/00000008KT 10SM OVC050 03/M03 A3016 RMK
     AO2=
K5H4 241455Z AUTO 11010KT 10SM CLR 02/M09 A3017 RMK AO2=
K6B0 241455Z AUTO 00000KT 2SM RA OVC004 06/06 A3002 RMK AO2 60004
     T00550055 P0004=
K6B9 241455Z AUTO 25007KT 10SM FEW019 SCT075 OVC100 06/04 A3005
     RMK AO2=
K7L2 241455Z AUTO 12010KT 10SM CLR 04/M03 A3012 RMK AO2=
K8B0 241455Z AUTO 11008KT 7SM FEW009 BKN013 OVC018 04/04 A3005 RMK
     AO2=
K96D 241455Z AUTO 36004KT 10SM OVC047 01/M01 A3021 RMK AO2=
K9D7 241455Z AUTO 06005KT 10SM BKN040 03/M05 A3020 RMK AO2
     TSNO=
KACK 241453Z 34005KT 10SM OVC006 10/08 A3003 RMK AO2 SLP169
     T01000078 53013=
KAIG 241455Z AUTO 06003KT 10SM BKN029 BKN043 BKN050 02/M04 A3013
     RMK AO2 T00231038=
KAIT 241455Z AUTO 00000KT 10SM CLR 04/M04 A3014 RMK AO2=
KAKR 241454Z AUTO 31009KT 10SM BKN016 BKN024 OVC031 06/M01 A3013
     RMK AO2 RAE07 SLP208 P0000 60000 T00561006 53007=
KD25 241455Z AUTO 00000KT 10SM BKN055 02/M06 A3012 RMK AO2
     T00231062=
KD95 241455Z AUTO 24007KT 10SM BKN028 OVC065 05/M01 A3014 RMK AO2
     T00501014=
KDSV 241454Z AUTO 23005KT 10SM -RA BKN039 OVC060 08/00 A3006 RMK
     AO2 RAB52 SLP193 P0000 60000 T00780000 55002=
KEKM 241455Z 26008KT 10SM OVC070 06/00 A3020 RMK AO2 T00630001
     $=
KS24 241455Z AUTO 32008KT 10SM SCT028 SCT036 BKN050 06/M01 A3017
     RMK AO2=
KBOS 241454Z 00000KT 10SM BKN018 11/06 A3003 RMK AO2 SLP167
     T01060061 52004=
KFLL 241453Z 19006KT 10SM FEW030 BKN050 BKN080 BKN250 24/22 A2997
     RMK RAE05=
KPHL 241454Z 27007KT 10SM FEW050 11/M02 A3008 RMK AO2 SLP187
     T01111022 56005=
K0S9 241455Z AUTO 00000KT 10SM FEW017 BKN022 OVC060 07/07 A3006
     RMK AO2=
K3N8 241455Z AUTO 03003KT 10SM CLR 01/M01 A3016 RMK AO2
     T00141013=
K6S2 241455Z AUTO 30003KT 10SM OVC036 10/07 A3016 RMK AO2=
KASL 241455Z AUTO 09008KT 050V110 10SM CLR 14/05 A3016 RMK AO2
     T01440048 $=
KCMR 241455Z AUTO 25005KT 10SM FEW085 14/M01 A3000 RMK AO2=
KMRY 241454Z 23006KT 9SM SCT009 10/08 A3002 RMK AO2 SLP177
     T01000078 53005 $=
KO22 241455Z AUTO 00000KT 10SM CLR 15/03 A2994 RMK A01=
KO32 241455Z AUTO 00000KT 10SM CLR 15/15 A2993 RMK AO2 T01510151
     $=
KPLU 241455Z AUTO 22004KT 10SM FEW010 SCT019 BKN050 08/07 A3008
     RMK AO2=
KRBL 241454Z AUTO 31006KT 10SM CLR 13/01 A2997 RMK AO2 SLP144
     T01330011 53020=
KRPH 241455Z AUTO VRB03KT 10SM OVC080 12/07 A3014 RMK AO2
     T01200067 $=
KSRR 241455Z AUTO 03003KT 10SM 11/00 A3005 RMK AO2=
KTAD 241454Z AUTO 25011KT 10SM CLR 09/01 A2991 RMK AO2 SLP092
     T00940006 50003=
KTSP 241455Z AUTO 30010KT 9SM OVC016 12/11 A3002 RMK AO2=
KTYL 241455Z AUTO 29003KT 10SM CLR 13/00 A3001 RMK AO2=
KU42 241455Z AUTO 18010KT 10SM SCT070 SCT080 OVC100 12/03 A2990
     RMK AO1 T01180026=
