SAUS70 KWBC 241638 RRJ
METAR
KMAN 241635Z AUTO 30016G22KT 10SM BKN050 OVC065 11/02 A2994 RMK
     A01=
KO22 241635Z AUTO 00000KT 10SM CLR 19/01 A2996 RMK A01=
KO32 241635Z AUTO 17006KT 10SM CLR 19/17 A2994 RMK AO2 T01910167
     $=
KORS 241635Z AUTO 00000KT 10SM BKN050 BKN065 09/06 A3007 RMK
     AO2=
KPAN 241635Z AUTO VRB04KT 10SM CLR 19/M04 A2999 RMK AO2 PWINO
     TSNO=
KPLU 241635Z AUTO 23005KT 10SM SCT015 BKN022 OVC075 09/08 A3011
     RMK AO2=
KRPH 241635Z AUTO VRB05KT 10SM OVC080 14/06 A3011 RMK AO2
     T01440065 $=
KSRR 241635Z AUTO 24004KT 10SM 16/M03 A3003 RMK AO2=
KT69 241635Z AUTO VRB04G10KT 10SM BKN021 19/15 A3003 RMK A01=
K10G 241635Z AUTO 34004KT 10SM SCT013 BKN046 OVC070 05/01 A3016
     RMK AO2=
K2D5 241635Z AUTO 07010KT 10SM CLR 04/M04 A3017 RMK AO2=
K6B0 241635Z AUTO 00000KT 4SM DZ OVC006 06/06 A3002 RMK AO2
     T00610061 P0006=
KBWW 241635Z AUTO 15016G23KT 10SM CLR 10/M07 A2997 RMK AO2=
KC35 241635Z AUTO 00000KT 10SM SCT018 SCT026 BKN041 05/00 A3017
     RMK AO2 T00490000 PWINO=
KCFE 241635Z AUTO 32005KT 10SM SCT037 SCT043 OVC055 05/M03 A3015
     RMK AO2=
KCFS 241635Z AUTO 24005KT 10SM SCT024 SCT033 OVC060 06/M02 A3012
     RMK AO2 T00611025=
KD95 241635Z AUTO 25008KT 10SM SCT030 BKN041 OVC065 05/M03 A3014
     RMK AO2 T00501026=
KEDJ 241635Z AUTO 31006G13KT 10SM 06/M04 A3020 RMK A01=
KEFK 241635Z AUTO 00000KT 2SM -RA SCT008 OVC016 07/06 A3002 RMK
     AO2 T00660057=
KEZS 241635Z AUTO 04007KT 10SM SCT045 BKN055 OVC065 07/M01 A3014
     RMK AO2 T00671010=
KFFM 241635Z AUTO 00000KT 10SM SCT050 04/M07 A3016 RMK AO2=
KGHG 241635Z AUTO 06007KT 10SM BKN015 10/06 A3002 RMK AO2=
KOEO 241635Z AUTO 00000KT 10SM OVC080 06/M01 A3018 RMK AO2
     T00561013=
KPEX 241635Z AUTO 03003KT 10SM SCT040 03/M02 A3016 RMK AO2=
KRGK 241635Z AUTO 32004KT 10SM BKN047 BKN060 07/M04 A3014 RMK
     AO2=
KRVL 241635Z AUTO 25007KT 10SM FEW047 FEW055 FEW065 09/M01 A3007
     RMK AO2=
KSDC 241635Z AUTO 31004KT 10SM SCT016 BKN023 BKN031 07/03 A3008
     RMK AO2=
