SAUS70 KWBC 241518
METAR
K0S9 241515Z AUTO 00000KT 10SM FEW023 OVC060 07/07 A3006 RMK
     AO2=
K0VG 241515Z AUTO VRB03G11KT 10SM CLR 10/M06 A3020 RMK AO2=
K10G 241515Z AUTO 24008KT 10SM RA BKN035 BKN048 BKN070 03/00 A3015
     RMK AO2=
K15M 241515Z AUTO 04007KT 10SM CLR 12/01 A3022 RMK AO2 T01240008
     $=
K1R7 241515Z AUTO 03007KT 350V050 10SM BKN100 13/07 A3016 RMK AO2
     PWINO=
K24J 241515Z AUTO VRB05G11KT 7SM FEW035 SCT055 BKN075 20/15 A3005
     RMK A01=
K2D5 241515Z AUTO 05008KT 10SM BKN050 03/M04 A3016 RMK AO2=
K2J9 241515Z AUTO 04007KT 10SM CLR 16/11 A3009 RMK AO2=
K3N8 241515Z AUTO 05005KT 10SM CLR 02/M02 A3016 RMK AO2
     T00191019=
K3T5 241515Z AUTO 03005KT 10SM OVC027 13/11 A3011 RMK AO2
     T01340115=
K42J 241515Z AUTO 05008KT 10SM CLR 23/18 A3004 RMK A01=
K46D 241515Z AUTO 09007KT 10SM CLR 02/M03 A3018 RMK AO2=
K4A6 241515Z AUTO 06008G15KT 040V110 10SM CLR 13/M00 A3022 RMK
     AO2=
K4M9 241515Z AUTO 04006KT 10SM CLR 13/05 A3026 RMK AO2 PWINO=
K4O4 241515Z AUTO 08009G14KT 8SM CLR 14/06 A3019 RMK AO2=
K54J 241515Z AUTO 04009KT 10SM CLR 17/08 A3009 RMK AO2
     T01720079=
K57C 241515Z AUTO 29009KT 10SM SCT044 BKN055 06/M05 A3018 RMK AO2
     T00581048=
K5H4 241515Z AUTO 11009KT 10SM CLR 03/M09 A3017 RMK AO2=
K6B0 241515Z AUTO 21003KT 1 3/4SM +RA OVC004 06/06 A3002 RMK AO2
     T00550055 P0001=
K6B9 241515Z AUTO 26006KT 10SM SCT022 SCT070 BKN100 07/03 A3005
     RMK AO2=
K6S2 241515Z AUTO 00000KT 10SM BKN032 OVC037 10/07 A3017 RMK
     AO2=
K7L2 241515Z AUTO 13010KT 10SM CLR 06/M03 A3012 RMK AO2=
K8B0 241515Z AUTO 10009KT 8SM BKN015 OVC022 04/04 A3004 RMK
     AO2=
K96D 241515Z AUTO 35005KT 10SM OVC047 01/M01 A3021 RMK AO2=
K9D7 241515Z AUTO 08005KT 10SM FEW040 03/M05 A3019 RMK AO2
     TSNO=
KACJ 241515Z AUTO 02008KT 10SM BKN120 16/02 A3013 RMK AO2
     T01560024=
KAGO 241515Z AUTO 06008KT 040V100 10SM BKN110 15/03 A3018 RMK
     A01=
KAIG 241515Z AUTO 00000KT 10SM SCT032 SCT043 02/M04 A3012 RMK AO2
     T00211038=
KAIT 241515Z AUTO 00000KT 10SM CLR 04/M04 A3014 RMK AO2=
KALM 241515Z AUTO 33005KT 10SM CLR 13/01 A2999 RMK AO2=
KANQ 241515Z AUTO 29009KT 10SM FEW042 BKN055 OVC065 05/M03 A3018
     RMK AO2=
KAQX 241515Z AUTO 01007KT 10SM CLR 19/04 A3010 RMK AO2=
KARW 241515Z AUTO 03006KT 10SM CLR 21/05 A3010 RMK AO2=
KASL 241515Z AUTO 07009KT 050V110 10SM CLR 14/04 A3016 RMK AO2
     T01450037 $=
KATA 241515Z AUTO 09005KT 10SM OVC100 14/05 A3018 RMK AO2 SLP119
     T01390053 $=
KATS 241515Z AUTO 16015G20KT 10SM OVC012 08/06 A3005 RMK AO2=
KAVC 241515Z AUTO 33005KT 10SM BKN050 13/00 A3020 RMK AO2
     T01300000=
KBAC 241515Z AUTO 03007KT 10SM OVC049 02/M01 A3017 RMK AO2=
KBAX 241515Z AUTO 26003KT 10SM OVC033 04/00 A3012 RMK AO2
     T00401005=
KBBB 241515Z AUTO 11003KT 10SM SCT024 04/M01 A3018 RMK AO2=
KBCB 241515Z AUTO 26004KT 10SM CLR 09/M02 A3015 RMK AO2
     T00881018=
KBCK 241515Z AUTO 25004KT 10SM SCT080 06/M02 A3015 RMK AO2
     T00621018=
KBDH 241515Z AUTO 36007KT 10SM CLR 05/M02 A3019 RMK AO2=
KBJI 241515Z AUTO 09003KT 10SM BKN038 03/M05 A3015 RMK AO2
     T00281055=
KBKS 241515Z AUTO 06008KT 7SM FEW017 19/15 A3004 RMK AO2 SLP134
     T01860150 $=
KBKT 241515Z AUTO 03008KT 10SM BKN060 BKN070 13/M01 A3014 RMK AO1
     T01271011=
KBRG 241515Z AUTO 22006KT 10SM CLR 14/M02 A2997 RMK AO2
     T01421025=
KBRY 241515Z AUTO 31008KT 10SM CLR 09/M06 A3023 RMK AO2
     T00941061=
KBUU 241515Z AUTO 25006KT 10SM BKN050 BKN065 06/M06 A3019 RMK AO2
     T00601057 PWINO=
KBVI 241515Z AUTO 30005KT 10SM BKN041 BKN050 OVC080 07/M01 A3012
     RMK AO2 T00671010=
