SAUS70 KWBC 241500 RRX
METAR
KNSE 241456Z 03009KT 10SM FEW040 BKN120 BKN160 16/09 A3010 RMK AO2
     SLP179 T01610089 51015=
