SAUS70 KWBC 241458
METAR
K27K 241515Z AUTO 28009G15KT 10SM CLR 07/M01 A3022 RMK AO1=
KVOA 241505Z AUTO 05029KT 10SM SCT120 20/12 A3000 RMK A01=
