SAUS70 KWBC 241500
METAR
KASG 241448Z 13007KT 10SM CLR 11/01 A3020=
KOUN 241445Z 16014KT 10SM SCT090 12/05 A3015=
KW96 241455Z AUTO 01003KT 10SM BKN070 BKN080 11/00 A3014 RMK AO1
     T01111004=
TJBQ 241450Z 01008KT 10SM CLR 27/21 A2994=
