SAUS80 KWBC 241500 RRB
METAR
KLAN 241453Z 27008KT 10SM SCT024 BKN031 OVC065 05/M02 A3016 RMK
     AO2 SLP220 T00501017 51006=
KLAX 241453Z 14005KT 8SM FEW009 OVC014 16/12 A2990 RMK AO2 SLP126
     T01560122 53014 $=
KLBB 241453Z 15011KT 9SM OVC008 07/04 A3007 RMK AO2 SLP172
     T00720044 58002=
KODX 241453Z AUTO 09008KT 10SM CLR 09/M03 A3000 RMK AO2 SLP169
     T00891033 50006=
KPDX 241453Z 22005KT 10SM FEW015 BKN055 BKN080 09/06 A3012 RMK AO2
     SLP200 T00940056 53025=
KDAL 241453Z VRB06KT 10SM FEW070 BKN100 13/03 A3016 RMK AO2 SLP211
     T01330028 50001=
KDBQ 241453Z 23006KT 10SM OVC070 07/M01 A3019 RMK AO2 SLP231
     T00671011 51006=
KDMN 241453Z AUTO 05005KT 10SM CLR 14/01 A2997 RMK AO2 SLP087
     T01440011 51013=
KDRT 241453Z AUTO VRB05KT 10SM OVC014 15/11 A3008 RMK AO2 SLP184
     T01500106 50002=
KFMN 241453Z 26007KT 10SM FEW039 BKN055 OVC070 09/03 A3000 RMK AO2
     RAB1354E09B35E47 SLP134 P0000 60000 T00890033 53010=
KFNT 241453Z 25010KT 10SM FEW025 OVC065 05/M01 A3015 RMK AO2
     SLP217 T00501011 52005=
KGCC 241453Z AUTO 16010KT 10SM CLR 07/M04 A2984 RMK AO2 SLP115
     T00671044 58003=
KGEG 241453Z 21016KT 10SM FEW006 BKN045 BKN090 06/02 A2987 RMK AO2
     SLP122 VCSH W T00560022 53017=
KMLU 241453Z 06011G18KT 10SM OVC100 14/06 A3019 RMK AO2 SLP222
     T01440056 51012=
KMSN 241453Z 27006KT 10SM FEW045 FEW080 06/M06 A3018 RMK AO2
     SLP226 T00611061 51005=
KMSO 241453Z 32009KT 7SM -RA FEW007 BKN025 OVC034 07/06 A2982 RMK
     AO2 SLP102 P0002 60004 T00720061 51006=
PABE 241453Z 36010KT 10SM CLR M09/M13 A2990 RMK AO2 SLP126
     T10941133 56020=
PABT 241453Z 00000KT 10SM FEW050 M14/M20 A3020 RMK AO2 SLP247
     T11441200 56018 PNO $=
PACD 241453Z AUTO 00000KT 10SM FEW120 M03/M06 A2985 RMK AO2 SLP108
     T10281056 56026 TSNO=
PADQ 241453Z AUTO 30012KT 10SM CLR 00/M08 A2958 RMK AO2 SLP018
     T00001083 50001 TSNO=
PAFA 241453Z 03010KT 10SM BKN050 BKN080 BKN200 M12/M20 A2996 RMK
     AO2 SLP156 ACSL N-NE AND NW T11221200 58017=
PAHO 241453Z 03007KT 10SM CLR M02/M09 A2958 RMK AO2 SLP017
     T10171094 53004=
PAJN 241453Z 12019G25KT 6SM -RA FEW010 BKN042 OVC060 06/03 A2964
     RMK AO2 SLP038 P0002 60005 T00560028 51006=
PAMC 241453Z AUTO A2987 RMK AO2 SLPNO 57017 PWINO FZRANO TSNO
     $=
PANC 241453Z 01004KT 10SM FEW130 SCT240 M05/M13 A2956 RMK AO2
     SLP012 T10501128 53003=
PAOM 241453Z AUTO 03014KT 10SM CLR M08/M16 A3012 RMK AO2 SLP199
     T10781156 57018 TSNO=
PAOR 241453Z 31005KT 10SM FEW031 OVC055 M12/M15 A2977 RMK AO2
     SLP131 T11221150 57014 PNO=
PAOT 241453Z AUTO 06004KT 10SM CLR M16/M19 A3025 RMK AO2 SLP242
     T11561194 56013 TSNO $=
PAQT 241453Z AUTO 00000KT 10SM OVC008 M22/M23 A3066 RMK AO2 CIG
     007V012 SLP383 T12171228 58018 TSNO PNO $=
KPGA 241453Z AUTO 36006KT 10SM CLR 13/07 A2993 RMK AO2 SLP095
     60001 T01280072 55002=
KPOF 241453Z AUTO 02003KT 10SM CLR 11/03 A3026 RMK AO2 SLP247
     T01110033 51010=
KPOV 241455Z AUTO 30004KT 10SM SCT014 BKN019 OVC030 04/00 A3011
     RMK AO2 T00430000 PWINO=
KPTS 241455Z AUTO 20009G15KT 10SM CLR 12/00 A3018 RMK AO2
     T01171001 PWINO=
KRIW 241453Z AUTO 22004KT 10SM CLR 05/M04 A2985 RMK AO2 SLP096
     T00501044 50000=
KRMG 241453Z AUTO 01011G18KT 10SM CLR 14/M01 A3018 RMK AO2 SLP217
     T01391011 53008=
KRNM 241453Z 00000KT 1 3/4SM BR OVC003 12/11 A2990 RMK AO2 SLP118
     T01170111 53003=
KROS 241455Z AUTO 00000KT 10SM SCT055 07/M01 A3015 RMK AO2
     T00701008=
KRQE 241453Z AUTO 35006KT 10SM BKN090 09/01 A3002 RMK AO2 SLP092
     T00940006 51004=
KTCS 241453Z AUTO 00000KT 10SM CLR 16/M02 A2996 RMK AO2 SLP081
     T01561017 51009=
