SACA35 KWBC 241500
METAR
MGGI NIL=
MGPB NIL=
MGSJ NIL=
MHLC 241500Z 28003KT 3000 FU SCT034 SCT080 29/23 Q1009 A2980
     NOSIG=
MHLM 241500Z 26004KT 3000 FU FEW028 30/23 Q1009 A2980 NOSIG=
MHTG 241500Z 19008KT 140V290 6000 3000W FU SCT030 26/18 Q1018
     A3006 NOSIG=
MNPC NIL=
MPBO 241500Z 20004KT 9999 SCT016 BKN080 27/25 Q1012=
MPCH NIL=
MPDA 241500Z 15004KT 9999 SCT016 30/24 Q1012=
MPMG 241500Z VRB04KT 9000 FEW020 30/22 Q1012 NOSIG=
MPSA NIL=
MPTO 241500Z 17003KT 9000 FEW020 29/22 Q1012 NOSIG=
MRLB 241500Z 15004KT CAVOK 31/23 A2987=
MRLM 241500Z 11007KT 9999 FEW030 29/23 A2991=
MROC 241500Z 27003KT 200V340 CAVOK 27/17 A3003 RMK FEW050
     NOSIG=
MROC 241500Z 27003KT 200V340 CAVOK 27/17 A3003 NOSIG=
MRPV 241500Z 01002KT CAVOK 25/15 A3008 BECMG 29005KT=
MSLP 241450Z 12004KT 080V170 9000 FEW020 30/25 Q1012 A2988
     NOSIG=
MSSS 241450Z NIL=
MZBZ 241500Z 09007KT 9999 BKN024 30/24 A2988 Q1011 NOSIG=
