SAUS70 KWBC 241536
METAR
K08D 241535Z AUTO 12013KT 10SM CLR 05/M03 A3007 RMK AO2=
KARV 241535Z AUTO 05005KT 10SM SCT041 BKN055 BKN065 03/M07 A3011
     RMK AO2 T00281069=
KCPF 241535Z AUTO 29006KT 10SM BKN049 09/M03 A3021 RMK AO2=
KEMV 241535Z AUTO 34007KT 10SM BKN050 OVC065 12/00 A3016 RMK AO2
     T01201005=
KFOZ 241533Z AUTO 00000KT 10SM BKN050 04/M08 A3019 RMK AO2=
KFVX 241535Z AUTO 06003KT 10SM CLR 13/M02 A3012 RMK AO2
     T01311018=
KGVE 241535Z AUTO 02004KT 10SM BKN055 12/M02 A3013 RMK AO1
     T01181018=
KJFX 241535Z AUTO 07010G17KT 030V090 10SM CLR 15/01 A3019 RMK
     AO2=
KMRJ 241535Z AUTO 27006KT 10SM SCT045 SCT060 SCT070 06/M06 A3020
     RMK AO2 PWINO=
KOIN 241535Z AUTO 21019G24KT 10SM CLR 16/01 A3000 RMK AO1
     T01560008=
KORB 241533Z AUTO 34003KT 10SM SCT047 BKN070 03/M08 A3013 RMK
     AO2=
KOWA 241533Z AUTO 32007KT 10SM SCT050 BKN065 BKN095 05/M01 A3015
     RMK AO2=
KPBH 241535Z AUTO 34005KT 4SM -SN SCT035 SCT045 OVC050 01/M04
     A3011 RMK AO2 T00131037=
KPTB 241535Z AUTO 00000KT 10SM SCT060 BKN075 13/M03 A3014 RMK AO2
     T01301026=
KSNK 241535Z AUTO 16008KT 10SM OVC011 09/07 A3011 RMK AO2
     T00890072=
KSPA 241535Z AUTO 05005KT 10SM CLR 14/00 A3014 RMK AO2=
KTVY 241535Z AUTO 17005KT 10SM OVC070 12/01 A2989 RMK AO2=
KVDF 241535Z AUTO 08005KT 10SM SCT019 SCT065 27/21 A2999 RMK
     AO2=
KVER 241535Z AUTO 15007KT 10SM CLR 13/M01 A3022 RMK AO2
     T01301006=
KW75 241535Z AUTO 33005KT 10SM OVC065 11/03 A3013 RMK AO1
     T01130025=
KXSA 241535Z AUTO 35008KT 10SM SCT070 12/01 A3013 RMK AO2
     T01240012=
K0E0 241535Z AUTO 17008KT 10SM SCT120 08/00 A3000 RMK AO2
     T00770000=
K14Y 241535Z AUTO 02005KT 10SM CLR 02/M05 A3015 RMK AO2=
K20U 241535Z AUTO 14015KT 10SM CLR 07/M08 A2998 RMK AO2=
K21D 241535Z AUTO 00000KT 10SM SCT025 BKN049 BKN060 04/M01 A3016
     RMK AO2=
K22N 241535Z AUTO 27005KT 10SM SCT060 SCT070 BKN080 10/M03 A3007
     RMK AO2=
K35A 241535Z AUTO 10005KT 10SM CLR 16/01 A3018 RMK A02
     T01570008=
K4I3 241535Z AUTO 25008KT 10SM SCT049 SCT060 05/M00 A3017 RMK
     AO2=
KACB 241535Z AUTO 21008KT 160V250 10SM BKN030 BKN034 03/M04 A3015
     RMK AO2 T00331037=
KACQ 241535Z AUTO 01004KT 10SM SCT070 SCT085 05/00 A3016 RMK
     AO2=
KAMN 241535Z AUTO 29013KT 10SM BKN060 BKN075 07/M05 A3015 RMK AO2
     T00671051=
KAQP 241533Z AUTO 08006KT 10SM 04/M04 A3016 RMK AO2=
KAXV 241535Z AUTO 30007KT 10SM SCT028 SCT035 OVC060 05/M02 A3021
     RMK AO2=
KBKN 241535Z AUTO 19015KT CLR 16/00 A3015 RMK AO2=
KBNL 241535Z AUTO VRB06KT 10SM CLR 18/04 A3012 RMK AO2=
KCDA 241535Z AUTO 00000KT 10SM 07/04 A3002 RMK AO2 T00700039
     PWINO=
KCDI 241535Z AUTO 24003KT 10SM SCT043 OVC060 06/M01 A3018 RMK AO2
     T00601013=
KCKI 241535Z AUTO 01003KT 10SM OVC090 15/04 A3012 RMK AO2=
KCNB 241535Z AUTO 02006KT 360V070 10SM SCT065 OVC075 05/M03 A3017
     RMK AO2 T00511026=
KCOQ 241535Z AUTO 05005KT 10SM SCT047 02/M07 A3013 RMK AO2
     TSNO=
KD55 241535Z AUTO 01005KT 10SM OVC040 01/M00 A3018 RMK AO2=
KDRM 241535Z AUTO 29004KT 1 1/2SM -SN OVC006 02/00 A3008 RMK AO2
     T00150001=
KDXX 241535Z AUTO 36007KT 10SM SCT070 06/M02 A3018 RMK AO2=
KDYA 241535Z AUTO 04006KT 10SM SCT110 14/05 A3017 RMK AO2
     T01350047=
KETH 241533Z AUTO 01006KT 10SM SCT017 04/M02 A3019 RMK AO2=
KFSO 241535Z AUTO RMK AO2 PWINO=
KFYJ 241535Z AUTO 00000KT 10SM BKN070 BKN085 13/M01 A3014 RMK AO1
     T01261006=
KGDB 241535Z AUTO 02008KT 10SM SCT055 BKN065 06/M02 A3018 RMK AO2
     T00581023=
KGGE 241535Z AUTO 01006KT 10SM OVC100 17/06 A3010 RMK AO2=
KGPH 241535Z AUTO 19006KT 10SM 12/M01 A3016 RMK AO2=
