SAUS70 KWBC 241500 RRX
METAR
KUNV 241453Z 28010KT 10SM BKN039 08/00 A3007=
