SAUS70 KWBC 241700
METAR
KFMH 241645Z 26004KT 10SM FEW020 13/07 A3001=
KLDJ 241655Z AUTO 30006KT 10SM CLR 14/M01 A3004 RMK AO2
     T01421009=
KMCX 241655Z AUTO 30013G17KT 10SM BKN060 OVC070 08/M04 A3022 RMK
     AO2 T00831036=
KFMH 241645Z 26004KT 10SM FEW020 13/07 A3001=
KFMH 241645Z 26004KT 10SM FEW020 13/07 A3001=
