SAUS70 KWBC 241500 RRE
METAR
KGED 241454Z AUTO VRB04KT 10SM OVC065 11/02 A3011 RMK AO2 SLP195
     60000 T01110022 51004 $=
KGHG 241455Z AUTO 07004KT 10SM OVC012 09/06 A3003 RMK AO2=
KGHW 241455Z AUTO 02008KT 10SM CLR 03/M02 A3015 RMK AO2=
KGLY 241455Z AUTO 16008KT 9SM CLR 13/M02 A3019 RMK AO2=
KGWR 241455Z AUTO 05010KT 10SM CLR 03/03 A3017 RMK A01=
KHAF 241455Z AUTO 34009G14KT 4SM HZ CLR 10/07 A3002 RMK AO2=
KALM 241455Z AUTO 31006KT 10SM FEW120 13/01 A2999 RMK AO2=
KALO 241454Z 20008KT 10SM FEW085 09/M04 A3016 RMK AO2 SLP219
     T00941039 50000=
KANQ 241455Z AUTO 28009G15KT 250V310 10SM FEW044 BKN055 OVC065
     05/M03 A3017 RMK AO2=
KAQX 241455Z AUTO 36006KT 10SM CLR 18/04 A3010 RMK AO2=
KARW 241455Z AUTO 03006KT 10SM CLR 20/07 A3009 RMK AO2=
KASL 241455Z AUTO 09008KT 050V110 10SM CLR 14/05 A3016 RMK AO2
     T01440048 $=
KATA 241455Z AUTO 10006KT 10SM OVC100 13/05 A3018 RMK AO2 SLP119
     T01300054 $=
KATS 241455Z AUTO 15016G21KT 10SM OVC013 08/05 A3004 RMK AO2=
KAUW 241454Z AUTO 28007KT 10SM BKN040 BKN085 05/M05 A3011 RMK AO2
     SLP212 T00501050 50002=
KAVC 241455Z AUTO 01007KT 360V090 10SM BKN050 12/00 A3020 RMK AO2
     T01220004=
KAVL 241454Z 36006G16KT 10SM CLR 10/M02 A3015 RMK AO2 SLP204
     T01001017 51008=
KBAC 241455Z AUTO 01006KT 10SM OVC049 01/01 A3017 RMK AO2=
KBAX 241455Z AUTO 26003KT 10SM SCT028 OVC033 04/00 A3012 RMK AO2
     T00371004=
KBCK 241455Z AUTO 26003KT 10SM SCT050 BKN070 BKN080 06/M02 A3015
     RMK AO2 T00551020=
KBDH 241455Z AUTO 36007KT 10SM CLR 04/M02 A3018 RMK AO2=
KBFL 241454Z 00000KT 8SM CLR 17/12 A2995 RMK AO2 SLP137 T01720122
     51011=
KBJI 241455Z AUTO 00000KT 10SM SCT034 02/M05 A3015 RMK AO2
     T00231055=
KBKS 241455Z AUTO 05010KT 7SM FEW015 18/15 A3004 RMK AO2 SLP132
     T01750146 $=
KBKT 241455Z AUTO 03003KT 10SM BKN060 OVC070 12/M02 A3015 RMK AO1
     T01231016=
KBOS 241454Z 00000KT 10SM BKN018 11/06 A3003 RMK AO2 SLP167
     T01060061 52004=
KBRY 241455Z AUTO 35005KT 10SM CLR 09/M05 A3023 RMK AO2
     T00911045=
KBUU 241455Z AUTO 28005KT 10SM SCT049 BKN060 06/M06 A3018 RMK AO2
     T00581056 PWINO=
KBUY 241454Z AUTO 36007KT 10SM CLR 13/01 A3015 RMK AO2 SLP207
     T01280006 50005=
KBVI 241455Z AUTO 32007KT 290V360 10SM SCT022 OVC043 06/M01 A3012
     RMK AO2 T00561011=
KBVU 241455Z AUTO 34008KT 10SM CLR 21/03 A2984 RMK AO2=
KBWI 241454Z 30009KT 10SM SCT055 SCT090 13/M01 A3010 RMK AO2
     SLP192 T01331006 58004=
KBWP 241455Z AUTO 33007KT 10SM SCT015 SCT023 03/M01 A3017 RMK
     AO2=
KBWW 241455Z AUTO 13011G17KT 10SM CLR 06/M07 A2998 RMK AO2=
KHCO 241455Z AUTO 01003KT 10SM OVC050 01/M02 A3020 RMK AO2=
KHLX 241455Z AUTO 31011G16KT 10SM CLR 07/M05 A3010 RMK AO2
     T00671055=
KHVS 241455Z AUTO 04007G13KT 10SM OVC075 12/03 A3013 RMK AO2=
KHWD 241454Z 24006KT 10SM CLR 12/07 A2999 RMK AO2 SLP166 T01170072
     53009 $=
KI19 241455Z AUTO 00000KT 10SM SCT040 BKN047 OVC055 06/M02 A3019
     RMK AO2=
KI69 241455Z AUTO 00000KT 10SM SCT039 07/M03 A3022 RMK AO2
     T00681026=
KIDI 241455Z AUTO VRB05KT 10SM OVC031 05/00 A3013 RMK A01=
KILN 241454Z AUTO 26007KT 10SM BKN040 OVC047 07/M03 A3019 RMK AO2
     SLP239 T00671028 53007=
KIMT 241454Z AUTO 32008KT 10SM FEW048 03/M08 A3012 RMK AO2 SLP216
     T00331078 50004=
KIND 241454Z 28007KT 10SM FEW020 07/M04 A3024 RMK AO2 SLP244 FU
     FEW020 T00671044 51009=
KINT 241454Z 03006KT 10SM CLR 13/M01 A3016 RMK AO2 SLP208
     T01281011 51002=
KIPT 241454Z 23009KT 200V270 10SM BKN040 09/01 A3007 RMK AO2
     SLP185 T00940006 58007=
KISQ 241455Z AUTO 32007KT 10SM BKN021 OVC048 04/M03 A3012 RMK AO2
     T00361032=
