SAUS70 KWBC 241512 RRA
METAR
KPGV 241505Z AUTO 03010KT 10SM OVC033 13/03 A3012 RMK AO2=
KRCZ 241515Z AUTO 02007KT 10SM CLR 12/01 A3015 RMK AO2
     T01240014=
KRHP 241509Z AUTO 07007KT 10SM CLR 12/M03 A3015 RMK AO2
     T01191032=
KRUQ 241505Z AUTO 36008KT 10SM CLR 13/00 A3015 RMK AO2
     T01260001=
KSCR 241505Z AUTO 03006KT 10SM CLR 13/01 A3014 RMK AO2
     T01280005=
KSIF 241505Z AUTO 00000KT 10SM CLR 12/M01 A3016 RMK AO2
     T01221010=
KSUT 241510Z AUTO 35007KT 10SM BKN090 BKN120 17/11 A3009 RMK AO2
     T01710110=
KSVH 241505Z AUTO 10003KT 10SM CLR 13/00 A3014 RMK AO2
     T01260002=
KTDF 241505Z AUTO 02007KT 10SM CLR 11/M01 A3017 RMK AO2=
KTTA 241505Z AUTO 02010KT 10SM CLR 13/00 A3015 RMK AO2
     T01321001=
KUKF 241505Z AUTO 02003KT 10SM CLR 11/M01 A3019 RMK AO2=
KVUJ 241505Z AUTO 02009KT 10SM CLR 14/02 A3019 RMK AO2
     T01350019=
KW29 241505Z AUTO 34006KT 10SM CLR 12/M01 A3012 RMK AO2
     T01171006=
KW40 241505Z AUTO 01012KT 10SM SCT032 SCT080 BKN120 12/03 A3013
     RMK AO2 T01220029=
