SAUS70 KWBC 241638 RRA
METAR
KEFK 241635Z AUTO 00000KT 2SM -RA SCT008 OVC016 07/06 A3002 RMK
     AO2 T00660057=
KEKM 241635Z 26011KT 10SM FEW036 BKN055 OVC070 07/M02 A3021 RMK
     AO2 T00671024 $=
KELK 241635Z AUTO 19014KT 10SM BKN050 OVC065 11/01 A3012 RMK AO2
     SLP481 T01070012 $=
KELO 241635Z AUTO 02004KT 10SM SCT070 02/M09 A3016 RMK AO2=
KEVU 241635Z AUTO 22009KT 10SM SCT070 SCT080 15/02 A3009 RMK AO2
     T01500020=
KEZS 241635Z AUTO 04007KT 10SM SCT045 BKN055 OVC065 07/M01 A3014
     RMK AO2 T00671010=
KFBL 241635Z AUTO 23005KT 10SM SCT035 SCT045 BKN060 06/M01 A3015
     RMK AO2=
KFDW 241635Z AUTO 02004KT 10SM SCT070 SCT090 OVC110 15/04 A3013
     RMK AO1=
KFFM 241635Z AUTO 00000KT 10SM SCT050 04/M07 A3016 RMK AO2=
KFGN 241635Z AUTO 18005KT 10SM BKN070 02/M04 A3018 RMK AO2=
KFRH 241635Z AUTO 23003KT 10SM SCT065 08/M08 A3025 RMK AO1=
KFSE 241635Z AUTO 00000KT 10SM CLR 02/M06 A3017 RMK AO2=
KFWB 241635Z AUTO 14007G12KT 090V190 10SM CLR 15/M05 A3021 RMK
     AO2=
KFYG 241635Z AUTO 19006KT 10SM CLR 13/M03 A3023 RMK AO2=
KGHG 241635Z AUTO 06007KT 10SM BKN015 10/06 A3002 RMK AO2=
KGHW 241635Z AUTO 01006KT 10SM CLR 05/M04 A3016 RMK AO2=
KGLY 241635Z AUTO 23010KT 9SM CLR 17/M02 A3017 RMK AO2=
KGWR 241635Z AUTO 03010KT 10SM BKN035 05/M01 A3017 RMK A01=
KHAF 241635Z AUTO 35010G18KT 4SM HZ CLR 11/08 A3003 RMK AO2=
KASL 241635Z AUTO 09008G14KT 10SM FEW310 SCT350 SCT380 16/02 A3014
     RMK AO2 T01610021 $=
KATA 241635Z AUTO 10010KT 10SM SCT110 16/04 A3016 RMK AO2 SLP113
     T01630036 $=
KATS 241635Z AUTO 15013KT 10SM OVC013 09/06 A3004 RMK AO2=
KAUM 241636Z AUTO 32004KT 10SM CLR 08/M01 A3014 RMK AO2=
KAVC 241635Z AUTO 25006KT 10SM BKN060 14/01 A3018 RMK AO2
     T01410008=
KBAC 241635Z AUTO 04007G12KT 10SM CLR 03/M04 A3018 RMK AO2=
KBAX 241635Z AUTO 24006KT 10SM BKN023 BKN030 OVC046 04/01 A3012
     RMK AO2 T00410010=
KBCB 241635Z AUTO 24005KT 10SM CLR 10/M03 A3014 RMK AO2
     T01011028=
KBCK 241635Z AUTO 28008KT 10SM SCT042 BKN049 BKN065 08/M05 A3014
     RMK AO2 T00761050=
KBDH 241635Z AUTO 35006KT 10SM SCT065 06/M04 A3019 RMK AO2=
KBJI 241635Z AUTO 27004KT 10SM OVC050 03/M06 A3015 RMK AO2
     T00291062=
KBKS 241635Z AUTO 09007KT 7SM SCT022 SCT340 20/16 A3003 RMK AO2
     SLP131 T02040157 $=
KBKT 241635Z AUTO 16004KT 10SM SCT070 14/00 A3012 RMK AO1
     T01391005=
KBRG 241635Z AUTO 17007KT 10SM CLR 18/M03 A2995 RMK AO2
     T01831034=
KBRY 241635Z AUTO 32011KT 10SM CLR 11/M06 A3022 RMK AO2
     T01091062=
KBUU 241635Z AUTO 28007KT 10SM BKN060 08/M05 A3019 RMK AO2
     T00801053 PWINO=
KBVI 241635Z AUTO 28005KT 10SM SCT028 BKN035 OVC044 05/00 A3013
     RMK AO2 T00541003=
KBVU 241635Z AUTO VRB04G12KT 10SM CLR 23/03 A2985 RMK AO2=
KBWW 241635Z AUTO 15016G23KT 10SM CLR 10/M07 A2997 RMK AO2=
KBXK 241635Z AUTO VRB03KT 10SM CLR 25/M01 A2980 RMK A01=
KC29 241635Z AUTO 28006KT 10SM SCT046 OVC050 07/M03 A3019 RMK AO1
     T00721026=
KC35 241635Z AUTO 00000KT 10SM SCT018 SCT026 BKN041 05/00 A3017
     RMK AO2 T00490000 PWINO=
KCAD 241635Z AUTO 29010G15KT 10SM OVC046 06/M07 A3010 RMK AO2
     T00621066=
KCBG 241635Z AUTO 00000KT 10SM SCT042 SCT070 06/M04 A3015 RMK
     AO2=
KCCA 241635Z AUTO 14007KT 090V170 10SM CLR 16/M02 A3022 RMK
     AO2=
KCDN 241635Z AUTO 00000G12KT 10SM BKN080 14/02 A3013 RMK AO2=
KCEY 241635Z AUTO 01009G15KT 10SM CLR 13/M03 A3025 RMK A01=
KCFE 241635Z AUTO 32005KT 10SM SCT037 SCT043 OVC055 05/M03 A3015
     RMK AO2=
KCFS 241635Z AUTO 24005KT 10SM SCT024 SCT033 OVC060 06/M02 A3012
     RMK AO2 T00611025=
KCKC 241635Z AUTO 04006KT 10SM OVC042 01/M11 A3014 RMK AO2=
