SIPS21 NZKL 241500
AAXX 24154
91723 NIL=
91759 41598 31003 10237 20227 40083 56001 70200 83105 333 569/ 83825=
91762 41598 21605 10251 20239 40081 56009 70110 82100 333 569// 82826
=
91825 46/// /0305 10226 20216 30020 40094 57012=
91845 46/98 /1005 10231 20197 30108 40115 57009=
91964 NIL=