SPUS70 KWBC 241516
SPECI
KPWT 241513Z AUTO 24004KT 10SM BKN007 OVC042 07/06 A3006 RMK
     AO2=
PAPB 241504Z AUTO 13022G27KT 2 1/2SM -RA FEW009 OVC014 06/M01
     A2969 RMK AO2 PK WND 13027/1501 P0000 T00611011 TSNO $=
KAFN 241513Z AUTO 30006KT 10SM SCT020 BKN026 OVC043 10/04 A2999
     RMK AO2 T01000039=
KLPR 241513Z AUTO 00000KT 10SM SCT029 OVC037 03/01 A3017 RMK AO2
     RAE1457UPB1457E1459 P0000 T00330011=
PAPB 241504Z AUTO 13022G27KT 2 1/2SM -RA FEW009 OVC014 06/M01
     A2969 RMK AO2 PK WND 13027/1501 P0000 T00611011 TSNO $=
