SPUS70 KWBC 241456
SPECI
KFKL 241453Z AUTO 29007KT 10SM SCT019 BKN047 BKN070 04/00 A3009
     RMK AO2 RAB18E30 P0000=
KLEW 241453Z AUTO 09006KT 2 1/2SM -RA BR OVC009 06/06 A3008 RMK
     AO2 VIS 1 3/4V5 CIG 004V011 PNO $=
KVSF 241452Z AUTO 30003KT 6SM -RA FEW018 BKN040 OVC049 08/06 A3000
     RMK AO2 P0003=
KDDH 241447Z AUTO 23005KT 10SM OVC016 06/03 A3003 RMK AO2
     T00610033=
