SPUS80 KWBC 241504
SPECI
KSEA 241458Z 22009KT 10SM SCT011 OVC016 07/05 A3006 RMK AO2
     T00720050=
KSMX 241500Z 33003KT 1/2SM R12/1800V2400FT FG VV002 09/09 A2996
     RMK AO2 T00890089=
PAYA 241500Z AUTO 08005KT 10SM -RA SCT012 OVC024 04/03 A2955 RMK
     AO2 P0000 T00390033 TSNO $=
