SPUS80 KWBC 241530
SPECI
KRNM 241527Z 00000KT 4SM BR OVC003 12/11 A2990 RMK AO2
     T01220106=
