SPCA32 KWBC 241638
SPECI
TISX 241630Z 04005KT 10SM SCT024 OVC036 28/22 A2991 RMK AO2 RAE05
P0000 T02780222=
