SPUS70 KWBC 241528
SPECI
KBMQ 241524Z AUTO 02006KT 10SM SCT010 OVC033 11/09 A3014 RMK AO2
     T01110089=
KBOI 241524Z 31012KT 10SM BKN010 BKN016 OVC033 09/06 A2989 RMK AO2
     T00890056=
KIDA 241524Z 22008KT 5SM RA BKN028 OVC035 06/02 A2988 RMK AO2
     P0002 T00560022=
KLCI 241525Z AUTO 08010KT 3SM -RA OVC005 07/ A3001 RMK AO2
     P0000=
KHYI 241526Z 03008KT 10SM SCT026 OVC049 15/11 A3012 RMK AO2=
KJHW 241526Z AUTO 25005KT 6SM -RA BR BKN008 BKN015 OVC033 04/02
     A3007 RMK AO2 CIG 005V013 PNO $=
