SPUS80 KWBC 241514
SPECI
KMFD 241511Z 28006KT 9SM BKN017 BKN028 OVC048 04/00 A3015 RMK AO2
     T00390000=
