SPUS70 KWBC 241532
SPECI
KGKJ 241528Z AUTO VRB04KT 7SM -RA BKN011 OVC018 03/01 A3009 RMK
     AO2 RAB23 P0000 T00330011=
KSBD 241528Z 00000KT 3SM BR SCT008 OVC015 14/11 A2990=
KGFL 241529Z AUTO 16003KT 10SM BKN014 OVC023 07/04 A3004 RMK AO2
     T00670044=
KMNN 241529Z AUTO 28007KT 1 3/4SM RA FEW015 BKN024 OVC075 03/00
     A3019 RMK AO2 RAB27 P0002 T00330000=
KSFM 241530Z AUTO 09010KT 3/4SM -RA BR OVC003 07/07 A3004 RMK AO2
     P0001=
PAPB 241520Z AUTO 13021G27KT 1 3/4SM -RA FEW009 OVC014 06/M01
     A2968 RMK AO2 PK WND 13028/1508 P0000 T00611011 TSNO $=
PAPB 241520Z AUTO 13021G27KT 1 3/4SM -RA FEW009 OVC014 06/M01
     A2968 RMK AO2 PK WND 13028/1508 P0000 T00611011 TSNO $=
