SPUS80 KWBC 241534
SPECI
KBDR 241531Z 22011KT 10SM FEW048 12/04 A3004 RMK AO2 WSHFT 1511
     T01170039=
