SPUS80 KWBC 241640
SPECI
KAST 241636Z AUTO 24006KT 10SM FEW017 BKN038 OVC050 09/06 A3013
     RMK AO2 T00940061=
KUIL 241637Z AUTO 00000KT 9SM -RA FEW011 BKN021 BKN032 10/08 A3009
     RMK AO2 RAB33 P0000 T01000078=
