SPUS80 KWBC 241642
SPECI
KABI 241638Z 15010KT 10SM BKN018 OVC031 14/08 A3011 RMK AO2
     T01390083=
