SPUS80 KWBC 241532
SPECI
KMWT 241528Z AUTO 00000KT 10SM SCT004 09/07 A3019 RMK AO2
     T00890067=
KMVL 241528Z AUTO 09003KT 10SM -RA BKN013 BKN018 OVC034 08/06
     A3001 RMK AO2 P0000 T00830056=
KMYL 241529Z AUTO 29003KT 10SM BKN004 OVC016 02/02 A2983 RMK AO2
     RAE1458 CIG 002V006 P0000 T00220017=
