SPUS80 KWBC 241638
SPECI
KSMX 241634Z 30008KT 7SM SCT004 13/11 A2996 RMK AO2 T01280106=
