SPUS70 KWBC 241518
SPECI
KHZY 241514Z AUTO VRB03KT 10SM BKN020 BKN034 OVC049 03/00 A3014
     RMK AO2 UPB06E13SNE06 P0000 T00330000=
KGOV 241510Z AUTO 28012KT 10SM BKN030 03/M04 A3011 RMK AO2 SLP215
     $=
PAKT 241514Z 13007KT 10SM FEW007 BKN017 OVC032 07/05 A2986 RMK AO2
     RAE10 HARBOR WIND 11010KT P0001 T00670050=
KHHR 241515Z 12006KT 10SM OVC016 17/12 A2991 RMK AO2 T01670117=
KSSF 241515Z 04009KT 10SM SCT021 BKN055 BKN080 17/11 A3008 RMK AO2
     T01670111 $=
