SPUS70 KWBC 241530
SPECI
KHZY 241526Z AUTO VRB03KT 10SM -RA FEW011 BKN036 OVC046 04/00
     A3014 RMK AO2 UPB06E13RAB16SNE06 P0000 T00390000=
KMHT 241526Z 33004KT 10SM BKN027 BKN037 12/05 A2999 RMK AO2
     T01220050=
KMLB 241526Z 12010KT 10SM TS FEW026 26/19 A2999 RMK AO2 LTG DSNT E
     TSB20 T02610194=
KONT 241526Z 24004KT 4SM -DZ BR SCT006 OVC014 13/12 A2990 RMK AO2
     P0000 T01330122=
KSLK 241526Z AUTO 21006KT 9SM BKN007 OVC013 04/03 A2999 RMK AO2
     RAB02E13 P0000 T00390028=
KAFN 241528Z AUTO VRB03KT 10SM FEW020 BKN036 OVC055 10/04 A2999
     RMK AO2 T01000039=
KAVX 241527Z AUTO 11007KT 1 1/4SM BR OVC002 12/12 A2992 RMK AO2
     T01170117=
KAWO 241528Z AUTO 14004KT 10SM -RA BKN011 OVC019 08/06 A3008 RMK
     AO2 RAE03B28 P0000=
KIJD 241527Z AUTO 00000KT 10SM SCT022 11/05 A3003 RMK AO2
     T01110050 $=
KMFI 241527Z AUTO 00000KT 1/2SM SN FG BKN016 BKN027 OVC036 01/M02
     A3014 RMK AO2 SNB11 P0000 T00061017=
KPMP 241527Z 10011KT 10SM FEW025 SCT034 SCT055 26/21 A2998 RMK AO2
     T02610211=
KPYM 241527Z AUTO 32003KT 10SM OVC015 11/07 A3002 RMK AO2
     T01110067=
