SPUS70 KWBC 241640
SPECI
PAOU 241638Z AUTO 32003KT 10SM BKN022 M02/M06 A2981 RMK AO2 FZRANO
     PNO $=
KHFF 241631Z AUTO 09006KT 10SM SCT130 16/02 A3009 RMK AO2 SLP191
     $=
KIDA 241637Z 16008KT 10SM -RA FEW017 SCT025 OVC032 05/02 A2988 RMK
     AO2 P0006 T00500022=
KJHW 241638Z AUTO 35009KT 10SM -RA SCT006 BKN014 OVC022 03/02
     A3006 RMK AO2 RAB28 PNO $=
KPVC 241638Z AUTO 31005KT 10SM OVC010 10/07 A3004 RMK AO2=
