SPUS80 KWBC 241456
SPECI
KSMX 241453Z VRB03KT 1/2SM R12/1600V2200FT FG VV002 09/09 A2996
     RMK AO2 T00890089=
