SPUS70 KWBC 241638
SPECI
PAPB 241624Z AUTO 12024G29KT 1SM -RA VV009 06/M01 A2963 RMK AO2 PK
     WND 12029/1623 P0001 T00611006 TSNO $=
PPIZ 241635Z AUTO 05019KT 1/2SM FZFG OVC002 M22/M24 A3054 RMK AO2
     FZRANO=
KMNN 241634Z AUTO 31008KT 8SM SCT020 OVC050 05/M01 A3018 RMK AO2
     RAB1559E22 P0001 T00501006=
KSLK 241634Z AUTO 25005KT 10SM SCT009 BKN014 OVC023 04/02 A2999
     RMK AO2 T00390017=
KTTD 241634Z 23007KT 10SM FEW020 BKN040 OVC075 11/07 A3014 RMK AO2
     T01110067=
PAPB 241624Z AUTO 12024G29KT 1SM -RA VV009 06/M01 A2963 RMK AO2 PK
     WND 12029/1623 P0001 T00611006 TSNO $=
TISX 241630Z 04005KT 10SM SCT024 OVC036 28/22 A2991 RMK AO2 RAE05
     P0000 T02780222=
PASI 241635Z 13010KT 100V160 7SM -RA SCT022 BKN028 OVC032 06/01
     A2969 RMK AO2 RAB03 P0000 T00560011=
KSFM 241636Z AUTO 08008KT 2SM -RA BR OVC003 08/08 A3004 RMK AO2
     P0000=
KSNS 241635Z 35004KT 8SM SCT012 13/08 A3003 RMK AO2 T01330083=
KHZY 241635Z AUTO 28009KT 10SM FEW016 SCT032 OVC085 06/M01 A3014
     RMK AO2 T00561006=
