SPUS70 KWBC 241446
SPECI
K2DP 241440Z AUTO 03012KT 10SM BKN028 BKN033 16/11 A3005 RMK AO2
     SLPNO $=
KBVY 241442Z 00000KT 10SM OVC015 09/07 A3001 RMK AO2 T00940067=
KERI 241442Z 19005KT 5SM -RA BR OVC005 02/02 A3012 RMK AO2
     UPB28E32RAB32SNE28 P0005 T00220017=
KFST 241442Z AUTO 13009KT 10SM SCT010 OVC015 09/07 A3006 RMK AO2
     T00940067 $=
KFDY 241443Z AUTO 32008KT 10SM SCT024 BKN055 OVC075 06/M01 A3017
     RMK AO2 T00611006=
KRUT 241444Z AUTO 25005KT 5SM -RA BR SCT006 BKN012 OVC017 06/06
     A3002 RMK AO2 P0002 $=
KUUU 241443Z AUTO 32004KT 10SM BKN010 09/07 A3002 RMK AO2
     T00940067=
KWST 241443Z AUTO VRB04KT 10SM SCT017 SCT085 12/08 A3003 RMK AO2
     T01220078=
