SPUS70 KWBC 241508
SPECI
PABA 241505Z AUTO 23007KT 10SM OVC004 M27/M29 A3064 RMK AO2 FZRANO
     PNO $=
KAWO 241505Z AUTO 16005KT 10SM FEW005 BKN023 OVC044 08/07 A3007
     RMK AO2 RAE03 P0000=
KJHW 241505Z AUTO 24004KT 10SM -RA SCT007 BKN020 OVC033 03/02
     A3007 RMK AO2 PNO $=
KAUG 241505Z AUTO 11007G14KT 2SM BR OVC005 06/04 A3009 RMK AO2 CIG
     003V009 P0001 T00610044=
KCMX 241505Z AUTO 01012KT 10SM BKN023 OVC080 02/M05 A3015 RMK AO2
     T00221050=
KMAF 241505Z 13014KT 4SM BR OVC004 08/08 A3008 RMK AO2 CIG 003V009
     T00780078=
KPWM 241505Z 09013KT 3/4SM -RA BR OVC004 06/06 A3007 RMK AO2 P0002
     T00610061=
KSLK 241506Z AUTO 23004KT 8SM -RA BKN007 OVC011 04/02 A2999 RMK
     AO2 RAB02 CIG 006V011 P0000 T00390022=
