SPUS70 KWBC 241504
SPECI
KBLI 241456Z 20006KT 10SM BKN009 OVC060 08/07 A3003 RMK AO2
     T00830072=
KHFD 241456Z 32005KT 10SM BKN032 11/03 A3003 RMK AO2 T01110033=
KSLK 241459Z AUTO 23006KT 8SM OVC011 03/02 A2999 RMK AO2
     T00330022=
KAFN 241500Z AUTO 32003KT 10SM FEW018 BKN043 OVC050 11/04 A2999
     RMK AO2 T01060044=
KBOI 241500Z 29010KT 10SM FEW011 SCT018 BKN025 09/06 A2988 RMK AO2
     T00940056=
KHUL 241500Z AUTO 08006KT 10SM OVC010 05/01 A3018 RMK AO2
     T00500011=
KHZY 241500Z AUTO 33005KT 4SM -SN SCT006 OVC014 03/00 A3014 RMK
     AO2 P0000 T00280000=
KPMP 241500Z 10011G19KT 10SM BKN022 BKN029 26/20 A2998 RMK AO2 LTG
     DSNT NE T02610200=
KSBA 241500Z 08007KT 9SM BKN009 14/12 A2990 RMK AO2 T01440117
     $=
KSNS 241500Z 28005KT 8SM SCT008 11/08 A3001 RMK AO2 T01110078=
KHHR 241501Z 15005KT 10SM OVC014 17/12 A2991 RMK AO2 T01670117=
KIJD 241501Z AUTO 10SM BKN020 10/05 A3003 RMK AO2 T01000050 $=
KLWM 241501Z 00000KT 10SM OVC019 11/06 A3003 RMK AO2 T01060061=
KPBI 241501Z 18009KT 4SM R10L/2000VP6000FT TSRA BR FEW009 BKN028CB
     BKN045 24/22 A2999 RMK AO2 LTG DSNT SE OCNL LTGICCG N SE-S TS
     N SE-S MOV NE P0009 T02390217 $=
KWVI 241501Z AUTO VRB03KT 7SM OVC004 09/08 A3001 RMK AO2
     T00940083=
