SPUS70 KWBC 241642
SPECI
KORE 241638Z AUTO 29005KT 10SM BKN023 BKN033 OVC043 10/04 A3001
     RMK AO2 T01000044=
KCMX 241638Z AUTO 35009KT 10SM SCT027 03/M04 A3016 RMK AO2
     T00331039=
KFST 241639Z AUTO 13011KT 10SM SCT017 13/07 A3002 RMK AO2
     T01280072 $=
KIZG 241639Z AUTO 12010KT 5SM BR FEW008 BKN015 OVC020 07/06 A3006
     RMK AO2 RAB09E18 P0000 T00720056=
