ASUS44 KLUB 241510
RWRLUB
WEST TEXAS WEATHER ROUNDUP
NATIONAL WEATHER SERVICE LUBBOCK TX
1000 AM CDT MON APR 24 2023

NOTE: "FAIR" INDICATES FEW OR NO CLOUDS BELOW 12,000 FEET WITH NO
SIGNIFICANT WEATHER AND/OR OBSTRUCTIONS TO VISIBILITY.

TXZ004-006>008-010-012-014-016-OKZ002-241600-
TEXAS PANHANDLE/OKLAHOMA PANHANDLE
  
CITY           SKY/WX    TMP DP  RH WIND       PRES   REMARKS
AMARILLO       CLOUDY    45  37  73 S21G26    30.05R                  
BORGER         CLOUDY    49  36  61 SE13G24   30.08S                  
CANADIAN       CLOUDY    48  35  60 S14G24    30.10R                  
DALHART        CLOUDY    47  36  65 S21       30.00F                  
DUMAS          CLOUDY    45  35  69 S20G25    30.03S                  
GUYMON         CLOUDY    47  36  65 S21G28    30.01S                  
HEREFORD       CLOUDY    46  38  75 SW12      30.06R                  
PAMPA            N/A     47  38  72 S17       30.09R                  
PERRYTON       CLOUDY    42  29  61 S18       30.05F                  
$$

TXZ026-029-035-045-048-241600-
SOUTHERN PANHANDLE/SOUTH PLAINS/ROLLING PLAINS
  
CITY           SKY/WX    TMP DP  RH WIND       PRES   REMARKS
CHILDRESS      CLOUDY    49  38  65 S9        30.14F                  
SEMINOLE       CLOUDY    47  45  93 SE15G21   30.09F                  
LUBBOCK        CLOUDY    45  40  82 SE13      30.07S                  
PLAINVIEW      CLOUDY    43  38  82 S15       30.07R                  
SNYDER         CLOUDY    47  44  89 S7        30.13R                  
$$

TXZ052-054-060>062-072-078-127-140-154-169-241600-
PERMIAN BASIN/CONCHO VALLEY/BIG COUNTRY/EDWARDS PLATEAU  
  
CITY           SKY/WX    TMP DP  RH WIND       PRES   REMARKS
ABILENE        CLOUDY    51  44  77 SE6       30.14R                  
BIG SPRING     CLOUDY    48  44  87 E8        30.09F                  
BRADY          CLOUDY    48  46  93 E7        30.12F FOG              
BROWNWOOD      CLOUDY    50  48  93 SE5       30.15S                  
JUNCTION       CLOUDY    51  50  96 E5        30.12F                  
MIDLAND        CLOUDY    46  46 100 SE16      30.08F FOG              
ODESSA         CLOUDY    47  45  93 SE10      30.08F FOG              
SAN ANGELO     CLOUDY    50  49  96 E7        30.11S                  
SONORA         CLOUDY    52  48  87 CALM      30.14F                  
SWEETWATER     CLOUDY    51  51 100 SE8       30.13F                  
$$

TXZ055-058-074-075-080-082-241600-
FAR WEST/SOUTHWEST MOUNTAINS/TRANS PECOS
  
CITY           SKY/WX    TMP DP  RH WIND       PRES   REMARKS
ALPINE         SUNNY     51  40  67 W3        30.10F                  
EL PASO        MOSUNNY   56  36  47 SE7       29.97S                  
FORT STOCKTON  CLOUDY    49  44  83 SE9       30.06F                  
GUADALUPE PASS   N/A    N/A N/A N/A MISG        N/A                   
MARFA          CLOUDY    48  40  73 SE9       30.08S                  
PECOS          CLOUDY    50  43  78 CALM      30.07S                  
PRESIDIO       FAIR      58  45  63 E5        30.05F                  
$$

TXZ014-016-019-021>030-083-241600
TEXAS TECH WEST TEXAS MESONET/TEXAS PANHANDLE/NORTHERN SOUTH PLAINS
  
CITY           SKY/WX    TMP DP  RH WIND       PRES   REMARKS
ABERNATHY 5ENE   N/A     44  41  91 SE15      30.09S                  
AMARILLO 9NNE    N/A     45  37  72 S17       30.07S                  
AMARILLO 7SSE    N/A     45  37  73 S16       30.08S                  
AMHERST 1NE      N/A     43  40  88 S12       30.07R                  
BOOTLEG 11WNW    N/A     42  42 100 S9        30.07F                  
CANADIAN 6E      N/A     48  36  63 S18       30.09S                  
CHILDRESS 2NNE   N/A     50  38  65 S10       30.14F                  
CLARENDON 2WSW   N/A     45  37  73 S16       30.10F                  
CLAUDE 12SW      N/A     44  36  75 SE10      30.07F                  
DIMMITT 2NE      N/A     42  39  88 S15       30.06F                  
FLOYDADA 2NNE    N/A     46  41  82 SE13      30.09F                  
FRIONA 2NE       N/A     43  38  83 S12       30.05S                  
GOODLETT 3W      N/A     51  40  65 S10       30.14F                  
HART 3N          N/A     42  39  88 S9        30.08F                  
HEREFORD 2NW     N/A     43  37  78 S13       30.06S                  
MCLEAN 1E        N/A     45  35  70 S15       30.10R                  
MEMPHIS 1NE      N/A     48  37  65 SE7       30.14S                  
MULESHOE 2SSW    N/A     43  38  84 S12       30.07S                  
OLTON 6S         N/A     44  40  86 S14       30.07F                  
PALO DURO SP     N/A     44  36  72 S15       30.08S                  
PAMPA 2E         N/A     45  36  69 S18       30.10S                  
PLAINVIEW 1S     N/A     44  39  82 SE12      30.09R                  
SILVERTON 7ESE   N/A     46  39  77 S14       30.08S                  
TULIA 2ENE       N/A     45  38  77 S15       30.08S                  
TURKEY 2WSW      N/A     48  40  74 SE14      30.09F                  
UMBARGER 3NNE    N/A     44  38  77 S17       30.06F                  
$$

TXZ033>036-039>041-045>048-241600
TEXAS TECH WEST TEXAS MESONET/SOUTH PLAINS  
  
CITY           SKY/WX    TMP DP  RH WIND       PRES   REMARKS
AIKEN 3WSW       N/A     44  40  88 S17       30.10R                  
ANDREWS 2NE      N/A     48  46  94 SE7       30.07F                  
ANTON 6SSW       N/A     44  41  87 SE14      30.06F                  
BROWNFIELD 2S    N/A     44  43  95 SE16      30.03F                  
DENVR CTY 7WNW   N/A     46  42  86 S16       30.05R                  
GAIL 2ESE        N/A     49  44  84 SE14      30.10F                  
LAMESA 2SE       N/A     47  44  89 S15       30.09S                  
LUBBOCK 3WNW     N/A     45  41  86 S8        30.08F                  
MORTON 1ENE      N/A     44  41  92 S9        30.07S                  
ODONNELL 1N      N/A     46  43  86 S17       30.08R                  
PLAINS 3N        N/A     44  42  91 SE15      30.04F                  
RALLS 1SE        N/A     46  40  80 SE14      30.09S                  
REESE CENTER     N/A     44  41  88 SE10      30.08S                  
SEAGRAVES 1SW    N/A     46  43  90 S16       30.05R                  
SEMINOLE 2NNE    N/A     47  43  88 SE17      30.06F                  
SLATON 2NE       N/A     44  40  86 SE8       30.10R                  
SNYDER 3E        N/A     49  44  84 S9        30.12R                  
SUNDOWN 8SW      N/A     44  42  95 S10       30.07S                  
TAHOKA 3NNE      N/A     45  43  93 SE13      30.07F                  
WOLFFORTH 6SSW   N/A     45  42  89 S12       30.08F                  
$$

TXZ031-032-036>038-042>044-241600-
TEXAS TECH WEST TEXAS MESONET/ROLLING PLAINS 
  
CITY           SKY/WX    TMP DP  RH WIND       PRES   REMARKS
ASPERMONT 3NE    N/A     51  43  72 SE3       30.13F                  
FLUVANNA 3WNW    N/A     46  43  89 SE14      30.10F                  
GRAHAM 5SSW      N/A     45  43  93 S12       30.09R                  
GUTHRIE 10WSW    N/A     49  41  72 SE6       30.12F                  
HASKELL 1NW      N/A     51  43  75 SE6       30.13F                  
JAYTON 1SSE      N/A     50  42  74 SE6       30.12F                  
KNOX CITY 3NW    N/A     51  43  72 SE5       30.14F                  
LK A HENRY 1NW   N/A     48  44  83 S16       30.08F                  
NORTHFIELD 1S    N/A     49  40  72 S9        30.11F                  
ODELL 4ENE       N/A     51  40  66 S8        30.17S                  
PADUCAH 10SW     N/A     49  41  74 S7        30.15F                  
POST 1NE         N/A     47  42  82 SE10      30.09R                  
RRING SPRGS 3N   N/A     47  40  74 SE13      30.11F                  
SEYMOUR 3NW      N/A     51  43  74 S3        30.17R                  
SPUR 1W          N/A     48  41  76 SE6       30.10F                  
WEINERT 2NNE     N/A     51  41  69 SE6       30.15F                  
WHITE RVR 6NE    N/A     46  40  78 SE12      30.08F                  
$$

TXZ052-054-060>062-072-078-127-140-154-169-241600-
TEXAS TECH WEST TEXAS MESONET/PERMIAN BASIN/
CONCHO VALLEY/BIG COUNTRY/EDWARDS PLATEAU
  
CITY           SKY/WX    TMP DP  RH WIND       PRES   REMARKS
COYANOSA 2N      N/A     51  46  83 E12       30.09S                  
JUNCTION 1SSW    N/A     51  49  96 E6        30.13F                  
MERTZON 3NNE     N/A     49  49 100 E6        30.13S                  
SAN ANGELO 7NW   N/A     50  48  94 E8        30.12S                  
STRLNG CT 4WSW   N/A     48  45  89 E7        30.12F                  
ST LAWRNCE 5SW   N/A     48  45  90 SE8       30.11S                  
SWEETWATR 11SW   N/A     50  44  80 SE8       30.13F                  
WALL 1E          N/A     50  49  94 E9        30.13F                  
$$

TXZ055-058-074-075-080-082-241600-
TEXAS TECH WEST TEXAS MESONET/FAR WEST/SOUTHWEST MOUNTAINS/TRANS PECOS
  
CITY           SKY/WX    TMP DP  RH WIND       PRES   REMARKS
PRSMN GAP BBNP   N/A     51  44  76 N14       30.07F                  
GUADLPE MTN NP   N/A     41  37  85 CALM      30.05S                  
$$
  
