FTUS80 KWBC 241457 AAA
TAF AMD
KACT 241456Z 2415/2512 07007KT P6SM SCT100 BKN250
     FM241800 13008KT P6SM BKN040=
KAMA 241456Z 2415/2512 18015KT P6SM BKN016 OVC030
     FM242100 17015G25KT P6SM BKN015
     FM250000 15015KT 6SM -SHRA BKN010 OVC020=
KCLE 241456Z 2415/2518 27009KT P6SM VCSH BKN020
     FM241600 29009KT P6SM VCSH BKN035
     FM250000 VRB03KT P6SM SKC=
KDAL 241456Z 2415/2512 08006KT P6SM BKN090
     FM241600 13008KT P6SM SCT080 BKN200
     FM250500 13009KT P6SM FEW025 OVC040=
KDFW 241456Z 2415/2518 08006KT P6SM BKN090
     FM241600 13008KT P6SM SCT080 BKN200
     FM250500 13009KT P6SM FEW025 OVC040
     FM251200 14011KT P6SM VCSH OVC020=
KFTW 241456Z 2415/2512 11007KT P6SM BKN090
     FM241600 13008KT P6SM SCT080 BKN200
     FM250500 13009KT P6SM FEW025 OVC040=
KSTL 241454Z 2415/2518 15005KT P6SM FEW250
     FM250300 16012KT P6SM SCT120
     FM250800 19005KT P6SM BKN110
     FM251300 25011KT P6SM FEW170=
KVNY 241455Z 2415/2512 17003KT 6SM HZ OVC011
     FM241700 14005KT P6SM SKC
     FM242000 14008KT P6SM SCT250
     FM250100 12010KT P6SM SCT250
     FM250900 12008KT P6SM OVC007=
