FTUS80 KWBC 241506 AAA
TAF AMD
KBHB 241505Z 2415/2512 10012KT P6SM -SHRA OVC010
     FM242100 12009G16KT 5SM -RA OVC009
     FM250500 11009KT 3SM -SHRA BR OVC003=
KEGE 241503Z 2415/2512 VRB04KT P6SM BKN100
     FM241800 25008KT P6SM BKN050
     FM242300 26009KT P6SM VCSH SCT080
     FM250300 33008KT P6SM BKN080=
KMBS 241503Z 2415/2512 28008KT P6SM SCT045 BKN070
     FM242200 28005KT P6SM BKN070
     FM250300 30003KT P6SM FEW100=
