FTUS80 KWBC 241512 AAA
TAF AMD
KDIK 241509Z 2415/2512 12011G18KT P6SM FEW200
     FM241800 13016G26KT P6SM SCT200
     FM250600 12012KT P6SM FEW060 SCT200=
KGLS 241509Z 2415/2512 03015KT P6SM SCT050 BKN060
     FM242300 09013KT P6SM SCT040
     FM250600 11012KT P6SM BKN040=
KHOU 241509Z 2415/2512 04011KT P6SM SCT050 OVC070
     FM241700 07009KT P6SM SCT050
     FM242300 10010KT P6SM SCT050
     FM250600 09005KT P6SM BKN045=
KIAH 241509Z 2415/2518 05010KT P6SM SCT050 BKN080
     FM241700 07010KT P6SM SCT060
     FM250800 09007KT P6SM BKN035=
KPDX 241509Z 2415/2512 23007KT P6SM VCSH SCT025 BKN040
     FM241900 28007KT P6SM VCSH SCT035 BKN060
     FM250000 32007KT P6SM FEW060 SCT120=
KXWA 241509Z 2415/2512 12012G19KT P6SM FEW200
     FM241800 12018G28KT P6SM SCT200
     FM250100 11021G31KT P6SM FEW080 SCT120=
