FTUS80 KWBC 241445 AAA
TAF AMD
KAZO 241444Z 2415/2512 30006KT P6SM VCSH OVC060
     FM241600 29010G18KT P6SM BKN070
     FM250000 VRB03KT P6SM SCT070=
KBTL 241444Z 2415/2512 29006KT P6SM VCSH BKN060
     FM241700 29010G16KT P6SM BKN060
     FM250000 VRB03KT P6SM SCT060=
KFMY 241442Z 2415/2512 10007KT P6SM SCT040 BKN150
     FM241700 21008KT P6SM SCT030 BKN100
     FM242100 25009KT P6SM VCTS SCT035CB BKN200
     FM250200 01007KT P6SM FEW025 SCT040 BKN150
     FM250800 08006KT P6SM SCT025 BKN100=
KRSW 241442Z 2415/2512 10007KT P6SM SCT040 BKN150
     FM241700 22010KT P6SM SCT025 BKN100
     FM242100 24010KT P6SM VCTS SCT035CB BKN200
     FM250200 02006KT P6SM FEW025 SCT040 BKN150
     FM250800 06004KT P6SM SCT025 BKN100=
KSLC 241443Z 2415/2518 19008KT P6SM VCSH SCT060 BKN100
     FM241900 32010KT P6SM VCSH BKN060 BKN100
     FM250200 35012G24KT P6SM VCSH BKN060 BKN100
     FM250600 33008KT P6SM VCSH BKN060 BKN100
     FM251200 34008KT P6SM VCSH BKN035 OVC070=
KTPA 241441Z 2415/2518 10007KT P6SM SCT040 BKN060 BKN100
     FM241700 21007KT P6SM SCT035 BKN080
     FM242000 32010G16KT P6SM VCTS SCT025CB BKN050
     FM250100 04010KT P6SM FEW025 BKN100
     FM250800 06003KT P6SM SCT030 BKN050
     FM251700 21006KT P6SM SCT035 BKN120=
