FTUS80 KWBC 241448 AAA
TAF AMD
KPHX 241445Z 2415/2518 11008KT P6SM FEW250
     FM241700 18008KT P6SM FEW250
     FM242000 26009KT P6SM FEW250
      TEMPO 2421/2501 27011G19KT
     FM250900 09006KT P6SM SKC=
KSAN 241445Z 2415/2518 15006KT P6SM OVC015
     FM241900 20009KT P6SM BKN020
      TEMPO 2419/2423 SCT020
     FM250300 17005KT P6SM OVC012=
