FTUS80 KWBC 241521 AAA
TAF AMD
KABI 241518Z 2415/2512 15005KT P6SM OVC035
      TEMPO 2415/2417 BKN025
     FM241700 15010KT P6SM OVC015
     FM250000 14009KT P6SM OVC040
     FM250700 15009KT P6SM OVC015=
KART 241519Z 2415/2512 25009KT P6SM VCSH BKN070
     FM242200 23011G18KT P6SM FEW200
     FM250000 21008KT P6SM FEW250
     FM250900 18006KT P6SM BKN060
     FM251100 19007KT P6SM SCT080=
KBOI 241519Z 2415/2512 29010KT P6SM BKN025
     FM241800 31015G25KT P6SM VCSH BKN050
     FM250200 31010KT P6SM SCT050=
KBUF 241519Z 2415/2512 23011KT P6SM -SHRA BKN015
     FM241900 25010G16KT P6SM VCSH BKN035
     FM242300 24010KT P6SM BKN060
     FM250800 20006KT P6SM SCT080=
KIAG 241519Z 2415/2512 30007KT 4SM -SHRA BKN035
     FM241900 24009KT 6SM -SHRA BR OVC040
     FM242200 23010KT 6SM -SHRA BR BKN045
     FM250000 23008KT P6SM BKN050
     FM250900 22006KT P6SM SCT050=
KJHW 241519Z 2415/2512 24005KT 6SM -RA BKN020
     FM241800 29011G17KT P6SM OVC020
     FM242200 28012KT P6SM SCT080
     FM250800 21005KT P6SM SCT070=
KMYL 241519Z 2415/2512 VRB04KT 6SM -RA BKN015
      TEMPO 2416/2420 5SM -SHRASN OVC007
     FM242000 31008KT P6SM VCSH BKN035
     FM250300 35005KT P6SM SCT050=
KROC 241519Z 2415/2512 26010KT P6SM VCSH SCT035 BKN060
      TEMPO 2415/2418 6SM -SHRA OVC035
     FM250200 24008KT P6SM BKN050
     FM250800 21006KT P6SM SCT070
     FM251100 21007KT P6SM SCT090=
