FTUS80 KWBC 241518 AAA
TAF AMD
KAUS 241516Z 2415/2518 02008KT P6SM FEW015 OVC030
      TEMPO 2415/2417 OVC035
     FM242000 10007KT P6SM OVC035
     FM250700 14004KT P6SM OVC015=
KEYW 241517Z 2415/2512 13006KT P6SM FEW020 SCT030=
KMLB 241515Z 2415/2512 10011KT P6SM TS SCT030CB BKN050
      TEMPO 2415/2416 3SM TSRA BKN020CB BKN040
     FM241900 08012G18KT P6SM VCTS SCT025CB BKN040
      TEMPO 2422/2502 3SM TSRA BR BKN025CB OVC040
     FM250300 06008KT P6SM VCSH BKN025 BKN050
     FM250500 05005KT P6SM SCT025 BKN050=
