FTUS80 KWBC 241533 AAA
TAF AMD
KOTH 241531Z 2416/2512 20005KT P6SM -SHRA BKN015 OVC035
     FM241800 32007KT P6SM SCT050
     FM250000 35013KT P6SM SCT200=
