FTUS80 KWBC 241500 AAA
TAF AMD
KAPF 241456Z 2415/2512 13007KT P6SM FEW030 SCT050 BKN250
     FM241700 22010KT P6SM VCSH SCT030 SCT060 BKN200
     FM250000 VRB04KT P6SM VCSH FEW030 SCT050 BKN200=
KCMI 241457Z 2415/2512 25010G15KT P6SM FEW070
     FM241700 28010KT P6SM SCT080
     FM250100 15004KT P6SM VCSH BKN040=
KDET 241457Z 2415/2512 30010KT P6SM SCT025 BKN045 OVC070
      TEMPO 2415/2419 6SM -RA BKN025 OVC045
     FM250000 29005KT P6SM BKN070
     FM250500 30003KT P6SM FEW100=
KDHT 241457Z 2415/2512 19014KT P6SM OVC019
     FM241800 20019KT P6SM SCT013 BKN030
     FM250100 15011KT 6SM -SHRA BR BKN023 BKN050
     FM251100 18006KT P6SM SCT004 BKN015=
KDTW 241457Z 2415/2518 30013KT P6SM SCT025 BKN045 OVC070
      TEMPO 2415/2419 6SM -RA BKN025 OVC045
     FM250000 29005KT P6SM BKN070
     FM250500 30003KT P6SM FEW100
     FM251400 28006KT P6SM BKN070=
KERI 241459Z 2415/2512 29007KT P6SM -SHRA OVC009
     FM241600 28009KT P6SM VCSH BKN020
     FM241900 29009KT P6SM VCSH OVC050
     FM250300 VRB03KT P6SM SKC=
KFLL 241456Z 2415/2518 13009KT P6SM VCSH SCT030 SCT050 BKN250
      TEMPO 2415/2418 TS SCT030CB BKN050
     FM241800 14011KT P6SM VCTS SCT025CB BKN045
     FM250100 13006KT P6SM VCSH SCT025 BKN070
     FM251200 14008KT P6SM VCSH SCT025 BKN060=
