SAUS70 KWBC 241500 RRD
METAR
KORS 241455Z AUTO 17003KT 10SM BKN050 OVC065 07/07 A3003 RMK
     AO2=
KOSC 241455Z AUTO 29010KT 10SM SCT036 OVC046 05/M03 A3010 RMK AO2
     T00541032=
KOYM 241455Z AUTO 00000KT 10SM SCT012 BKN050 OVC090 03/01 A3009
     RMK AO2 P0001 PWINO=
KOZS 241455Z AUTO 14006KT 10SM CLR 11/M04 A3022 RMK AO2=
KPAN 241455Z AUTO 00000KT 10SM CLR 16/M03 A2998 RMK AO2 PWINO
     TSNO=
KPBF 241453Z AUTO 04007KT 10SM CLR 14/07 A3022 RMK AO2 SLP232
     T01440067 51008=
KPEX 241455Z AUTO 01004KT 10SM CLR 01/M00 A3016 RMK AO2 P0001=
KPHF 241454Z 35006KT 10SM OVC055 11/06 A3013 RMK AO2 SLP202
     T01110056 51008=
KPHL 241454Z 27007KT 10SM FEW050 11/M02 A3008 RMK AO2 SLP187
     T01111022 56005=
KPJC 241455Z AUTO 27010G14KT 10SM SCT027 BKN035 BKN060 06/00 A3012
     RMK AO2=
KPLR 241455Z AUTO 07008G14KT 10SM SCT110 13/02 A3019 RMK A01=
KPLU 241455Z AUTO 22004KT 10SM FEW010 SCT019 BKN050 08/07 A3008
     RMK AO2=
KPNE 241454Z VRB06KT 10SM CLR 13/01 A3009 RMK AO2 SLP188 T01280006
     58003=
KPNM 241455Z AUTO 32004KT 10SM CLR 06/M04 A3015 RMK AO2=
KPTD 241455Z AUTO 22006KT 6SM -RA FEW009 SCT014 BKN020 06/05 A3003
     RMK AO2 P0001=
KPTW 241454Z AUTO VRB05KT 10SM CLR 10/M02 A3010 RMK AO2 SLP189
     T01001017 58003=
KPVG 241455Z 10SM FEW024 OVC047 12/06 A3013 RMK AO2 SLP301 52010
     PWINO FZRANO RVRNO=
KPWC 241455Z AUTO 01007KT 10SM CLR 03/M07 A3018 RMK AO2=
KRBL 241454Z AUTO 31006KT 10SM CLR 13/01 A2997 RMK AO2 SLP144
     T01330011 53020=
KRCE 241455Z AUTO 19013G19KT 10SM BKN085 13/03 A3016 RMK AO2=
KRDG 241454Z 34005KT 10SM FEW046 12/00 A3008 RMK AO2 SLP191
     T01170000 56006=
KRGK 241455Z AUTO 00000KT 10SM BKN049 05/M03 A3015 RMK AO2=
KRMN 241455Z AUTO 33004KT 10SM CLR 15/01 A3013 RMK AO2
     T01530005=
KDTL 241455Z AUTO 02005KT 10SM CLR 02/M03 A3015 RMK AO2=
KDUH 241455Z AUTO 27006KT 10SM SCT027 BKN032 OVC070 05/M02 A3018
     RMK AO2 T00501016=
KDYB 241455Z AUTO 02007KT 9SM CLR 20/05 A3010 RMK AO2=
KDYL 241454Z AUTO VRB04KT 10SM CLR 12/M01 A3006 RMK AO2 SLP182
     T01221011 58005=
KDYT 241455Z AUTO 05012KT 10SM BKN055 OVC065 02/M01 A3018 RMK
     AO2=
KECG 241454Z 02012KT 10SM OVC034 12/04 A3011 RMK AO2 SLP195
     T01220044 53012=
KEDJ 241455Z AUTO 33006KT 10SM 04/00 A3020 RMK A01=
KEFK 241455Z AUTO 00000KT 10SM BKN010 BKN014 OVC022 07/05 A3002
     RMK AO2 T00710052=
KEKM 241455Z 26008KT 10SM OVC070 06/00 A3020 RMK AO2 T00630001
     $=
KELK 241455Z AUTO 19012KT 10SM OVC050 09/02 A3014 RMK AO2 SLP487
     T00920016 $=
KELO 241455Z AUTO 00000KT 10SM CLR 00/M06 A3016 RMK AO2=
KEUG 241454Z 18006KT 10SM FEW016 SCT025 BKN032 09/07 A3016 RMK AO2
     SLP212 T00890067 53018=
KEVU 241455Z AUTO 19013G16KT 10SM BKN100 11/00 A3010 RMK AO2
     T01160001=
KEVV 241454Z 00000KT 10SM CLR 09/M04 A3027 RMK AO2 SLP253
     T00941044 51007 $=
KEWN 241454Z 36011KT 10SM BKN090 14/09 A3010 RMK AO2 SLP192 60000
     T01390089 53016=
KFBL 241455Z AUTO 00000KT 10SM OVC060 05/M01 A3015 RMK AO2=
KFFM 241455Z AUTO 07004KT 10SM CLR 03/M02 A3015 RMK AO2=
KFFZ 241454Z 14009KT 10SM CLR 24/M03 A2980 RMK AO2 SLP067
     T02391033 51013=
KFGN 241455Z AUTO 00000KT 10SM CLR 00/M06 A3018 RMK AO2=
KFIG 241454Z AUTO 25009G15KT 10SM SCT032 SCT041 BKN055 06/M02
     A3007 RMK AO2 SLP193 T00611022 55001=
KFSE 241455Z AUTO 36004KT 10SM CLR 00/M03 A3017 RMK AO2=
KFWB 241455Z AUTO 12006G11KT 10SM CLR 12/M02 A3021 RMK AO2=
KFYG 241455Z AUTO 16006KT 10SM CLR 10/M01 A3025 RMK AO2=
KGCK 241454Z 18018G25KT 10SM FEW120 10/M01 A3001 RMK AO2 SLP158
     T01001006 50002=
KGCN 241454Z VRB03KT 10SM CLR 12/02 A3000 RMK AO2 SLP095 T01170017
     51002=
