SAUS70 KWBC 241500 RRU
METAR
KEBS 241455Z AUTO 20010KT 10SM CLR 09/M04 A3012 RMK AO2=
KGGF 241455Z AUTO 20008KT 10SM CLR 10/M02 A2992 RMK AO2=
KHJH 241455Z AUTO 23012KT 10SM CLR 13/M02 A3005 RMK AO2
     T01301020=
KISP 241456Z 35006KT 10SM SCT028 SCT080 SCT110 12/03 A3004 RMK AO2
     SLP173 T01220033 50005=
KLNN 241455Z AUTO 31009KT 10SM SCT027 BKN036 OVC049 05/M01 A3015
     RMK AO1 T00481009=
KLXN 241455Z AUTO 21010KT 10SM CLR 12/M01 A2998 RMK AO2
     T01231010=
KMPZ 241455Z AUTO 22007KT 10SM CLR 09/M03 A3021 RMK AO2=
KMZZ 241455Z AUTO 29003KT 10SM SCT034 05/M02 A3023 RMK AO2
     T00521019=
KOGS 241455Z AUTO 28005KT 9SM OVC028 06/04 A3002 RMK AO2=
KONL 241455Z AUTO 08013KT 10SM CLR 09/M05 A3004 RMK AO2
     T00911051=
KPPQ 241455Z AUTO 00000KT 10SM CLR 10/M01 A3024 RMK AO2
     T01031011=
KPRG 241455Z AUTO 28008KT 10SM CLR 08/00 A3027 RMK AO2
     T00810000=
KRVL 241455Z AUTO 20007KT 10SM SCT040 SCT046 SCT110 10/00 A3008
     RMK AO2=
KRYM 241455Z AUTO 06005KT 10SM CLR 04/M06 A3013 RMK AO2 SLP218
     T00421058 50005=
KSLO 241455Z AUTO 00000KT 10SM CLR 10/M01 A3026 RMK AO2
     T01031009=
KTNU 241455Z AUTO 20008KT 10SM CLR 08/M01 A3015 RMK A01=
K2G9 241455Z AUTO 29007KT 10SM SCT034 BKN039 OVC050 02/M03 A3009
     RMK AO2=
KGGP 241455Z AUTO 29009KT 10SM SCT045 07/M03 A3023 RMK AO2=
KIKK 241455Z AUTO 28012KT 10SM CLR 08/M04 A3023 RMK AO2 T00821040
     PWINO=
KLOM 241455Z AUTO 27004KT 10SM CLR 11/00 A3009 RMK AO2
     T01100002=
KLRJ 241455Z AUTO 14006KT 10SM BKN100 09/M01 A3009 RMK AO2=
KMGC 241455Z AUTO 31009KT 10SM SCT075 06/M01 A3022 RMK AO2=
KMLE 241455Z AUTO 12004KT 10SM SCT090 09/M01 A3008 RMK AO2
     T00871006=
KMUT 241455Z AUTO 22008KT 10SM CLR 10/M04 A3022 RMK AO2=
KMWO 241455Z AUTO 28006KT 10SM BKN041 OVC048 06/M04 A3023 RMK AO2
     T00561037=
KOGA 241455Z AUTO 00000KT 10SM CLR 08/M04 A2993 RMK AO2
     T00831039=
KOLZ 241455Z AUTO 23008G15KT 10SM CLR 07/M03 A3017 RMK A01=
KOXI 241455Z AUTO 30009G15KT 10SM CLR 07/M05 A3021 RMK AO1=
KOXV 241455Z AUTO 18009KT 10SM FEW080 09/M04 A3016 RMK AO2=
KPEA 241455Z AUTO 19007KT 10SM BKN065 BKN085 10/M03 A3017 RMK AO2
     T01001032=
KPMV 241455Z AUTO 19010KT 10SM SCT070 BKN100 09/M01 A3007 RMK AO2
     T00931006=
KPPO 241455Z AUTO 32008KT 10SM SCT070 07/00 A3021 RMK AO2
     T00670000=
KRCR 241455Z AUTO 26008KT 10SM FEW044 OVC060 07/M03 A3021 RMK
     AO2=
KRPJ 241455Z AUTO 28007KT 10SM CLR 07/M01 A3022 RMK AO2 T00681014
     TSNO=
KSDA 241455Z AUTO 19010KT 10SM CLR 11/M01 A3008 RMK AO2=
KSLB 241455Z AUTO 17009KT 10SM CLR 09/M03 A3011 RMK AO2=
K7BM 241455Z AUTO 00000KT 10SM CLR 03/M07 A3000 RMK AO2=
KCPW 241455Z AUTO 22017G23KT M1/4SM SN OVC001 M05/M05 A3010 RMK
     AO2 P0002=
KCZT 241455Z AUTO 10SM OVC012 13/12 A3008 RMK AO2=
KGCD 241455Z AUTO 25008KT 10SM BKN041 BKN050 OVC065 04/00 A2998
     RMK AO2 T00401004=
KGVT 241455Z AUTO 11008KT 10SM BKN110 13/04 A3018 RMK AO2 TSNO
     T01300039=
KLLN 241455Z AUTO 15008G14KT 6SM BR OVC005 06/05 A3007 RMK AO2=
KLMO 241455Z AUTO 19003KT 10SM CLR 08/M01 A2994 RMK AO2
     T00761007=
KMNZ 241455Z AUTO 10004KT 10SM OVC070 11/09 A3015 RMK AO2
     T01110089=
KORG 241455Z AUTO 04006KT 10SM OVC085 16/09 A3013 RMK AO2
     T01580088=
KPNA 241455Z AUTO 33004KT 10SM CLR M01/M06 A2994 RMK AO2=
KPOY 241455Z AUTO 14005KT 10SM CLR 09/M08 A2980 RMK AO2=
KRAS 241455Z AUTO 02016KT 10SM SCT014 17/13 A3005 RMK AO2
     T01720134=
KS33 241455Z AUTO 28003KT 10SM BKN037 OVC044 A3006 RMK AO2=
KSBP 241456Z 30008KT 10SM CLR 11/09 A2995 RMK AO2 SLP142 T01060089
     53006=
