SAUS70 KWBC 241500 RRF
METAR
KD55 241455Z AUTO 01004KT 10SM OVC041 01/M01 A3018 RMK AO2=
KDWH 241453Z 05006KT 10SM OVC080 15/09 A3011 RMK AO2 RAE1355
     SLP194 P0000 60000 T01500089 51014=
KDXR 241453Z VRB03KT 10SM BKN038 12/02 A3005 RMK AO2 SLP176
     T01170017 51004=
KDXX 241455Z AUTO 03006KT 10SM SCT070 05/M01 A3018 RMK AO2=
KDYA 241455Z AUTO 02007KT 10SM BKN100 13/05 A3017 RMK AO2
     T01320052=
KECP 241453Z 02014G22KT 10SM CLR 20/08 A3005 RMK AO1 SLP189
     T02000078 51012=
KEEO 241453Z AUTO 00000KT 10SM BKN075 BKN085 04/M03 A2995 RMK AO2
     SLP121 T00441028 58000=
KEET 241453Z AUTO VRB06KT 10SM BKN110 14/02 A3017 RMK AO2 SLP213
     T01390022 51006=
KELD 241453Z AUTO 07006KT 10SM BKN110 14/06 A3019 RMK AO2 SLP223
     T01390056 51008=
KELM 241453Z 25004KT 10SM FEW046 BKN100 09/03 A3005 RMK AO2 SLP180
     T00940028 56004=
KELN 241453Z AUTO 29015G22KT 10SM SCT110 08/02 A2994 RMK AO2
     SLP142 T00780017 53019=
KENW 241453Z 30008KT 10SM SCT055 08/M05 A3018 RMK AO2 SLP224
     T00781050 51006=
KEPH 241453Z AUTO 27007KT 10SM OVC065 10/01 A2989 RMK AO2 SLP125
     T01000006 53019=
KEQY 241453Z AUTO 01008KT 10SM CLR 14/02 A3013 RMK AO2 SLP212
     T01390017 51009=
KESF 241453Z AUTO VRB06KT 10SM BKN095 BKN110 15/06 A3014 RMK AO2
     SLP204 T01500056 51009=
KEVW 241453Z AUTO 19005KT 10SM SCT055 BKN070 01/M04 A2992 RMK AO2
     SLP120 T00111039 58002=
KEWB 241453Z 30003KT 10SM OVC015 10/07 A3002 RMK AO2 SLP165
     T01000072 51003=
KEYE 241453Z AUTO VRB03KT 10SM CLR 07/M03 A3023 RMK AO2 SLP241
     T00671033 51009 $=
KEYW 241453Z VRB04KT 10SM CLR 27/22 A2996 RMK AO2 SLP152 T02720222
     51012=
KEZS 241455Z AUTO 04004KT 10SM CLR 05/00 A3016 RMK AO2
     T00490003=
KFAY 241453Z 03008KT 10SM FEW075 OVC095 12/02 A3014 RMK AO2 SLP199
     T01170017 51022=
KFCM 241453Z VRB05KT 10SM SCT024 BKN030 06/M02 A3014 RMK AO2
     SLP214 T00561022 51002=
KFDR 241453Z AUTO 18009KT 10SM BKN050 OVC065 12/04 A3013 RMK AO2
     SLP200 T01170044 51006=
KFDW 241455Z AUTO 03008KT 10SM OVC075 12/03 A3014 RMK AO1=
KFDY 241453Z AUTO 28010KT 10SM FEW026 BKN048 OVC060 06/M01 A3017
     RMK AO2 SLP219 60000 T00611006 51007=
KFFC 241453Z AUTO 01004KT 10SM BKN110 13/02 A3016 RMK AO2 SLP213
     T01330017 51014=
KFFT 241453Z AUTO 28009G20KT 10SM CLR 07/M04 A3023 RMK AO2 SLP239
     T00721044 53009=
KFHR 241453Z AUTO 00000KT 10SM OVC048 07/05 A3005 RMK AO2 SLP175
     T00720050 52029=
KGIF 241453Z AUTO 08009KT 10SM FEW100 25/19 A3001 RMK AO2 SLP159
     T02500194 50012=
KGJT 241453Z 13007KT 10SM BKN070 10/00 A2992 RMK AO2 SLP101
     T01000000 50002=
KGKJ 241453Z AUTO 30006KT 10SM SCT009 BKN013 OVC035 03/01 A3009
     RMK AO2 UPB01E05SNE01 SLP198 P0000 60000 T00330006 53007=
KGKY 241453Z 07006KT 10SM OVC070 13/03 A3017 RMK AO2 SLP212
     T01280028 51005=
KGLD 241453Z AUTO 18013KT 10SM BKN095 10/01 A2993 RMK AO2 SLP131
     T01000011 50006=
KGLH 241453Z 05011KT 10SM CLR 14/05 A3019 RMK AO2 SLP231 T01440050
     50007=
KGMU 241453Z 03011KT 10SM CLR 14/01 A3014 RMK AO2 SLP204 T01440006
     51010=
KGNV 241453Z 04008KT 10SM CLR 23/17 A3007 RMK AO2 SLP179 T02330172
     50016=
KGOK 241453Z AUTO 17013KT 10SM BKN090 13/01 A3014 RMK AO2 SLP207
     T01330006 51005 $=
KGPH 241455Z AUTO 18006KT 10SM 09/M01 A3017 RMK AO2=
KGPT 241453Z 05008KT 10SM BKN100 BKN120 17/08 A3009 RMK AO2 SLP187
     T01720083 53014=
KGRB 241453Z 00000KT 10SM CLR 06/M03 A3016 RMK AO2 SLP219
     T00611028 51008=
KGRI 241453Z 21004KT 10SM FEW110 10/M03 A3002 RMK AO2 SLP177
     T01001033 50006=
