SAUS70 KWBC 241500 RRX
METAR
KGZN 241500Z AUTO 14009KT 10SM FEW011 BKN050 OVC070 10/07 A3012
     RMK AO2=
KMHV 241500Z AUTO 30025G31KT 10SM CLR 18/07 A2988 RMK AO2=
KGZN 241500Z AUTO 14009KT 10SM FEW011 BKN050 OVC070 10/07 A3012
     RMK AO2=
KMHV 241500Z AUTO 30025G31KT 10SM CLR 18/07 A2988 RMK AO2=
