SAUS70 KWBC 241500 RRD
METAR
KOSC 241455Z AUTO 29010KT 10SM SCT036 OVC046 05/M03 A3010 RMK AO2
     T00541032=
KSGH 241456Z AUTO 29010KT 10SM SCT027 SCT034 OVC050 06/M01 A3019
     RMK AO2 SLP233 T00561011 53007=
K6S8 241455Z AUTO 00000KT 10SM 07/M01 A2982 RMK A01 Laurel=
