SAUS80 KWBC 241444
METAR
PHMK 241435Z AUTO 00000KT 10SM FEW017 SCT022 BKN034 21/19 A2999
     RMK AO2 T02110194 TSNO /=
KDVK 241430Z AUTO 00000KT 10SM CLR 08/M01 A3024 RMK AO2=
