SAUS70 KWBC 241500 RRM
METAR
KTBR 241455Z AUTO 03007KT 10SM SCT100 20/05 A3010 RMK AO2
     T01970049 PWINO=
KTEX 241455Z AUTO 00000KT 10SM SCT025 SCT030 OVC043 01/M01 A3004
     RMK AO2 P0001=
KTIF 241455Z AUTO 11008KT 10SM CLR 08/M06 A2998 RMK AO2
     T00771060=
KTNB 241455Z AUTO 28012G20KT 10SM CLR 07/M06 A3012 RMK AO2
     T00731065=
KTOC 241455Z AUTO 12006KT 10SM CLR 15/01 A3014 RMK AO2
     T01490013=
KTQK 241455Z AUTO 19020KT 10SM BKN090 11/02 A3000 RMK AO2
     T01090017=
KTVI 241455Z AUTO 06008KT 10SM SCT120 17/08 A3010 RMK AO2=
KTVK 241455Z AUTO 15008KT 10SM FEW065 SCT080 SCT100 09/M04 A3019
     RMK AO2=
KTXW 241455Z AUTO 01014KT 10SM OVC010 18/15 A3003 RMK AO2
     T01770148=
KTYQ 241455Z AUTO 26007KT 10SM CLR 06/M03 A3024 RMK AO2
     T00561029=
KUNI 241455Z AUTO 27008KT 5SM HZ BKN048 BKN060 09/M03 A3018 RMK
     AO2 T00901033=
KVHN 241455Z AUTO 07005KT 10SM CLR 09/03 A3008 RMK AO2
     T00880032=
KVPC 241455Z AUTO 02008KT 330V040 10SM CLR 13/00 A3019 RMK AO2=
KVWU 241455Z AUTO 00000KT 10SM CLR 02/M02 A3016 RMK AO2=
KVYS 241455Z AUTO 26008KT 10SM CLR 09/M05 A3023 RMK AO2
     T00901046=
KW22 241455Z AUTO VRB06G12KT 10SM 09/M07 A3015 RMK AO2=
KW43 241455Z AUTO 00000KT 10SM CLR 05/M03 A2989 RMK AO2=
KWDR 241455Z AUTO 00000KT 10SM SCT080 12/00 A3017 RMK AO2=
KWWR 241455Z AUTO 19020G24KT 10SM OVC060 11/00 A3013 RMK AO2=
KXLL 241455Z AUTO 28006KT 10SM CLR 10/00 A3009 RMK AO2=
KZER 241455Z AUTO 29008KT 10SM SCT035 BKN041 BKN049 07/M01 A3006
     RMK AO2=
KZPH 241455Z AUTO 08007KT 10SM SCT080 SCT110 25/20 A3000 RMK A02
     T02460198=
PANA 241456Z AUTO 02009KT 10SM CLR M09/M13 A2990 RMK AO2 SLP125
     T10891133 56019 FZRANO TSNO $=
KUMP 241455Z AUTO 33005KT 7SM CLR 08/M02 A3024 RMK AO2
     T00771019=
KCIC 241447Z 32004KT 10SM CLR 14/02 A2996=
KOWX 241455Z AUTO 29007KT 10SM SCT026 BKN047 OVC065 06/M01 A3021
     RMK AO1=
KRZT 241455Z AUTO 28004KT 10SM SCT041 BKN049 OVC060 06/M03 A3021
     RMK AO2 PWINO=
KSUN 241455Z 29003KT 10SM SCT029 SCT120 06/02 A2986=
KANE 241445Z 00000KT 10SM SCT034 BKN043 05/M01 A3014=
KDDH 241454Z AUTO 23006KT 10SM OVC016 06/03 A3003 RMK AO2 SLP173
     T00610028 53006=
KMLP 241453Z AUTO 00000KT 1/4SM -SN FZFG VV003 M02/M02 A2983 RMK
     AO2 SLP071 P0002 60005 T10221022 53010=
KJES 241455Z AUTO 04003KT 10SM OVC110 20/08 A3013 RMK AO2=
KJKA 241458Z 15012G18KT 10SM FEW120 18/09 A3007=
KK82 241455Z AUTO 22017G20KT 10SM CLR 14/M03 A3003 RMK AO2
     T01421032=
KLUV 241455Z AUTO 16016KT 10SM OVC007 08/07 A3008 RMK AO2=
KMNE 241455Z AUTO 09008KT 10SM CLR 15/06 A3018 RMK AO2=
KMYZ 241455Z AUTO 22004KT 10SM SCT110 12/00 A3008 RMK AO2=
KOOA 241455Z AUTO 21008KT 10SM SCT075 11/M02 A3019 RMK AO2
     T01061025=
KOPN 241455Z AUTO 04005KT 10SM SCT100 OVC120 13/01 A3016 RMK
     AO2=
KOZA 241455Z AUTO 10SM OVC006 10/08 A3011 RMK AO2=
KPIM 241455Z AUTO 02004KT 10SM BKN090 OVC120 13/02 A3015 RMK AO2
     T01260024=
KPTT 241455Z AUTO 21009KT 10SM SCT100 10/M02 A3010 RMK AO2
     T01031024=
KPVW 241455Z AUTO 17013KT 10SM OVC010 06/03 A3007 RMK AO2
     T00610032=
KPXE 241455Z AUTO 02006KT 10SM BKN110 15/04 A3014 RMK AO2
     T01530037=
KRQO 241455Z AUTO 18014G18KT OVC085 12/03 A3017 RMK AO2 PWINO
     T01200031=
KRWV 241455Z AUTO 01004KT 10SM BKN044 OVC065 13/08 A3013 RMK AO2
     T01270081=
KRYN 241445Z 100KT 05 10SM CLR 23/M06 A2986=
KSBO 241455Z AUTO 07005KT 10SM BKN120 19/06 A3013 RMK AO2=
KSZT 241455Z AUTO 22004KT 10SM SCT010 BKN019 OVC023 06/04 A2988
     RMK AO2=
KT20 241455Z AUTO 03004KT 10SM BKN022 OVC035 15/11 A3010 RMK AO2
     60001 T01480108=
