SAUS70 KWBC 241500 RRR
METAR
KP08 241455Z AUTO 20003KT 10SM CLR 24/M05 A2983 RMK AO2=
KVTP 241455Z AUTO 27009KT 10SM SCT100 SCT120 00/M06 A3002 RMK
     AO2=
K06C 241455Z AUTO 25006KT 10SM SCT060 07/M01 A3020 RMK AO2
     T00691009=
K1H2 241455Z AUTO 00000KT 10SM CLR 09/M02 A3027 RMK AO2
     T00911024=
K2G2 241455Z AUTO 29010G15KT 10SM BKN027 BKN040 BKN065 05/M00
     A3012 RMK A01=
K2G4 241455Z AUTO 27011G18KT 10SM OVC036 02/M07 A3007 RMK AO2=
KAIO 241455Z AUTO 18008KT 10SM CLR 09/M01 A3009 RMK AO2=
KASW 241455Z AUTO 26006G14KT 10SM SCT034 SCT040 BKN046 06/M01
     A3021 RMK AO2 T00591015=
KBJJ 241456Z AUTO 33009KT 10SM -RA BKN009 BKN012 OVC039 03/02
     A3015 RMK AO2 UPB06E09RAB18SNE06B09E18 SLP219 P0000 60000
     T00280017 53008=
KBVN 241455Z AUTO 12008KT BKN120 08/M03 A3004 RMK AO2
     T00771033=
KC65 241455Z AUTO 29009KT 10SM BKN060 06/M02 A3020 RMK A01=
KCAV 241455Z AUTO 23009KT 10SM CLR 08/M01 A3014 RMK A01=
KCCY 241455Z AUTO 23005KT 10SM BKN075 OVC085 06/M01 A3015 RMK
     AO2=
KMNM 241457Z AUTO 00000KT 10SM FEW049 SCT060 BKN085 03/M04 A3018
     RMK AO2 SLP241 6//// T00281039 50006 PNO $=
KMZH 241455Z AUTO 00000KT 10SM SCT065 03/M03 A3015 RMK AO2=
KOEB 241455Z AUTO 28009KT 10SM SCT027 BKN047 OVC060 05/M01 A3017
     RMK AO2 T00491013=
KOLG 241455Z AUTO 35005KT 10SM BKN037 BKN050 04/M06 A3013 RMK
     AO1=
KUYF 241455Z AUTO 24007KT 10SM SCT042 BKN050 06/M06 A3017 RMK
     AO2=
KVPZ 241456Z AUTO 30009KT 10SM BKN075 07/M05 A3021 RMK AO2 SLP234
     T00721050 51004=
K0A0 241455Z AUTO 16009KT 10SM CLR 16/M00 A2997 RMK AO2=
K1V6 241455Z AUTO 29011KT 10SM SCT120 10/00 A2990 RMK AO2=
K20V 241455Z AUTO 00000KT 10SM BKN065 00/M03 A3001 RMK AO2=
K2R9 241455Z AUTO 04008KT 10SM SCT015 OVC080 15/11 A3010 RMK AO2
     T01500113=
K3S8 241455Z AUTO 00000KT 10SM OVC043 07/04 A3017 RMK AO2=
K4S2 241455Z AUTO 00000KT 10SM -RA SCT011 SCT022 OVC029 07/06
     A3007 RMK AO2 P0001=
K5C1 241455Z AUTO 00000KT 7SM OVC011 11/11 A3011 RMK AO1=
K5SM 241455Z AUTO 00000KT 10SM CLR M02/M08 A3007 RMK AO2=
K65S 241455Z AUTO 19008G14KT 160V220 10SM BKN048 06/04 A2984 RMK
     AO2=
KAQO 241455Z AUTO 04007KT 10SM OVC012 11/08 A3013 RMK AO2=
KAXX 241455Z AUTO 26016G23KT 10SM CLR 08/M04 A2998 RMK AO2
     T00821044=
KBBD 241455Z AUTO 07006KT 4SM BR OVC005 09/08 A3012 RMK AO2=
KBDU 241455Z AUTO 00000KT 10SM CLR 06/M02 A2991 RMK AO2=
KCIC 241455Z AUTO 32003KT 10SM CLR 13/02 A2996 RMK AO1=
KPEZ 241455Z AUTO 05010KT 10SM SCT014 OVC075 15/11 A3009 RMK AO2
     T01500113=
KRCV 241455Z AUTO 29003KT 10SM -DZ SCT035 OVC044 03/00 A3000 RMK
     AO2 T00280003=
KC83 241455Z AUTO 24014KT 9SM CLR 14/05 A2994 RMK AO2=
KCEC 241456Z AUTO 04006KT 3SM BR OVC049 10/08 A3016 RMK AO2 SLP215
     T01000078 53008=
KCTB 241456Z AUTO 10004KT 10SM SCT070 BKN090 07/01 A2974 RMK AO2
     SLP077 T00670011 51004=
KE38 241455Z AUTO 28003KT 10SM CLR 10/05 A3010 RMK AO2
     T01030045=
KE42 241455Z AUTO 16015G21KT 10SM OVC030 07/01 A3006 RMK AO2
     T00730011=
KEED 241456Z AUTO 03003KT 10SM CLR 25/02 A2977 RMK AO2 SLP052
     T02500017 51022=
KF00 241455Z AUTO 10006KT 10SM BKN100 13/05 A3019 RMK AO2
     T01320049=
KF44 241455Z AUTO 07004KT 10SM OVC095 11/05 A3015 RMK AO2=
KHCR 241455Z AUTO 00000KT 10SM BKN090 02/M01 A2992 RMK AO2=
KHEQ 241455Z AUTO 18004KT 10SM CLR 11/M01 A2992 RMK AO2=
KHOB 241450Z 14011G17KT 10SM BKN009 OVC012 08/06 A3005=
KINJ 241455Z AUTO 06006KT 10SM OVC090 11/06 A3016 RMK AO2
     T01100061=
KJWY 241455Z AUTO 07004KT 10SM BKN100 11/06 A3019 RMK AO2
     T01140058=
KLAM 241455Z AUTO VRB05KT 10SM CLR 10/M01 A2999 RMK AO2 T01031009
     $=
