SAUS70 KWBC 241500 RRA
METAR
KMPV 241451Z AUTO 00000KT 4SM -RA BR SCT008 OVC013 07/05 A3003 RMK
     AO2 RAB18 SLP179 P0000 60000 T00670050 53000=
KMTN 241453Z 27008KT 10SM BKN050 12/00 A3012=
KORD 241451Z 28005KT 10SM FEW050 SCT070 07/M06 A3019 RMK AO2
     SLP229 T00671056 51006=
KPHX 241451Z 10008KT 10SM FEW100 FEW250 22/02 A2978 RMK AO2 SLP065
     T02220017 51015=
KPPF 241452Z AUTO 22011KT 10SM CLR 13/00 A3019 RMK AO2 SLP222
     T01280000 51007=
KPWM 241451Z 09014KT 1 1/4SM -RA BR OVC004 06/06 A3007 RMK AO2
     SLP182 P0004 60011 T00610061 53005=
KRDU 241451Z 04010G16KT 10SM FEW050 SCT170 SCT250 13/00 A3014 RMK
     AO2 SLP206 T01330000 51008=
K1S5 241455Z AUTO 02003KT 10SM CLR 08/04 A2998 RMK AO2
     T00780044=
KBEA 241455Z AUTO 04012G16KT 10SM BKN080 15/13 A3005 RMK AO2
     T01480125 PWINO=
KBJC 241447Z 00000KT 10SM BKN100 07/M03 A2993=
KCHD 241447Z 00000KT 10SM CLR 22/00 A2980=
KGEU 241448Z 06004KT 10SM FEW250 24/00 A2978=
KHQZ 241450Z 10006KT 10SM OVC100 13/07 A3018=
KIFP 241448Z 36010KT 10SM CLR 24/03 A2975=
KIWA 241448Z 11009KT 10SM CLR 22/M01 A2982=
KSEE 241447Z 00000KT 9SM OVC014 14/11 A2991=
KTRK 241449Z 00000KT 10SM FEW045 01/M01 A3006=
PABA 241452Z AUTO 23007KT 10SM OVC006 M27/M29 A3064 RMK AO2 SLP383
     6//// T12671294 58022 FZRANO PNO $=
KAHN 241451Z 10006KT 10SM SCT085 13/02 A3015 RMK AO2 SLP208
     T01330017 51016=
KBHK 241451Z AUTO 12015KT 10SM CLR 06/M06 A2994 RMK AO2 SLP156
     T00611061 58003=
KCLE 241451Z 27008KT 10SM SCT011 BKN017 OVC090 05/02 A3014 RMK AO2
     DZE15 SLP226 P0000 60003 T00500017 51010=
KCSG 241451Z VRB06KT 10SM BKN100 OVC110 13/03 A3015 RMK AO2 SLP206
     T01330028 51014=
KDVP 241453Z AUTO 05006KT 10SM CLR 04/M06 A3013 RMK AO2
     T00421060=
KERI 241451Z 25003KT 6SM -RA BR OVC006 02/02 A3012 RMK AO2
     UPB28E32RAB32SNE28 SLP206 P0005 60008 T00220017 53010=
KEWR 241451Z VRB05KT 10SM FEW045 FEW080 SCT120 14/01 A3005 RMK AO2
     SLP176 T01390006 58002=
KGYI 241450Z 12010KT 10SM SCT100 13/05 A3019=
KHSA 241450Z 06008G13KT 10SM BKN095 15/07 A3009=
KILG 241451Z VRB04KT 10SM CLR 13/M01 A3010 RMK AO2 SLP191
     T01281006 56007=
KJFK 241451Z 30006KT 10SM BKN038 BKN100 12/03 A3006 RMK AO2 SLP177
     T01170028 50002=
KJVL 241445Z 29008KT 10SM SCT055 08/M06 A3019=
KLGA 241451Z 00000KT 10SM SCT041 SCT130 12/02 A3005 RMK AO2 SLP176
     T01220017 58000=
KPIT 241451Z 26007KT 10SM -RA FEW015 BKN028 OVC039 03/00 A3012 RMK
     AO2 SLP215 P0000 60000 T00330000 53006=
KXWA 241451Z AUTO 13015G21KT 10SM CLR 04/M04 A3003 RMK AO2 SLP197
     T00441044 58003=
KACT 241451Z 04005KT 10SM CLR 12/08 A3016 RMK AO2 SLP210 T01170083
     51008=
KAEG 241450Z 19004KT 10SM CLR 11/M01 A2997=
KAVX 241451Z AUTO 11007KT M1/4SM FG VV001 12/11 A2990 RMK AO2
     SLP123 T01170111 51012 $=
KBAZ 241451Z AUTO 04007KT 10SM OVC025 16/11 A3009 RMK AO2 SLP186
     T01560106 50004=
KDAG 241450Z AUTO 31010KT 10SM CLR 18/06 A2986 RMK AO2 SLP092
     T01780056 53015=
KGPM 241450Z 07004KT 10SM BKN 070OVC090 12/04 A3018=
KHDO 241451Z AUTO 04010KT 10SM OVC012 15/11 A3009 RMK AO2 SLP182
     T01500111 50002=
KJCT 241451Z AUTO 08004KT 7SM OVC005 11/10 A3012 RMK AO2 SLP184
     T01060100 50006=
KL18 241455Z AUTO 00000KT 7SM OVC008 13/11 A2991 RMK AO2=
KPHX 241451Z 10008KT 10SM FEW100 FEW250 22/02 A2978 RMK AO2 SLP065
     T02220017 51015=
KPOC 241447Z 19004KT 2SM BR OVC006 13/12 A2991=
KTPL 241451Z AUTO 03006KT FEW045 OVC055 12/08 A3015 RMK AO2 SLP206
     T01170083 51007 PWINO RVRNO $=
K4R5 241455Z AUTO 08005KT 10SM SCT100 03/M04 A3018 RMK AO2
     T00291041=
KBAK 241445Z 31004KT 10SM CLR 07/M05 A3026=
