SAKA31 PTYA 241500
METAR PTYA 241458Z 00000KT 12SM FEW017 SCT300 25/24 A2978 RMK
SLP086 8/101 T02480241 403070248 58008=
