SAUS70 KWBC 241500 RRS
METAR
KLHB 241455Z AUTO 02003KT 10SM BKN045 OVC060 12/08 A3015 RMK AO2
     T01240077=
KLHM 241455Z AUTO 00000KT 10SM CLR 13/12 A2993 RMK AO1=
KLNC 241455Z AUTO 08006KT 10SM BKN100 12/04 A3018 RMK AO2
     T01190043=
KBUR 241453Z 16004KT 5SM HZ OVC014 14/12 A2990 RMK AO2 SLP114
     T01440117 51014=
KCXP 241455Z AUTO 29003KT 10SM CLR 09/M03 A3000 RMK AO2=
KEKO 241456Z AUTO 23003KT 10SM BKN120 04/03 A2991 RMK AO2 SLP123
     T00440033 56005=
KF05 241455Z AUTO 17007KT 10SM OVC060 11/05 A3017 RMK AO2
     T01130045=
KFLY 241455Z AUTO 29006KT 10SM SCT110 08/M02 A2994 RMK AO2
     T00841025=
KFTN 241455Z AUTO VRB06KT 10SM OVC013 15/12 A3010 RMK A01=
KGOO 241455Z AUTO 00000KT 10SM CLR 15/06 A2997 RMK A01=
KHII 241455Z AUTO 00000KT 10SM CLR 27/00 A2975 RMK AO2=
KHSG 241455Z AUTO 19003KT 10SM CLR 08/M05 A2982 RMK AO2
     T00831047=
KIFP 241445Z AUTO 02009KT 10SM CLR 24/03 A2975 RMK AO2=
KIKG 241455Z AUTO 03008KT 10SM OVC014 18/14 A3005 RMK AO2
     T01750135=
KJAS 241455Z AUTO 9SM BKN055 12/08 A3012 RMK AO2=
KLAS 241456Z 15003KT 10SM FEW160 BKN250 19/03 A2985 RMK AO2 SLP088
     T01940033 51018=
KLXY 241455Z AUTO 07003KT 10SM SCT085 13/07 A3015 RMK AO2
     T01270073=
KM75 241455Z AUTO 10009G14KT 10SM BKN085 04/M04 A2984 RMK A01=
KMEV 241455Z AUTO VRB05KT 10SM CLR 08/M02 A3000 RMK AO2=
KAPG 241455Z 30004KT 8SM SCT050 12/00 A3011 RMK AO2A=
KWJF 241456Z 28017KT 10SM CLR 18/08 A2991 RMK AO2 SLP116 T01780083
     53017=
KCDD 241455Z AUTO 04003KT 10SM CLR 01/M06 A3020 RMK AO2=
KCXY 241456Z 33007KT 10SM SCT047 11/M01 A3010 RMK AO2 SLP194
     T01061011 56006=
KDIK 241456Z AUTO 13010KT 10SM CLR 06/M08 A3000 RMK AO2 SLP175
     T00611078 58002=
KDLZ 241455Z AUTO 28006KT SCT023 BKN065 04/M01 A3018 RMK AO2
     PWINO=
KEAU 241456Z 05003KT 10SM OVC050 04/M03 A3014 RMK AO2 SLP214
     T00441033 51006=
KELZ 241456Z AUTO 23009KT 10SM SCT025 SCT030 BKN036 06/M01 A3004
     RMK AO2 SLP188 T00561011 53000=
KGWB 241455Z AUTO 28007KT 10SM SCT045 BKN055 OVC065 05/M01 A3020
     RMK AO2=
KHHG 241455Z AUTO 28006G14KT 250V330 10SM SCT035 BKN044 BKN070
     05/M02 A3021 RMK AO2 T00541019=
KHLB 241455Z AUTO VRB05G14KT 10SM SCT039 06/M04 A3023 RMK A01=
KHMZ 241455Z AUTO 28008KT 10SM SCT049 OVC075 07/M04 A3010 RMK AO2
     T00721044=
KHZX 241455Z AUTO 03003KT 10SM SCT085 03/M03 A3015 RMK AO2=
KI75 241455Z AUTO 15012G15KT 10SM CLR 10/M01 A3014 RMK AO2
     T01031014=
KIBM 241455Z AUTO 26006KT 10SM CLR 10/M03 A2991 RMK AO2
     T00971034=
KICL 241455Z AUTO RMK AO2 PNO PWINO=
KIMS 241455Z AUTO 29005KT 10SM SCT045 06/M03 A3027 RMK AO2=
KJXN 241456Z 26007KT 10SM BKN023 BKN030 OVC070 04/M02 A3016 RMK
     AO2 SNE09 SLP221 P0000 60000 T00391017 51003=
KJYR 241455Z AUTO 22005KT 10SM FEW100 08/M02 A3003 RMK AO2=
KLCK 241455Z AUTO 29009G18KT 10SM BKN041 OVC055 07/M02 A3018 RMK
     AO2 T00681022=
KRNH 241455Z AUTO 00000KT 10SM SCT023 SCT030 04/00 A3015 RMK AO2
     T00400002=
KCKN 241455Z AUTO 03006KT 10SM CLR 03/M03 A3019 RMK AO2=
KCSQ 241455Z AUTO 15013KT 10SM SCT080 SCT100 09/M02 A3010 RMK
     AO2=
KDAY 241456Z 29009KT 10SM BKN024 BKN050 06/M01 A3021 RMK AO2
     SLP236 T00611011 53008 VISNO RWY 6L $=
KHDE 241455Z AUTO 22013KT 10SM SCT100 11/M01 A2998 RMK AO2
     T01091013=
KHPN 241456Z VRB03KT 10SM BKN036 11/03 A3004 RMK AO2 SLP172
     T01110028 50003=
KHWV 241456Z AUTO 32006KT 10SM FEW080 13/04 A3005 RMK AO2 SLP175
     T01280039 53003=
KHYA 241456Z 32004KT 10SM OVC008 09/07 A3001 RMK AO2 SLP164
     T00940072 51012=
KI16 241455Z AUTO 10SM BKN046 09/M03 A3021 RMK AO2 T00931026=
