SAUS70 KWBC 241528
METAR
KDUB 241517Z AUTO 31009KT 10SM BKN050 OVC070 04/M09 A2987 RMK
     AO2=
K2G9 241515Z AUTO 27011G16KT 10SM SCT034 BKN040 OVC046 02/M03
     A3009 RMK AO2=
KD50 241535Z AUTO 13015KT 10SM CLR 05/M07 A3007 RMK AO2=
KEBS 241515Z AUTO 21012KT 10SM SCT085 09/M05 A3011 RMK AO2=
KEVM 241522Z AUTO 02005KT 10SM CLR 03/M09 A3015 RMK AO2=
KGGF 241515Z AUTO 20007KT 10SM CLR 11/M02 A2991 RMK AO2=
KGGP 241515Z AUTO 31006KT 10SM SCT045 SCT060 BKN065 07/M03 A3023
     RMK AO2=
KHJH 241515Z AUTO 24013G21KT 10SM CLR 14/M03 A3004 RMK AO2
     T01361029=
KOLY 241510Z AUTO 00000KT 10SM CLR 09/M06 A3028 RMK AO2 T00911059
     PWINO=
KRRL 241535Z AUTO 00000KT 10SM SCT043 06/M05 A3011 RMK AO2
     T00561048 TSNO=
KSXK 241515Z AUTO 18008KT 10SM CLR 10/M03 A3008 RMK AO2=
KTAZ 241515Z AUTO 32003KT 10SM CLR 10/M03 A3025 RMK AO2
     T00971032=
KTIP 241515Z AUTO 00000KT 10SM CLR 08/M05 A3024 RMK AO2
     T00831047=
KTVK 241515Z AUTO 15008KT 10SM FEW065 FEW080 FEW100 10/M04 A3018
     RMK AO2=
KUMP 241515Z AUTO 33006KT 10SM CLR 08/M02 A3024 RMK AO2
     T00801025=
KUNI 241515Z AUTO 26008KT 7SM BKN055 BKN065 10/M03 A3018 RMK AO2
     T00981033=
KVES 241510Z AUTO 33006KT 10SM SCT024 SCT033 OVC060 05/M02 A3021
     RMK AO2=
KVVS 241510Z AUTO 27012G16KT 10SM SCT050 OVC060 06/M04 A3014 RMK
     AO2 T00621044=
KTFP 241435Z AUTO 05010KT 10SM CLR 18/13 A3004 RMK AO2
     T01810131=
K04V 241508Z AUTO 27005KT 10SM 07/M06 A3001 RMK AO2=
KAFO 241510Z AUTO 08004KT 10SM BKN045 OVC050 00/M06 A2990 RMK
     AO2=
KANK 241510Z AUTO 01005KT 10SM CLR 07/M04 A3003 RMK AO1
     T00741043=
KBDG 241515Z AUTO 16006KT 10SM 09/06 A3003 RMK AO1 T00850055=
KBMC 241510Z AUTO 11007KT 10SM SCT048 BKN065 OVC080 07/04 A2990
     RMK AO1 T00740037=
KBMT 241515Z AUTO 06009KT 10SM OVC060 15/08 A3011 RMK AO2
     T01470080=
KCPW 241515Z AUTO 22014G27KT 1/4SM SN OVC001 M04/M04 A3011 RMK AO2
     P0001=
KE11 241515Z AUTO 13011G14KT 10SM OVC007 09/09 A3007 RMK AO2
     T00850085=
KEAN 241510Z AUTO 27003KT 10SM CLR 12/M07 A2988 RMK AO2
     T01221071=
KEBG 241515Z AUTO 04010KT 10SM OVC012 17/15 A3005 RMK AO2
     T01730146=
KETN 241510Z AUTO 17009KT 10SM SCT013 OVC060 11/07 A3015 RMK AO2
     T01060070=
KGCD 241515Z AUTO 27011KT 10SM SCT039 SCT046 OVC065 04/M01 A2998
     RMK AO2 T00401011=
KGLE 241515Z AUTO 14008KT 10SM OVC080 14/04 A3018 RMK AO2
     T01430037=
KGNB 241515Z AUTO 21003KT 10SM SCT045 BKN050 OVC070 00/M05 A3001
     RMK AO2 T10041046=
KGNC 241510Z AUTO 16012KT 10SM OVC008 09/07 A3009 RMK AO2
     T00900067=
KGVT 241515Z AUTO 08007G16KT 10SM BKN110 13/03 A3018 RMK AO2 TSNO
     T01330031=
KNOW 241510Z AUTO 26004KT 10SM BKN017 08/06 A3007 RMK AO2
     T00750057=
KTMK 241510Z AUTO 00000KT 10SM SCT012 BKN034 OVC049 08/07 A3015
     RMK AO2=
KXBP 241510Z AUTO 11004KT 10SM BKN070 OVC085 12/06 A3018 RMK AO2
     T01200055=
KBWD 241515Z AUTO 15004KT 10SM FEW013 BKN030 OVC034 11/08 A3015
     RMK AO1=
KCLK 241535Z AUTO 20013KT 10SM OVC070 11/00 A3016 RMK AO2=
