SAUS80 KWBC 241520
METAR
K4BM 241515Z AUTO 28005KT 10SM CLR 00/M10 A3006 RMK AO2=
K9MN 241515Z AUTO 00000KT 10SM SCT048 SCT055 OVC070 04/M01 A3015
     RMK AO1 T00411014=
KCIR 241515Z AUTO 09004KT 10SM CLR 11/02 A3028 RMK AO2
     T01100021=
KEDU 241515Z AUTO 00000KT 10SM CLR 12/10 A2994 RMK AO1=
KGNG 241520Z AUTO 00000KT 10SM CLR 09/09 A2987 RMK AO2=
KHTH 241515Z AUTO 12006KT 10SM CLR 13/M02 A2996 RMK A01=
KMKN 241515Z AUTO 13003KT 10SM 12/12 A3015 RMK AO2 T01160116=
KO86 241515Z AUTO 00000KT 10SM 05/M00 A3004 RMK A01=
KRFI 241515Z AUTO 07010KT 10SM OVC095 15/00 A3017 RMK AO2
     T01540002=
KRLD 241515Z AUTO 22007KT 10SM BKN070 OVC080 11/03 A2998 RMK AO2
     T01100028=
KS39 241515Z AUTO 27008G14KT 230V290 10SM SCT060 05/M02 A3003 RMK
     AO2=
KSEP 241515Z AUTO 12006KT 10SM OVC070 11/07 A3017 RMK AO2
     T01110071=
KVTI 241515Z AUTO 22005KT 10SM CLR 11/M05 A3018 RMK AO2
     T01111051=
KIKW 241515Z AUTO 27008KT 260V320 10SM SCT043 BKN050 OVC065 06/M04
     A3013 RMK AO2 T00581038=
KSYN 241515Z AUTO 22003KT 10SM BKN024 BKN033 05/00 A3015 RMK AO2
     T00521005=
KTKV 241515Z AUTO 14003KT 10SM SCT039 BKN047 05/M05 A3012 RMK AO2
     T00501052 PWINO=
K2I0 241515Z AUTO 06007KT 10SM CLR 11/M01 A3028 RMK AO2
     T01081013=
K40U 241515Z AUTO 07003KT 10SM CLR 04/M03 A2994 RMK AO2
     T00421031=
K48A 241515Z AUTO 36008KT 10SM SCT120 18/02 A3012 RMK AO2
     T01750024=
K9V9 241515Z AUTO 15009KT 10SM CLR 11/M05 A3006 RMK AO2
     T01091054=
KAYS 241515Z AUTO 06004KT 10SM OVC110 19/08 A3011 RMK AO2
     T01920081=
KCKP 241515Z AUTO 16003KT 10SM CLR 10/M02 A3011 RMK AO2
     T01011017=
KCTY 241515Z AUTO 06008KT 10SM SCT060 SCT070 OVC085 21/16 A3001
     RMK AO2=
KGNG 241520Z AUTO 00000KT 10SM CLR 09/09 A2987 RMK AO2=
K4BM 241515Z AUTO 28005KT 10SM CLR 00/M10 A3006 RMK AO2=
KEDU 241515Z AUTO 00000KT 10SM CLR 12/10 A2994 RMK AO1=
K40B 241516Z AUTO VRB05G11KT 04/03 A3013 RMK AO1 SLP217 T00440031
     52007 P0000 60006=
KCIR 241515Z AUTO 09004KT 10SM CLR 11/02 A3028 RMK AO2
     T01100021=
KY23 241515Z AUTO 00000KT 10SM BKN041 05/M02 A3014 RMK AO2
     T00501016=
KHTH 241515Z AUTO 12006KT 10SM CLR 13/M02 A2996 RMK A01=
KRFI 241515Z AUTO 07010KT 10SM OVC095 15/00 A3017 RMK AO2
     T01540002=
K9MN 241515Z AUTO 00000KT 10SM SCT048 SCT055 OVC070 04/M01 A3015
     RMK AO1 T00411014=
KO86 241515Z AUTO 00000KT 10SM 05/M00 A3004 RMK A01=
KRLD 241515Z AUTO 22007KT 10SM BKN070 OVC080 11/03 A2998 RMK AO2
     T01100028=
KSEP 241515Z AUTO 12006KT 10SM OVC070 11/07 A3017 RMK AO2
     T01110071=
