SAUS80 KWBC 241500 RRA
METAR
KABE 241451Z 33003KT 10SM CLR 11/M01 A3007 RMK AO2 SLP183
     T01061011 58006=
KCAK 241451Z 30009KT 10SM SCT019 BKN030 OVC038 04/01 A3013 RMK AO2
     RAE19B34E50 SLP212 P0000 60000 T00390011 53008=
KNYC 241451Z AUTO 31004KT 10SM CLR 12/01 A3008 RMK AO2 SLP176
     T01220006 50000 $=
KTEB 241451Z 31006KT 10SM CLR 12/02 A3005 RMK AO2 SLP174 T01220022
     58001=
KYNG 241451Z 27009KT 10SM BKN019 BKN034 OVC070 06/02 A3011 RMK AO2
     SLP203 60000 T00610017 53005=
KDRA 241453Z AUTO 02008KT 10SM CLR 18/02 A2989 RMK AO2 SLP083
     T01830022 51014 $=
KCID 241452Z 20008KT 10SM BKN080 08/M03 A3018 RMK AO2 SLP225
     T00831028 50002=
KMFD 241452Z 29006KT 10SM FEW013 BKN047 OVC075 04/01 A3015 RMK AO2
     UPB18E29 SLP217 P0000 60001 T00440011 51008=
KTOL 241452Z 31009KT 10SM BKN030 BKN038 OVC065 06/M01 A3018 RMK
     AO2 SLP223 T00561011 51006=
KAAF 241453Z AUTO 06010KT 10SM CLR 20/14 A3002 RMK AO2 SLP165
     T02000139 51004=
KBFF 241453Z AUTO 12007KT 10SM CLR 08/M04 A2990 RMK AO2 SLP123
     T00781039 50001=
KBIL 241453Z 00000KT 10SM FEW110 SCT200 07/M01 A2981 RMK AO2
     SLP097 T00671011 50001=
KBNO 241453Z AUTO 30011KT 10SM CLR 06/M02 A2998 RMK AO2 SLP148
     T00561022 51019 $=
KBTR 241453Z 04009KT 10SM OVC095 17/09 A3010 RMK AO2 SLP191
     T01670089 51012=
KCDR 241453Z AUTO 00000KT 10SM CLR 04/M05 A2992 RMK AO2 SLP151
     T00441050 50003=
KCHA 241453Z 36009KT 10SM SCT250 13/M01 A3021 RMK AO2 SLP231
     T01281006 51009=
KCLI 241455Z AUTO 29003KT 10SM CLR 05/M03 A3016 RMK AO2
     T00501028=
KCLL 241453Z 04006KT 10SM OVC070 14/08 A3012 RMK AO2 SLP196
     T01390083 51006=
KCNY 241453Z AUTO 00000KT 10SM CLR 11/04 A2990 RMK AO2 SLP097
     T01110039 50003=
KCRQ 241453Z 00000KT 10SM OVC011 14/11 A2990 RMK AO2 SLP122
     T01440106 53008=
KCUT 241453Z AUTO 09006KT 10SM CLR 07/M07 A2990 RMK AO2 SLP121
     T00721072 $=
KDAB 241453Z 07011KT 10SM SCT047 OVC200 25/17 A3004 RMK AO2 SLP170
     T02500167 53018=
KELY 241453Z AUTO 19010KT 10SM CLR 03/01 A2997 RMK AO2 SLP123
     T00280011 53001 $=
KEMP 241453Z AUTO 20010G18KT 10SM CLR 14/01 A3012 RMK AO2 SLP202
     T01390011 51007=
KFAR 241453Z 03006KT 10SM CLR 04/M01 A3018 RMK AO2 SLP232
     T00391011 50003=
KFAT 241453Z 28004KT 10SM FEW200 16/10 A2993 RMK AO2 SLP133
     T01560100 53010=
KGNT 241455Z AUTO 35008KT 10SM OVC100 11/M06 A3002 RMK AO2
     T01051060=
KGRR 241453Z 30009KT 10SM BKN044 BKN070 06/M06 A3016 RMK AO2
     SLP219 T00611061 51005=
KMCN 241453Z 01007KT 10SM FEW110 16/04 A3013 RMK AO2 SLP200
     T01610039 51012=
KMGM 241453Z 06007KT 10SM BKN120 15/05 A3016 RMK AO2 SLP213
     T01500050 51020=
KLIT 241453Z 10004KT 10SM BKN250 13/04 A3023 RMK AO2 SLP239
     T01330039 51010=
KLWD 241453Z AUTO 16010KT 10SM OVC100 08/M02 A3013 RMK AO2 SLP209
     T00831022 58006=
KLXV 241453Z AUTO 00000KT 10SM CLR 01/M09 A2999 RMK AO2 SLP084
     T00111094 50002=
KLYV 241455Z AUTO 04003KT 10SM CLR 05/M03 A3012 RMK AO2=
KM25 241455Z AUTO 00000KT 10SM CLR 10/01 A3027 RMK AO2 PWINO=
KHLC 241453Z AUTO 22012G19KT 10SM CLR 13/00 A3001 RMK AO2 SLP160
     T01330000 51005=
KHSV 241453Z 05012G20KT 10SM FEW250 13/01 A3021 RMK AO2 SLP229
     T01330006 50015 $=
KHTL 241453Z AUTO 30012G17KT 10SM FEW031 SCT042 BKN050 04/M05
     A3011 RMK AO2 SLP208 T00391050 51004=
KHVR 241453Z AUTO 00000KT 10SM SCT080 05/M01 A2979 RMK AO2 SLP098
     T00501011 51010=
KJBR 241453Z AUTO 06007KT 10SM CLR 12/06 A3025 RMK AO2 SLP244
     T01170056 52014 $=
KJLN 241453Z 18007KT 10SM CLR 13/M02 A3019 RMK AO2 SLP222
     T01331017 53009=
