SAUS70 KWBC 241454
METAR
K6S8 241440Z AUTO 00000KT 10SM 06/M01 A2982 RMK A01 LAUREL=
KBWD 241435Z AUTO 14005KT 9SM OVC036 10/08 A3015 RMK AO1=
KDUB 241437Z AUTO 28009KT 10SM BKN060 BKN070 02/M09 A2987 RMK
     AO2=
KEDC 241435Z AUTO 36008KT 9SM OVC036 12/09 A3012 RMK AO2=
