SAUS70 KWBC 241400 RRX
METAR
KJFK 241351Z COR 30007KT 10SM FEW038 SCT085 11/03 A3006 RMK AO2
     SLP180 T01060033=
