SAPA32 KWBC 241500 RRB
METAR
NTAA 241530Z 11003KT 9999 FEW020 BKN300 25/23 Q1010 NOSIG=
