SAUS70 KWBC 241500 RRK
METAR
KHEQ 241455Z AUTO 18004KT 10SM CLR 11/M01 A2992 RMK AO2=
KHHG 241455Z AUTO 28006G14KT 250V330 10SM SCT035 BKN044 BKN070
     05/M02 A3021 RMK AO2 T00541019=
KHII 241455Z AUTO 00000KT 10SM CLR 27/00 A2975 RMK AO2=
KHMP 241455Z AUTO 06007KT 030V090 10SM BKN120 14/03 A3019 RMK AO2
     T01360029=
KHMZ 241455Z AUTO 28008KT 10SM SCT049 OVC075 07/M04 A3010 RMK AO2
     T00721044=
KHNR 241455Z AUTO 13008KT 10SM CLR 09/M01 A3009 RMK A01=
KHPT 241455Z AUTO 22011KT 10SM CLR 10/M03 A3014 RMK AO2=
KHQU 241455Z AUTO 05011KT 10SM BKN090 OVC110 15/04 A3014 RMK AO2
     T01470038=
KHVE 241455Z AUTO 00000KT 10SM CLR 10/05 A2993 RMK AO2=
KI63 241455Z AUTO 19005KT 10SM SCT055 SCT070 SCT080 10/M03 A3023
     RMK AO2 T00971027=
KI75 241455Z AUTO 15012G15KT 10SM CLR 10/M01 A3014 RMK AO2
     T01031014=
KI95 241455Z AUTO 30010KT 10SM SCT021 BKN027 OVC065 04/02 A3017
     RMK A01=
KIBM 241455Z AUTO 26006KT 10SM CLR 10/M03 A2991 RMK AO2
     T00971034=
KICL 241455Z AUTO RMK AO2 PNO PWINO=
KIDP 241455Z AUTO 21015KT 10SM CLR 13/00 A3019 RMK AO2
     T01350002=
KIIB 241455Z AUTO 21009KT 10SM CLR 08/M04 A3019 RMK AO2
     T00771037=
KIIY 241455Z AUTO 05007KT 310V080 10SM SCT075 SCT090 BKN120 14/03
     A3015 RMK AO2 T01430031=
KIJX 241455Z AUTO 21006KT 10SM CLR 10/M03 A3024 RMK AO2
     T00981032=
KIKG 241455Z AUTO 03008KT 10SM OVC014 18/14 A3005 RMK AO2
     T01750135=
KIKV 241455Z AUTO 17009KT 10SM BKN075 09/M03 A3016 RMK AO2=
KJAS 241455Z AUTO 9SM BKN055 12/08 A3012 RMK AO2=
KJOT 241455Z AUTO 28008KT 10SM CLR 08/M02 A3022 RMK AO2
     T00781017=
KJSV 241455Z AUTO 13009KT 10SM CLR 13/03 A3020 RMK AO2=
KJYR 241455Z AUTO 22005KT 10SM FEW100 08/M02 A3003 RMK AO2=
KLAM 241455Z AUTO VRB05KT 10SM CLR 10/M01 A2999 RMK AO2 T01031009
     $=
KLCG 241455Z AUTO 10006KT 10SM SCT110 08/M02 A3007 RMK AO2
     T00831022=
KLCQ 241455Z AUTO 05006KT 10SM SCT085 21/15 A3006 RMK AO2=
KLGC 241455Z AUTO 00000KT 10SM OVC100 12/01 A3016 RMK AO2
     T01240012=
KLLN 241455Z AUTO 15008G14KT 6SM BR OVC005 06/05 A3007 RMK AO2=
KLMO 241455Z AUTO 19003KT 10SM CLR 08/M01 A2994 RMK AO2
     T00761007=
KLNN 241455Z AUTO 31009KT 10SM SCT027 BKN036 OVC049 05/M01 A3015
     RMK AO1 T00481009=
KLNQ 241455Z AUTO 05014G20KT 10SM OVC090 21/13 A3004 RMK AO2
     T02070133=
KLOM 241455Z AUTO 27004KT 10SM CLR 11/00 A3009 RMK AO2
     T01100002=
KLRJ 241455Z AUTO 14006KT 10SM BKN100 09/M01 A3009 RMK AO2=
KLUL 241455Z AUTO 06011KT 10SM SCT120 14/04 A3014 RMK A02
     T01380037=
KLXN 241455Z AUTO 21010KT 10SM CLR 12/M01 A2998 RMK AO2
     T01231010=
KLYO 241455Z AUTO 21017G24KT 10SM CLR 13/M01 A3009 RMK AO2
     T01341006=
KMDD 241455Z AUTO 12011KT 10SM OVC007 09/07 A3008 RMK AO2
     T00860071=
KMDQ 241455Z AUTO 10SM CLR 12/M03 A3022 RMK A02 T01211025=
KMEI 241458Z A3016 RMK AO2 SLPNO 6//// 53006 PNO $=
KMGC 241455Z AUTO 31009KT 10SM SCT075 06/M01 A3022 RMK AO2=
KMHP 241455Z AUTO 36007KT 10SM CLR 20/05 A3011 RMK AO2
     T01990049=
KMJD 241455Z AUTO VRB07G13KT 10SM OVC095 14/08 A3010 RMK AO2=
KMLE 241455Z AUTO 12004KT 10SM SCT090 09/M01 A3008 RMK AO2
     T00871006=
KMLJ 241455Z AUTO 02005KT 10SM OVC090 14/03 A3014 RMK AO2=
KMNH 241455Z AUTO 28006KT 10SM CLR 06/M01 A2996 RMK AO2=
KMNZ 241455Z AUTO 10004KT 10SM OVC070 11/09 A3015 RMK AO2
     T01110089=
KMPR 241455Z AUTO 19013KT 10SM CLR 11/00 A3011 RMK AO2
     T01091003=
KMPZ 241455Z AUTO 22007KT 10SM CLR 09/M03 A3021 RMK AO2=
KMQW 241455Z AUTO 04006KT 10SM SCT120 19/06 A3012 RMK AO2
     T01900060=
KMRH 241458Z AUTO 34008KT 10SM OVC100 17/13 A3006 RMK AO2 SLP178
     T01720133 53012=
