SACA32 KWBC 241500 RRD
METAR
TJPS 241515Z AUTO 18007KT 10SM CLR 29/19 A2989 RMK AO2 TSNO=
