SAUS70 KWBC 241518 RRF
METAR
KU64 241515Z AUTO 15010KT 10SM SCT010 06/02 A2997 RMK AO2
     T00610022 $=
KULM 241515Z AUTO 36004KT 10SM 04/M01 A3015 RMK AO2=
KVAF 241515Z AUTO 03016KT 4SM HZ FEW015 FEW023 FEW031 23/19 A3000
     RMK A01=
KVGC 241515Z AUTO 26003KT 10SM SCT025 SCT043 BKN060 06/01 A3004
     RMK AO2=
KVKY 241515Z AUTO 07026KT 10SM CLR A3004 RMK A01=
KVOA 241525Z AUTO 05029KT 10SM BKN120 21/13 A3000 RMK A01=
KVVV 241515Z AUTO 03005KT 10SM SCT060 04/M03 A3017 RMK AO2=
KY31 241515Z AUTO 28010G18KT 10SM BKN035 BKN043 BKN049 04/M05
     A3011 RMK AO2 T00401046=
KY70 241515Z AUTO 31009G15KT 10SM SCT037 SCT043 OVC070 06/M06
     A3015 RMK AO2 T00601060=
K0E0 241515Z AUTO 18009KT 10SM CLR 06/00 A3000 RMK AO2
     T00631001=
K0S9 241515Z AUTO 00000KT 10SM FEW023 OVC060 07/07 A3006 RMK
     AO2=
K3T5 241515Z AUTO 03005KT 10SM OVC027 13/11 A3011 RMK AO2
     T01340115=
K6S2 241515Z AUTO 00000KT 10SM BKN032 OVC037 10/07 A3017 RMK
     AO2=
K6S8 241510Z AUTO 00000KT 10SM 07/M01 A2982 RMK A01 LAUREL=
KALM 241515Z AUTO 33005KT 10SM CLR 13/01 A2999 RMK AO2=
KAQP 241513Z AUTO 07006KT 10SM 04/M03 A3017 RMK AO2=
KCMR 241515Z AUTO 27006KT 10SM BKN085 15/M01 A3000 RMK AO2=
KCVH 241515Z AUTO 00000KT 1SM BR OVC001 09/08 A3002 RMK A01=
KJAQ 241515Z AUTO 35003KT 10SM CLR 14/08 A2994 RMK AO1
     T01390077=
KJSO 241515Z AUTO 07007KT 10SM BKN100 13/07 A3016 RMK AO2
     T01310065 TSNO=
KL18 241515Z AUTO 7SM OVC008 13/11 A2991 RMK AO2=
KONM 241515Z AUTO 15008KT 10SM CLR 15/M01 A2996 RMK AO2
     T01471014=
KPAN 241515Z AUTO 00000KT 10SM CLR 16/M03 A2999 RMK AO2 PWINO
     TSNO=
KRPH 241515Z AUTO VRB06KT 10SM OVC080 12/07 A3015 RMK AO2
     T01240066 $=
KSNK 241515Z AUTO 17005KT 10SM OVC011 09/07 A3012 RMK AO2
     T00850069=
KSRR 241515Z AUTO 24003KT 10SM 12/M01 A3005 RMK AO2=
KTMA 241515Z AUTO 05010KT 9SM OVC140 20/07 A3012 RMK AO2 T01970072
     $=
KTVY 241515Z AUTO 17013KT 10SM OVC070 11/01 A2988 RMK AO2=
KTYL 241515Z AUTO 32005KT 10SM CLR 13/00 A3001 RMK AO2=
K2D5 241515Z AUTO 05008KT 10SM BKN050 03/M04 A3016 RMK AO2=
K5H4 241515Z AUTO 11009KT 10SM CLR 03/M09 A3017 RMK AO2=
K6B9 241515Z AUTO 26006KT 10SM SCT022 SCT070 BKN100 07/03 A3005
     RMK AO2=
K96D 241515Z AUTO 35005KT 10SM OVC047 01/M01 A3021 RMK AO2=
K9D7 241515Z AUTO 08005KT 10SM FEW040 03/M05 A3019 RMK AO2
     TSNO=
KANQ 241515Z AUTO 29009KT 10SM FEW042 BKN055 OVC065 05/M03 A3018
     RMK AO2=
KBAC 241515Z AUTO 03007KT 10SM OVC049 02/M01 A3017 RMK AO2=
KBAX 241515Z AUTO 26003KT 10SM OVC033 04/00 A3012 RMK AO2
     T00401005=
KBJI 241515Z AUTO 09003KT 10SM BKN038 03/M05 A3015 RMK AO2
     T00281055=
KC29 241515Z AUTO 28004KT 10SM SCT049 SCT080 OVC100 07/M05 A3019
     RMK AO1 T00731053=
KD39 241515Z AUTO 04003KT 10SM CLR 03/M04 A3015 RMK AO2
     T00311041=
KDYT 241515Z AUTO 05010G15KT 10SM BKN055 BKN065 02/M00 A3018 RMK
     AO2=
KEZS 241515Z AUTO 04005KT 10SM CLR 05/00 A3016 RMK AO2
     T00510004=
KFSE 241515Z AUTO 00000KT 10SM CLR 01/M03 A3017 RMK AO2=
KGWR 241515Z AUTO 05010KT 10SM CLR 03/02 A3016 RMK A01=
KI68 241515Z AUTO 30005KT 10SM 06/M01 A3022 RMK AO1 T00571011=
KLNL 241515Z AUTO 34004KT 10SM BKN044 03/M08 A3013 RMK AO2
     T00311084=
KMVE 241515Z AUTO 04004KT 10SM BKN050 03/00 A3017 RMK AO2=
KN79 241515Z AUTO 23007KT 10SM SCT036 09/01 A3007 RMK AO2
     T00950007=
KPEX 241515Z AUTO 34003KT 10SM CLR 02/M01 A3016 RMK AO2=
KRVL 241515Z AUTO 20007G14KT 10SM SCT043 BKN050 BKN060 11/M00
     A3008 RMK AO2=
KTEW 241515Z AUTO 27004KT 10SM BKN024 OVC030 04/M02 A3016 RMK AO2
     T00431016=
KY19 241515Z AUTO 11011KT 10SM CLR 02/M02 A3011 RMK AO2=
