SAPA31 KWBC 241500 RRC
METAR
PGUM 241454Z 07008KT 10SM CLR 27/24 A2984 RMK AO2 SLP096 60000
     T02720239 58006=
