SAUS70 KWBC 241522 RRF
METAR
KDEH 241515Z AUTO 23007G12KT 10SM BKN070 BKN095 07/M04 A3014 RMK
     AO2=
KDNS 241515Z AUTO RMK AO2 PNO PWINO=
KHHG 241515Z AUTO 27005G09KT 10SM SCT035 BKN044 OVC065 07/M02
     A3021 RMK AO2 T00661017=
KI63 241515Z AUTO 20004KT 10SM CLR 10/M03 A3023 RMK AO2
     T01031031=
KIJX 241515Z AUTO 21006KT 10SM CLR 11/M04 A3024 RMK AO2
     T01051036=
KPMH 241515Z AUTO 33003KT 10SM BKN050 BKN065 11/M04 A3020 RMK AO2
     T01061044=
K20V 241515Z AUTO 00000KT 10SM BKN065 01/M03 A3001 RMK AO2=
K2R9 241515Z AUTO 04008KT 10SM OVC080 15/11 A3009 RMK AO2
     T01540115=
K5C1 241515Z AUTO 00000KT 10SM OVC011 11/11 A3011 RMK AO1=
K6R3 241515Z AUTO 00000KT 10SM OVC080 15/09 A3013 RMK AO2
     T01540093 TSNO=
K81R 241515Z AUTO 06003KT 10SM BKN010 OVC031 10/08 A3016 RMK AO2
     T01040085=
KA39 241515Z AUTO 16009KT 10SM CLR 23/M03 A2984 RMK AO2=
KAQO 241515Z AUTO 03007KT 10SM BKN013 OVC029 12/08 A3013 RMK
     AO2=
KDVO 241515Z AUTO 00000KT 10SM CLR 12/07 A2998 RMK AO2=
KE38 241515Z AUTO 00000KT 10SM CLR 12/06 A3009 RMK AO2
     T01200055=
KE41 241515Z AUTO 12007KT 10SM OVC004 09/08 A3010 RMK AO2
     T00920080=
KHCR 241515Z AUTO 00000KT 10SM OVC090 03/M01 A2992 RMK AO2=
KHEQ 241515Z AUTO 17004KT 10SM CLR 12/00 A2992 RMK AO2=
KHII 241515Z AUTO 21006KT 10SM CLR 27/01 A2975 RMK AO2=
KHVE 241515Z AUTO 00000KT 10SM CLR 11/06 A2993 RMK AO2=
KIKG 241515Z AUTO 02009G15KT 10SM BKN014 18/14 A3005 RMK AO2
     T01760136=
KJAS 241515Z AUTO 07004KT 9SM OVC055 13/08 A3013 RMK AO2=
KLAM 241515Z AUTO 10008KT 10SM SCT075 11/M01 A2999 RMK AO2
     T01121011 $=
KMNZ 241515Z AUTO 12006KT 10SM SCT049 OVC070 12/08 A3015 RMK AO2
     T01170084=
