SAUS70 KWBC 241500
METAR
KIXA 241450Z AUTO 03007KT 10SM OVC050 10/04 A3014 RMK AO2=
KLHZ 241455Z AUTO 03008KT 10SM BKN046 11/00 A3016 RMK AO2=
KMCZ 241445Z AUTO 01008KT 10SM OVC035 12/03 A3013 RMK AO2
     T01210028=
KMQI 241450Z AUTO 04015G20KT 10SM SCT021 BKN032 BKN085 14/08 A3008
     RMK AO2 T01390077=
KMRN 241445Z AUTO 25004KT 10SM CLR 13/00 A3015 RMK AO2
     T01250000=
KMWK 241445Z AUTO 00000KT 10SM CLR 11/M01 A3017 RMK AO2
     T01071015=
KOCW 241445Z AUTO 36009G14KT 10SM BKN090 14/05 A3011 RMK AO2
     T01350049=
KONX 241445Z AUTO 01011G17KT OVC036 12/03 A3011 RMK AO2 T01150027
     PWINO=
KPGV 241445Z AUTO 36012G16KT 10SM OVC031 13/03 A3012 RMK AO2=
KRCZ 241455Z AUTO 04006KT 10SM CLR 11/02 A3015 RMK AO2
     T01140015=
KRHP 241449Z AUTO 07005KT 10SM CLR 11/M03 A3015 RMK AO2
     T01101034=
KRUQ 241445Z AUTO 01004KT 10SM CLR 12/00 A3015 RMK AO2
     T01191005=
KSCR 241445Z AUTO 01007KT 350V060 10SM CLR 13/01 A3015 RMK AO2
     T01260013=
KSIF 241445Z AUTO 33005KT 10SM CLR 12/M02 A3016 RMK AO2
     T01211017=
KSUT 241450Z AUTO 36005KT 10SM OVC090 17/11 A3008 RMK AO2
     T01680110=
KSVH 241445Z AUTO 34006KT 10SM CLR 12/00 A3014 RMK AO2
     T01230001=
KTDF 241445Z AUTO 04009KT 10SM SCT055 11/00 A3017 RMK AO2=
KTRK 241449Z 00000KT 10SM FEW045 01/M01 A3006=
KTTA 241445Z AUTO 01008G16KT 360V060 10SM CLR 13/00 A3014 RMK AO2
     T01251002=
KUKF 241445Z AUTO 07003KT 10SM CLR 11/M01 A3019 RMK AO2=
KUUV 241455Z AUTO 13004KT 10SM CLR 11/M03 A3026 RMK AO2=
KVUJ 241445Z AUTO 05009KT 10SM CLR 13/02 A3019 RMK AO2
     T01330020=
KW29 241445Z AUTO 36006KT 10SM CLR 12/00 A3012 RMK AO2
     T01171005=
KW40 241445Z AUTO 36010KT 10SM SCT032 BKN100 BKN120 12/03 A3013
     RMK AO2 T01170028=
KW63 241455Z AUTO 02003KT 10SM BKN060 12/00 A3015 RMK AO1=
KY51 241455Z AUTO 29004KT 10SM BKN044 BKN050 04/M01 A3015 RMK AO1
     T00441012=
K1A5 241450Z AUTO 31004KT 10SM CLR 11/00 A3018 RMK AO2
     T01061005=
K1S5 241455Z AUTO 02003KT 10SM CLR 08/04 A2998 RMK AO2
     T00780044=
K2G4 241445Z AUTO 29009G19KT 250V310 10SM OVC036 03/M06 A3007 RMK
     AO2=
K2W6 241449Z AUTO 34003KT 10SM OVC070 11/00 A3014 RMK AO1=
K6L4 241455Z AUTO VRB06KT 10SM SCT049 08/M05 A3017 RMK AO2=
K7W6 241450Z AUTO 02010KT 10SM BKN027 BKN031 OVC080 16/10 A3007
     RMK AO2 T01570097=
KACZ 241445Z AUTO 34009KT 10SM OVC085 11/05 A3011 RMK AO2
     T01140046=
KAFP 241449Z AUTO 00000KT 10SM OVC090 12/01 A3015 RMK AO2
     T01220011=
KASJ 241445Z AUTO 02005KT 10SM OVC043 10/02 A3013 RMK AO2
     T01010022=
KATW 241445Z 30004KT 10SM FEW040 06/M04 A3014=
KCGE 241445Z AUTO 33007KT 10SM BKN080 11/00 A3012 RMK A01=
KCGS 241450Z AUTO 31006KT 10SM SCT050 12/M01 A3013 RMK AO2
     T01181012=
KCPC 241445Z AUTO 36007KT 10SM SCT080 13/07 A3011 RMK AO2
     T01310072=
KCTZ 241445Z AUTO 35007KT 310V020 10SM OVC110 11/03 A3014 RMK AO2
     T01120031=
KDMW 241445Z AUTO 31006KT 10SM SCT045 11/M01 A3010 RMK AO2=
KDPL 241445Z AUTO 01013KT 10SM SCT080 OVC110 11/03 A3012 RMK
     AO2=
KEDE 241450Z AUTO 36007KT 320V050 10SM OVC034 14/09 A3012 RMK AO2
     T01420094=
KEHO 241445Z AUTO 06005KT 10SM CLR 13/01 A3015 RMK AO2
     T01260005=
KEXX 241450Z AUTO 03005KT 10SM CLR 13/00 A3015 RMK AO2
     T01260000=
KEYF 241450Z AUTO 36008KT 10SM OVC070 11/04 A3013 RMK AO2
     T01140044=
KFFA 241455Z AUTO 02007G15KT 330V060 10SM SCT021 BKN031 OVC085
     13/07 A3007 RMK AO2 T01310072=
KFME 241449Z AUTO 32007KT 290V350 10SM CLR 12/00 A3014 RMK AO1=
KFQD 241445Z AUTO 00000KT 10SM CLR 13/00 A3016 RMK AO2=
KGEV 241445Z AUTO 27007KT 10SM CLR 06/M06 A3011 RMK AO2
     T00631062=
