SAUS70 KWBC 241500 RRX
METAR
KUKT 241455Z AUTO 32007KT 10SM CLR 11/M01 A3007 RMK A01=
K0CO 241455Z AUTO 33012G18KT SCT014 OVC021 M08/M11 A3003 RMK AO2
     PWINO=
K0F2 241455Z AUTO 10SM BKN075 OVC090 12/03 A3016 RMK AO2
     T01180033=
K1A9 241455Z AUTO 04007KT 10SM BKN120 14/03 A3016 RMK AO2
     T01390033=
K1F0 241455Z AUTO 12011KT 10SM BKN085 13/05 A3017 RMK AO2
     T01330049=
K28J 241455Z AUTO 08008KT 10SM CLR 22/16 A3004 RMK AO2=
K2P2 241455Z AUTO 34006KT 10SM SCT080 OVC090 02/M05 A3016 RMK AO2
     T00231048=
K2V5 241455Z AUTO 00000KT 10SM BKN100 11/00 A2992 RMK AO2=
K33V 241455Z AUTO 15003KT 10SM CLR 02/M05 A2998 RMK AO1=
K3D2 241455Z AUTO 34004KT 10SM BKN085 02/M03 A3016 RMK AO2
     T00151031=
K3J7 241455Z AUTO 00000KT 10SM BKN100 BKN120 12/04 A3014 RMK
     AO2=
K4V0 241455Z AUTO 00000KT 10SM CLR 05/00 A2994 RMK AO2
     T00531005=
K66R 241455Z AUTO 00000KT 10SM OVC025 14/11 A3012 RMK AO2
     T01360110=
K6A2 241455Z AUTO 04004KT 10SM SCT090 BKN110 11/01 A3015 RMK
     AO2=
K7W4 241455Z AUTO 10SM CLR 12/M02 A3013 RMK AO1 T01151019=
K82C 241455Z AUTO 25009G14KT 10SM BKN044 OVC050 05/M03 A3017 RMK
     AO2 T00491028=
KAAS 241455Z AUTO 00000KT 10SM CLR 08/M01 A3029 RMK AO1=
KACP 241500Z AUTO 03004KT 10SM SCT060 OVC090 13/07 A3012 RMK
     AO2=
KADC 241456Z AUTO 34003KT 10SM CLR 03/M06 A3015 RMK AO2 TSNO=
KADH 241455Z AUTO 17008KT CLR 11/06 A3019 RMK AO2 PWINO=
KAEJ 241455Z AUTO 00000KT 10SM CLR 06/M06 A2997 RMK AO2
     T00571057=
KAEL 241455Z AUTO 00000KT 10SM 06/M02 A3014 RMK AO2=
KAGI 241455Z AUTO 05019G24KT 10SM BKN019 BKN026 BKN044 24/18 A2997
     RMK AO2 T02360180=
KAJG 241455Z AUTO 00000KT 10SM CLR 09/M04 A3027 RMK AO2
     T00911036=
KAJZ 241455Z AUTO 00000KT 10SM OVC065 10/M02 A2996 RMK AO2
     T01031021=
KARM 241455Z AUTO 01005KT 10SM OVC022 13/13 A3011 RMK AO2
     T01300130 TSNO=
KASN 241455Z AUTO 03010KT 10SM SCT110 13/02 A3019 RMK AO2
     T01290016=
KATP 241500Z AUTO 07026KT 9SM BKN070 OVC080 23/17 A2994 RMK
     A01=
KAUH 241455Z AUTO 22006KT 10SM CLR 09/M02 A3002 RMK AO2
     T00851024=
KAUM 241457Z AUTO 00000KT 10SM CLR 05/M01 A3014 RMK AO2=
KAXH 241455Z AUTO 06005KT 10SM SCT031 BKN070 OVC080 16/10 A3010
     RMK AO2 T01600099=
KAXS 241455Z AUTO 17007KT 10SM OVC055 10/04 A3018 RMK AO2
     T01020037=
KBAM 241455Z AUTO 17004KT 10SM CLR 06/05 A2993 RMK AO1=
KLUD 241455Z AUTO 11008KT 10SM SCT065 12/05 A3016 RMK AO2
     T01150049=
KLVL 241455Z AUTO 34005KT 10SM OVC055 13/00 A3015 RMK AO1
     T01270001=
KLWA 241455Z AUTO 30006KT 10SM CLR 07/01 A3019 RMK AO2
     T00700012=
KM30 241455Z AUTO 11003KT 10SM CLR 10/00 A3028 RMK AO2
     T00950002=
KMMH 241455Z AUTO 15003KT 10SM CLR 02/M03 A3007 RMK AO2
     T00171028=
KONP 241455Z AUTO 25004KT 10SM SCT015 SCT030 BKN042 08/06 A3017
     RMK AO2=
KOQN 241455Z AUTO 29005KT 10SM SCT050 11/M02 A3008 RMK AO2=
KPCM 241455Z AUTO 07008KT 10SM SCT065 SCT075 SCT095 26/20 A3000
     RMK AO2=
KPKV 241455Z AUTO 04009KT 10SM SCT070 OVC090 17/13 A3009 RMK AO2
     T01730130=
KPRO 241455Z AUTO 15009KT 10SM SCT080 09/M01 A3013 RMK AO2
     T00871014=
KPUJ 241455Z AUTO 00000KT 10SM SCT110 11/00 A3017 RMK AO2=
KPVB 241455Z AUTO 24006KT 10SM BKN065 BKN075 OVC090 06/M05 A3019
     RMK AO1 T00621050=
KPVF 241455Z AUTO 08006KT 10SM CLR 15/00 A2998 RMK AO1=
KPVJ 241455Z AUTO 14008KT 10SM CLR 12/06 A3017 RMK AO2
     T01150055=
KPYX 241455Z AUTO 18016KT 10SM OVC030 06/M01 A3005 RMK AO2
     T00551014=
KREG 241455Z AUTO 04004KT 10SM OVC080 15/09 A3009 RMK AO2
     T01510089=
KRKR 241455Z AUTO 07003KT 10SM CLR 12/04 A3021 RMK AO2=
