SACA45 KWBC 241500
METAR
MGFL NIL=
MGGT 241500Z 18010KT 7000 BKN018 22/16 Q1021 A3015 HZ=
MGHT NIL=
MHAM NIL=
MHCA 241500Z 00000KT 5000 FU SCT026 28/20 Q1014=
MHCH 241500Z KT 9999 BKN030 31/23=
MHCH 241500Z 000000KT 9999 BKN030 31/23=
MHLE 241500Z 06004KT 9999 BKN024 20/16=
MHNJ NIL=
MHNO 241500Z 19006KT 9999 FEW040 26/20=
MHPL 241500Z 18008KT 9999 SCT025 30/24 Q1012=
MHRO 241500Z 10009KT 7000 FEW022 29/23 Q1010 A2983 NOSIG=
MHSR 241500Z 20008KT 9999 CAVOK 26/18=
MHTE NIL=
MHYR 241500Z 00000KT 8000 SCT024 24/20=
MNMG 241500Z 11008KT 9000 FEW024 30/21 Q1012 A2990 FU 1AC070
     2CI300 NOSIG=
MNPC NIL=
MPSA NIL=
MRCH NIL=
MSAC NIL=
