SAUS70 KWBC 241518 RRC
METAR
KL35 241515Z AUTO 28003KT 10SM CLR 07/00 A3005 RMK AO2=
KLBO 241515Z AUTO 17007KT 10SM CLR 12/M04 A3022 RMK AO2=
KLDM 241515Z AUTO 27005KT 10SM CLR 07/M05 A3015 RMK AO2
     T00711054=
KLJF 241515Z AUTO 03003KT 10SM CLR 04/M02 A3015 RMK AO2=
KLKR 241515Z AUTO 05008KT 360V090 5SM HZ SCT120 13/03 A3014 RMK
     AO2=
KLNL 241515Z AUTO 34004KT 10SM BKN044 03/M08 A3013 RMK AO2
     T00311084=
KLNP 241515Z AUTO 29004KT 10SM CLR 06/M06 A3017 RMK AO2=
KLQK 241515Z AUTO 08003KT 10SM CLR 15/01 A3014 RMK AO2
     T01450010=
KLRO 241515Z AUTO 00000KT 9SM CLR 20/07 A3009 RMK AO2=
KLRY 241515Z AUTO 23006KT 10SM CLR 12/M01 A3021 RMK AO2=
KLUA 241515Z AUTO RMK TEMPORAIRILY INOPERATIVE=
KLUX 241515Z AUTO 08006KT 10SM BKN095 14/01 A3015 RMK AO2=
KLVN 241515Z AUTO 33006KT 10SM SCT040 06/M03 A3015 RMK AO2=
KLXL 241515Z AUTO 04003KT 10SM CLR 03/M06 A3014 RMK AO2=
KM01 241515Z AUTO 00000KT 10SM CLR 14/02 A3022 RMK AO2 T01390019
     $=
KM40 241515Z AUTO 05009G16KT 10SM BKN120 15/02 A3021 RMK AO2=
KMAN 241515Z AUTO 31012G17KT 10SM SCT024 BKN040 BKN046 09/05 A2991
     RMK A01=
KMBO 241515Z AUTO VRB04G12KT 10SM CLR 15/04 A3016 RMK AO2=
KMBY 241515Z AUTO 19007KT 10SM CLR 13/M05 A3020 RMK AO2=
KMDS 241515Z AUTO 07010KT 10SM CLR 06/M02 A3010 RMK AO2=
KMEZ 241515Z AUTO 04004KT 10SM FEW004 08/08 A3021 RMK AO2
     T00810081=
KMGR 241515Z AUTO VRB06KT 9SM OVC130 18/08 A3010 RMK AO2
     T01830080=
KMHL 241515Z AUTO 18008KT 10SM CLR 12/M02 A3020 RMK AO2=
KMKJ 241515Z AUTO 28012G18KT 10SM CLR 07/M04 A3015 RMK AO2
     T00701037=
KMKS 241515Z AUTO 01005KT 10SM CLR 18/07 A3010 RMK AO2=
KMOX 241515Z AUTO 02007KT 10SM CLR 03/M04 A3017 RMK AO2=
KMQS 241515Z AUTO RMK AO2 PNO PWINO=
KMTV 241515Z AUTO 02006KT 10SM CLR 11/M03 A3017 RMK AO2
     T01141034=
KMVE 241515Z AUTO 04004KT 10SM BKN050 03/00 A3017 RMK AO2=
KMWM 241515Z AUTO 03008KT 10SM CLR 05/M01 A3013 RMK AO2=
KN38 241515Z AUTO 22008KT 10SM OVC036 05/M01 A3004 RMK AO2=
KN79 241515Z AUTO 23007KT 10SM SCT036 09/01 A3007 RMK AO2
     T00950007=
KO22 241515Z AUTO 00000KT 10SM CLR 17/03 A2994 RMK A01=
KO32 241515Z AUTO 11004KT 10SM CLR 16/16 A2992 RMK AO2 T01630163
     $=
KOEO 241515Z AUTO 00000KT 10SM SCT047 SCT050 05/00 A3018 RMK AO2
     T00460001=
KOIC 241515Z AUTO 00000KT 10SM SCT042 BKN070 OVC080 06/00 A3007
     RMK AO2 T00620000=
KOKV 241515Z AUTO 31007KT 10SM SCT047 BKN050 OVC060 08/M02 A3012
     RMK AO2=
KOMH 241515Z AUTO 21004KT 10SM CLR 11/M02 A3015 RMK AO2=
KONZ 241515Z AUTO 30008KT 10SM SCT036 BKN050 OVC070 06/M02 A3016
     RMK AO2 T00611023=
KORK 241515Z AUTO VRB05KT 10SM CLR 13/05 A3021 RMK AO2=
KORS 241515Z AUTO VRB04KT 10SM FEW050 SCT055 08/07 A3004 RMK
     AO2=
KOSC 241515Z AUTO 27009KT 10SM SCT036 OVC046 06/M03 A3010 RMK AO2
     T00571030=
KOYM 241515Z AUTO 25008KT 10SM SCT022 SCT050 OVC090 05/01 A3009
     RMK AO2 PWINO=
KOZS 241515Z AUTO 14008KT 10SM CLR 12/M03 A3022 RMK AO2=
KPAN 241515Z AUTO 00000KT 10SM CLR 16/M03 A2999 RMK AO2 PWINO
     TSNO=
KPCD 241515Z AUTO 12004KT 10SM CLR 11/03 A3026 RMK AO2
     T01120026=
KPCZ 241515Z AUTO 28006KT 10SM SCT048 SCT075 SCT090 08/M06 A3015
     RMK AO2 T00801062=
KPEX 241515Z AUTO 34003KT 10SM CLR 02/M01 A3016 RMK AO2=
KPJC 241515Z AUTO 29006G14KT 10SM SCT030 SCT036 OVC060 06/M01
     A3012 RMK AO2=
KPLR 241515Z AUTO 03010KT 10SM FEW110 14/01 A3019 RMK A01=
KPLU 241515Z AUTO 23007KT 10SM SCT010 BKN013 OVC060 08/07 A3008
     RMK AO2=
KPNM 241515Z AUTO 28005KT 10SM SCT037 05/M04 A3015 RMK AO2=
KPSK 241515Z AUTO 23003KT 10SM CLR 09/M01 A3012 RMK AO2
     T00871010=
