SAUS80 KWBC 241500 RRG
METAR
K8D3 241456Z AUTO 02009KT 05/M03 A3016 RMK AO1 SLP227 T00501033
     51007=
KCON 241451Z AUTO 10003KT 10SM FEW015 BKN022 BKN036 09/08 A3001
     RMK AO2 SLP164 T00940083 53002 TSNO FIBI=
KNY0 241454Z AUTO 29008KT 10SM BKN023 OVC029 07/02 A3003 RMK
     AO2=
KP53 241456Z AUTO 32010G18KT 01/M02 A3013 RMK AO1 SLP212 T00061017
     51008=
KP58 241455Z AUTO VRB05KT 06/M03 A3010 RMK AO1 SLP198 T00611028
     50004=
KCON 241451Z AUTO 10003KT 10SM FEW015 BKN022 BKN036 09/08 A3001
     RMK AO2 SLP164 T00940083 53002 TSNO FIBI=
KFAR 241453Z COR 03006KT 10SM SCT045 04/M01 A3018 RMK AO2 SLP232
     T00391011 50003=
