SACA32 KWBC 241500 RRC
METAR
MTCH 241455Z 02008KT 9000 SCT024CB 27/19 Q1013 RMK/CB/SE/SW/NE=
MTPP 241500Z 30005KT 220V360 9999 FEW025 29/20 Q1012 A2990=
