SAUS80 KWBC 241518
METAR
K40B 241516Z AUTO VRB05G11KT 04/03 A3013 RMK AO1 SLP217 T00440031
     52007 P0000 60006=
K77S 241515Z AUTO 21005KT 10SM FEW017 SCT024 OVC031 09/07 A3015
     RMK A01=
KCLI 241515Z AUTO 35004KT 10SM BKN120 06/M03 A3016 RMK AO2
     T00561031=
KEKX 241515Z AUTO 34009KT 10SM CLR 09/M05 A3025 RMK AO2
     T00901053=
KPOV 241515Z AUTO 30007KT 10SM BKN017 BKN021 OVC027 03/00 A3012
     RMK AO2 T00301003 PWINO=
KM21 241515Z AUTO 04006KT 10SM CLR 11/M01 A3027 RMK AO2
     T01051011=
KM25 241515Z AUTO 00000KT 10SM CLR 11/01 A3027 RMK AO2 PWINO=
KPZQ 241515Z AUTO 27008KT 10SM OVC023 02/M01 A3012 RMK AO2
     T00241008=
KSMS 241515Z AUTO 01009KT 9SM SCT085 15/07 A3014 RMK AO2=
KSNC 241515Z AUTO VRB03KT 10SM CLR 14/01 A3002 RMK AO2=
KSOW 241515Z AUTO 23006G11KT 10SM CLR 15/M03 A3003 RMK AO2=
KSVE 241515Z AUTO 31007KT 10SM CLR 13/M01 A2997 RMK AO2=
KTKC 241515Z AUTO 03007KT 10SM BKN070 03/01 A3015 RMK AO2=
KIKW 241515Z AUTO 27008KT 260V320 10SM SCT043 BKN050 OVC065 06/M04
     A3013 RMK AO2 T00581038=
KSYN 241515Z AUTO 22003KT 10SM BKN024 BKN033 05/00 A3015 RMK AO2
     T00521005=
KTKV 241515Z AUTO 14003KT 10SM SCT039 BKN047 05/M05 A3012 RMK AO2
     T00501052 PWINO=
KY23 241515Z AUTO 00000KT 10SM BKN041 05/M02 A3014 RMK AO2
     T00501016=
KGNT 241515Z AUTO 36007KT 10SM BKN100 12/M06 A3002 RMK AO2
     T01201059=
KSOW 241515Z AUTO 23006G11KT 10SM CLR 15/M03 A3003 RMK AO2=
KPZQ 241515Z AUTO 27008KT 10SM OVC023 02/M01 A3012 RMK AO2
     T00241008=
KCLI 241515Z AUTO 35004KT 10SM BKN120 06/M03 A3016 RMK AO2
     T00561031=
KSNC 241515Z AUTO VRB03KT 10SM CLR 14/01 A3002 RMK AO2=
KTKC 241515Z AUTO 03007KT 10SM BKN070 03/01 A3015 RMK AO2=
KLYV 241515Z AUTO 09006KT 10SM CLR 06/M03 A3012 RMK AO2=
KROS 241515Z AUTO 36003KT 10SM BKN035 BKN046 BKN055 07/M02 A3015
     RMK AO2 T00661016=
K77S 241515Z AUTO 21005KT 10SM FEW017 SCT024 OVC031 09/07 A3015
     RMK A01=
KSVE 241515Z AUTO 31007KT 10SM CLR 13/M01 A2997 RMK AO2=
