SAUS80 KWBC 241500 RRA
METAR
KLEX 241454Z 30010KT 10SM CLR 09/M02 A3022 RMK AO2 SLP236
     T00941022 53008=
KWAL 241454Z AUTO 32005KT 10SM OVC055 09/05 A3012 RMK AO2 SLP196
     60000 T00940050 53005=
KROA 241454Z 31010G14KT 10SM CLR 12/M04 A3015 RMK AO2 SLP208
     T01171039 58001 $=
KROC 241454Z 26010KT 10SM SCT032 SCT080 BKN120 BKN200 07/02 A3007
     RMK AO2 RAE24 SLP189 P0000 60000 T00670022 53003=
KSBN 241454Z 26010G17KT 10SM FEW038 SCT075 07/M01 A3020 RMK AO2
     SLP232 T00721011 51006=
KSMS 241455Z AUTO 04008KT 10SM BKN085 14/06 A3013 RMK AO2=
KSNC 241455Z AUTO VRB06G12KT 10SM CLR 14/02 A3003 RMK AO2=
KSOW 241455Z AUTO 21008KT 10SM CLR 14/M03 A3002 RMK AO2=
KSUS 241454Z 14007KT 10SM CLR 11/M03 A3025 RMK AO2 SLP245
     T01061028 51006=
KSVE 241455Z AUTO 30008KT 10SM CLR 12/00 A2997 RMK AO2=
KSYR 241454Z 29008KT 10SM -RA SCT024 BKN042 OVC070 09/02 A3007 RMK
     AO2 RAB43 SLP180 P0000 60000 T00890017 51003=
KTKC 241455Z AUTO 02008KT 10SM OVC070 03/01 A3015 RMK AO2=
KLYH 241454Z VRB05KT 10SM CLR 12/M02 A3013 RMK AO2 SLP201
     T01221022 58001=
KM21 241455Z AUTO 00000KT 10SM CLR 10/M02 A3028 RMK AO2
     T00951020=
KMVL 241454Z AUTO 00000KT 5SM -RA BKN023 OVC030 08/06 A3001 RMK
     AO2 RAB13 SLP168 P0001 60001 T00830056 53000=
KN60 241452Z AUTO 12008KT 02/M02 A3010 RMK AO1 SLP213 T00221022
     50002=
KGRR 241453Z 30009KT 10SM BKN044 BKN070 06/M06 A3016 RMK AO2
     SLP219 T00611061 51005=
KLWD 241453Z AUTO 16010KT 10SM OVC100 08/M02 A3013 RMK AO2 SLP209
     T00831022 58006=
KLYV 241455Z AUTO 04003KT 10SM CLR 05/M03 A3012 RMK AO2=
KCNY 241453Z AUTO 00000KT 10SM CLR 11/04 A2990 RMK AO2 SLP097
     T01110039 50003=
KGNT 241455Z AUTO 35008KT 10SM OVC100 11/M06 A3002 RMK AO2
     T01051060=
KHVR 241453Z AUTO 00000KT 10SM SCT080 05/M01 A2979 RMK AO2 SLP098
     T00501011 51010=
KTCS 241453Z AUTO 00000KT 10SM CLR 16/M02 A2996 RMK AO2 SLP081
     T01561017 51009=
KFNT 241453Z 25010KT 10SM FEW025 OVC065 05/M01 A3015 RMK AO2
     SLP217 T00501011 52005=
KHTL 241453Z AUTO 30012G17KT 10SM FEW031 SCT042 BKN050 04/M05
     A3011 RMK AO2 SLP208 T00391050 51004=
KSDB 241451Z NO CARRIER RING CONNECT 57600 SFOMTRBAN ALL TTAA00
     KBAN 241452 METAR KBAN 241452Z AUTO 00000KT 10SM CLR 00/M07
     A3003 RMK AO2 SLP149 T00001067 58001 $=
KLAN 241453Z 27008KT 10SM SCT024 BKN031 OVC065 05/M02 A3016 RMK
     AO2 SLP220 T00501017 51006=
KODX 241453Z AUTO 09008KT 10SM CLR 09/M03 A3000 RMK AO2 SLP169
     T00891033 50006=
KLAX 241453Z 14005KT 8SM FEW009 OVC014 16/12 A2990 RMK AO2 SLP126
     T01560122 53014 $=
KUIL 241453Z AUTO 09004KT 10SM OVC006 07/07 A3005 RMK AO2
     RAE06B12E25 SLP178 P0000 60007 T00670067 51023=
KYKM 241453Z AUTO 00000KT 10SM CLR 09/02 A2996 RMK AO2 SLP148
     T00890017 53019=
KTUS 241453Z 14005KT 10SM CLR 22/M04 A2990 RMK AO2 SLP081
     T02221039 51010=
KFMN 241453Z 26007KT 10SM FEW039 BKN055 OVC070 09/03 A3000 RMK AO2
     RAB1354E09B35E47 SLP134 P0000 60000 T00890033 53010=
KGCC 241453Z AUTO 16010KT 10SM CLR 07/M04 A2984 RMK AO2 SLP115
     T00671044 58003=
KGEG 241453Z 21016KT 10SM FEW006 BKN045 BKN090 06/02 A2987 RMK AO2
     SLP122 VCSH W T00560022 53017=
KLXV 241453Z AUTO 00000KT 10SM CLR 01/M09 A2999 RMK AO2 SLP084
     T00111094 50002=
KPGA 241453Z AUTO 36006KT 10SM CLR 13/07 A2993 RMK AO2 SLP095
     60001 T01280072 55002=
KDRT 241453Z AUTO VRB05KT 10SM OVC014 15/11 A3008 RMK AO2 SLP184
     T01500106 50002=
KMSO 241453Z 32009KT 7SM -RA FEW007 BKN025 OVC034 07/06 A2982 RMK
     AO2 SLP102 P0002 60004 T00720061 51006=
KMSN 241453Z 27006KT 10SM FEW045 FEW080 06/M06 A3018 RMK AO2
     SLP226 T00611061 51005=
