SAUS70 KWBC 241500 RRX
METAR
KJVY 241455Z AUTO 36010KT 320V020 10SM CLR 08/M03 A3023 RMK AO2
     PWINO=
KJYL 241455Z AUTO 07005KT 10SM SCT110 20/07 A3012 RMK AO2
     T01950065=
KJYM 241455Z AUTO 29009KT 10SM SCT021 BKN027 OVC060 03/00 A3016
     RMK AO2 T00321003=
KJZP 241455Z AUTO 00000KT 10SM CLR 12/M04 A3019 RMK AO2
     T01161041=
KLBE 241450Z 23007KT 10SM FEW020 SCT035 BKN048 04/00 A3013=
KLNA 241455Z AUTO 18007KT 4SM +RA SCT020 BKN028 OVC060 26/23 A2999
     RMK AO2 LTG DSNT E AND SE T02570225=
KBIE 241455Z AUTO 20007KT 10SM OVC100 11/00 A3006 RMK AO2
     T01060001=
KBKD 241455Z AUTO 18005KT 10SM OVC075 12/07 A3015 RMK AO2
     T01160073=
KBPC 241455Z AUTO 18013KT 10SM OVC030 08/01 A3008 RMK AO2=
KBQX 241455Z AUTO 02019G25KT 6SM HZ OVC015 17/14 A3007 RMK A01=
KBXA 241455Z AUTO 04009KT 10SM OVC095 16/07 A3012 RMK AO2
     T01630068=
KBYL 241455Z AUTO 36003KT 10SM CLR 08/M02 A3023 RMK AO1=
KC09 241455Z AUTO 30011KT 10SM 08/M03 A3021 RMK AO2 T00821030=
KCCU 241455Z AUTO 27003KT 10SM OVC019 M02/M08 A3006 RMK AO2=
KCFJ 241455Z AUTO 26007KT 10SM CLR 06/M07 A3025 RMK AO2
     T00601071=
KCJR 241455Z AUTO 31005KT 10SM BKN050 12/M02 A3014 RMK AO2
     T01221016=
KCKC 241456Z AUTO 35008KT 10SM CLR M01/M09 A3013 RMK AO2=
KCLW 241455Z AUTO 10009KT 10SM CLR 23/18 A2997 RMK AO2 PWINO=
KCMD 241455Z AUTO 03010G18KT 10SM CLR 12/00 A3020 RMK AO2=
KCVC 241455Z AUTO 00000KT 10SM SCT120 12/02 A3015 RMK AO2=
KCWC 241455Z AUTO 16009KT 10SM OVC065 11/04 A3017 RMK AO2
     T01130035=
KCXU 241455Z AUTO 04007KT 10SM CLR 19/08 A3010 RMK AO1
     T01850083=
KDLP 241455Z AUTO 06022G30KT 10SM BKN075 20/13 A2992 RMK A01=
KDNV 241455Z AUTO 23008KT 10SM SCT065 08/M03 A3025 RMK AO2
     T00751029=
KDSF 241500Z AUTO 03030KT 10SM CLR 23/16 A2996 RMK A01=
KDTA 241455Z AUTO 17012KT 10SM SCT070 08/03 A2993 RMK AO1=
KDUA 241455Z AUTO 12007KT 10SM SCT100 12/04 A3020 RMK AO2=
KDWX 241455Z AUTO 09004KT 10SM CLR 03/M04 A2998 RMK AO2
     T00331038=
KECS 241455Z AUTO 16004KT 10SM CLR 05/M07 A2990 RMK AO2=
KEGV 241455Z AUTO 30006KT 10SM BKN040 OVC048 04/M07 A3011 RMK AO2
     T00351074=
KEIK 241455Z AUTO 00000KT 10SM CLR 07/M04 A2992 RMK AO2
     T00701041=
KEKE 241455Z AUTO 04020G30KT 10SM CLR 20/16 A2994 RMK A01=
KEMM 241455Z AUTO 01011KT 10SM BKN036 00/M06 A2993 RMK AO2
     TSNO=
KEOE 241455Z AUTO 05010KT 10SM SCT095 13/01 A3018 RMK AO2=
KERY 241455Z AUTO 28008KT 10SM OVC012 02/M01 A3009 RMK AO2
     T00231008=
KEZF 241455Z AUTO 33010G14KT 290V350 10SM CLR 12/M01 A3012 RMK AO2
     T01221011=
KEZM 241455Z AUTO 03004KT 10SM CLR 17/04 A3013 RMK AO2=
KF46 241455Z AUTO 09007KT 10SM SCT095 12/04 A3018 RMK AO2
     T01180042=
KF70 241455Z AUTO 17004KT 7SM OVC004 11/11 A2991 RMK AO2=
KFFX 241455Z AUTO 27006KT 10SM BKN047 BKN065 06/M03 A3015 RMK AO2
     T00631031=
