SAUS80 KWBC 241500
METAR
KSAN 241451Z 15005KT 10SM OVC019 16/10 A2992 RMK AO2 SLP129
     T01560100 51005=
KNAK 241454Z AUTO 32007KT 10SM CLR 12/00 A3011 RMK AO2 SLP198
     T01170000 58004 $=
KMTP 241454Z AUTO 32004KT 11/06 A3005 RMK AO1 SLP177 T01060061
     53009=
K1V4 241454Z AUTO 07/04 A2999 RMK AO1 SLP160 T00720044 55001=
KALS 241452Z AUTO 01008KT 10SM SCT035 BKN070 OVC080 06/M03 A2997
     RMK AO2 SLP104 T00561033 51005=
KBLU 241452Z AUTO 16003KT 10SM CLR 10/03 A3004 RMK AO2 SLP126
     T01000033 53004 $=
KBNO 241453Z AUTO 30011KT 10SM CLR 06/M02 A2998 RMK AO2 SLP148
     T00561022 51019 $=
KLND 241453Z AUTO 00000KT 10SM CLR 06/M03 A2984 RMK AO2 SLP092
     T00611033 58003=
KFWA 241454Z 29006KT 10SM FEW018 BKN023 BKN055 06/M02 A3020=
KBFF 241453Z AUTO 12007KT 10SM CLR 08/M04 A2990 RMK AO2 SLP123
     T00781039 50001=
KCDR 241453Z AUTO 00000KT 10SM CLR 04/M05 A2992 RMK AO2 SLP151
     T00441050 50003=
KCLI 241455Z AUTO 29003KT 10SM CLR 05/M03 A3016 RMK AO2
     T00501028=
KCUT 241453Z AUTO 09006KT 10SM CLR 07/M07 A2990 RMK AO2 SLP121
     T00721072 $=
KBIL 241453Z 00000KT 10SM FEW110 SCT200 07/M01 A2981 RMK AO2
     SLP097 T00671011 50001=
KCLL 241453Z 04006KT 10SM OVC070 14/08 A3012 RMK AO2 SLP196
     T01390083 51006=
KCRQ 241453Z 00000KT 10SM OVC011 14/11 A2990 RMK AO2 SLP122
     T01440106 53008=
PHMK 241454Z AUTO 00000KT 10SM FEW025 FEW050 21/19 A2998 RMK AO2
     SLP155 T02060189 56010 TSNO $=
PHOG 241454Z AUTO 17004KT 10SM CLR A2997 RMK AO2 SLP155 55007 TSNO
     $=
KCAR 241454Z AUTO 15008KT 10SM OVC020 08/03 A3017 RMK AO2 SLP225
     T00780028 50001=
KCOS 241454Z 00000KT 10SM FEW110 BKN200 10/M03 A2992 RMK AO2
     SLP106 T01001028 50001=
KCOU 241454Z 15011KT 10SM CLR 11/M04 A3022 RMK AO2 SLP234
     T01111039 51004=
KCRW 241454Z VRB05G14KT 10SM SCT055 09/M06 A3018 RMK AO2 SLP222
     T00891056 51002=
KDSM 241454Z 16011KT 10SM BKN080 BKN100 08/M03 A3015 RMK AO2
     SLP215 T00831033 58003=
K77S 241455Z AUTO 21007KT 10SM FEW019 FEW028 OVC033 09/08 A3015
     RMK A01=
KACY 241454Z 34005KT 10SM BKN070 OVC080 11/02 A3008 RMK AO2 SLP186
     T01110017 55004 $=
KAKQ 241454Z AUTO VRB04KT 10SM OVC055 12/03 A3013 RMK AO2 SLP205
     T01170028 51007 PWINO=
KORH 241454Z 25005KT 10SM BKN039 10/02 A2999 RMK AO2 SLP159
     T01000022 55002=
KPIA 241454Z VRB03KT 10SM CLR 09/M02 A3024 RMK AO2 SLP245
     T00891017 50007=
KPZQ 241455Z AUTO 27007KT 240V300 10SM OVC025 02/M01 A3011 RMK AO2
     T00241009=
KRFD 241454Z 25008KT 220V280 10SM FEW050 08/M04 A3022 RMK AO2
     SLP240 T00781044 51009=
KRIC 241454Z 02008KT 10SM FEW065 SCT080 BKN200 13/M01 A3013 RMK
     AO2 SLP209 T01331011 50003=
KEKX 241455Z AUTO 31008KT 10SM CLR 09/M05 A3025 RMK AO2
     T00881052=
KFNB 241453Z AUTO 21010KT 10SM OVC100 11/01 A3009 RMK AO2 SLP191
     T01110006 58003=
KGSO 241454Z VRB04KT 10SM FEW070 FEW110 FEW250 12/M01 A3014 RMK
     AO2 SLP202 T01171006 50003=
KAPN 241454Z AUTO 28008G17KT 10SM BKN029 04/M04 A3010 RMK AO2
     SLP200 T00391044 50002=
KATT 241451Z AUTO 36004KT 10SM OVC033 13/10 A3013 RMK AO2 SLP201
     T01280100 51007=
KAVP 241454Z BKN042 OVC050 08/M01 A3006 RMK AO2 SLP181 T00831011
     55004 $=
KBTV 241454Z 32005KT 10SM BKN026 OVC090 09/03 A3001 RMK AO2 SLP165
     T00940028 53001=
KBUF 241454Z 22011KT 10SM BKN015 BKN035 BKN085 OVC130 06/03 A3007
     RMK AO2 RAE14 SLP186 MDT CU DSNT NE-E SHRA DSNT E P0000 60001
     T00610028 53004 $=
KINL 241454Z AUTO 12007KT 10SM FEW080 01/M06 A3016 RMK AO2 SLP233
     T00061061 51010 $=
KJAN 241454Z 04010G17KT 10SM BKN110 15/03 A3016 RMK AO2 SLP212
     T01500028 51009=
