SAUS70 KWBC 241500 RRA
METAR
KCDI 241455Z AUTO 28004KT 10SM BKN041 OVC065 06/M01 A3018 RMK AO2
     T00571014=
KCDW 241453Z 31005KT 10SM FEW049 12/M02 A3006 RMK AO2 SLP183
     T01171022 58003=
KCKB 241453Z 30006KT 10SM OVC060 08/M06 A3015 RMK AO2 SLP212
     T00781061 52004=
KCNB 241455Z AUTO 02004KT 10SM OVC075 04/M01 A3017 RMK AO2
     T00361008=
KCOQ 241455Z AUTO 05004KT 10SM SCT090 02/M06 A3013 RMK AO2
     TSNO=
KD55 241455Z AUTO 01004KT 10SM OVC041 01/M01 A3018 RMK AO2=
K20U 241455Z AUTO 13015G20KT 10SM CLR 05/M09 A2998 RMK AO2=
KABR 241453Z AUTO 07014KT 10SM CLR 06/M06 A3014 RMK AO2 SLP218
     T00561056 50002=
KAMN 241455Z AUTO 30009KT 10SM SCT029 BKN070 OVC080 06/M03 A3014
     RMK AO2 T00581031=
KAMW 241453Z AUTO 17007KT 10SM BKN080 OVC090 09/M01 A3014 RMK AO2
     SLP210 T00891006 58002=
KASX 241453Z AUTO 36009KT 10SM BKN075 OVC090 04/M02 A3016 RMK AO2
     SLP225 T00391017 51008=
KAUG 241453Z AUTO 10007KT 070V130 2SM BR OVC004 06/05 A3009 RMK
     AO2 RAB13E37 CIG 003V008 SLP192 P0000 60000 T00610050
     52002=
KAZO 241453Z 29008KT 10SM OVC070 07/M03 A3017 RMK AO2 SLP225
     T00671033 51006=
KBRD 241453Z AUTO 03006KT 10SM CLR 04/M06 A3015 RMK AO2 SLP221
     T00391056 50005=
KBRL 241453Z AUTO 19007KT 10SM BKN095 09/M01 A3022 RMK AO2 SLP236
     T00941011 51007=
KCDA 241455Z AUTO 00000KT 10SM 07/04 A3001 RMK AO2 T00690037
     PWINO=
KCMX 241453Z AUTO 36010KT 10SM SCT023 BKN080 03/M04 A3015 RMK AO2
     SLP222 T00281039 51010=
KCPS 241453Z VRB05KT 10SM CLR 11/M01 A3026 RMK AO2 SLP247
     T01061006 51006=
KACV 241453Z AUTO 05003KT 10SM CLR 08/07 A3014 RMK AO2 SLP212
     T00830067 53008=
KALI 241453Z AUTO 06008KT 10SM OVC009 14/14 A3005 RMK AO2 SLP174
     6//// T01440139 51004=
KAPA 241453Z 00000KT 10SM FEW080 BKN130 BKN200 07/M03 A2992 RMK
     AO2 SLP123 T00671028 50006=
KASE 241453Z 00000KT 10SM CLR 04/M08 A2996 RMK AO2 SLP090
     T00441078 58002=
KAUS 241453Z 02008KT 10SM FEW015 OVC033 13/09 A3011 RMK AO2 SLP196
     T01280094 50005=
KBCE 241453Z AUTO 26005KT 10SM CLR 03/02 A3000 RMK AO2 SLP104
     T00330017 51004=
KBFI 241453Z 18005KT 10SM BKN013 OVC021 08/06 A3007 RMK AO2
     RAE1354 SLP181 P0000 60000 T00780061 53030=
KBOI 241453Z 32009KT 10SM SCT017 SCT025 BKN033 09/05 A2987 RMK AO2
     SLP110 T00890050 51016=
KBPI 241453Z AUTO 00000KT 10SM OVC075 M01/M05 A2994 RMK AO2 SLP131
     T10111050 58001=
KBRO 241453Z 35011G17KT 10SM OVC010 19/17 A3000 RMK AO2 SLP159
     T01890167 51009=
KBYG 241453Z AUTO 10003KT 10SM CLR 07/M04 A2982 RMK AO2 SLP088
     T00721044 50000=
KCCR 241453Z 19010KT 10SM CLR 12/06 A2997 RMK AO2 SLP133 T01220061
     53006=
KCPR 241453Z 22016G24KT 10SM CLR 08/M06 A2985 RMK AO2 SLP097
     T00831061 53000=
KCRS 241453Z AUTO 07005KT 10SM OVC090 12/06 A3017 RMK AO2 SLP215
     T01170061 51009=
KCYS 241453Z 26005KT 10SM CLR 09/M04 A2990 RMK AO2 SLP094
     T00941044 50003=
KAKO 241453Z AUTO 29006KT 10SM BKN090 09/M02 A2990 RMK AO2 SLP115
     T00941022 50004 TSNO=
K22N 241455Z AUTO 25005KT 10SM SCT050 10/M02 A3008 RMK AO2=
K4I3 241455Z AUTO 27008KT 10SM SCT025 SCT034 BKN049 05/M00 A3016
     RMK AO2=
KACQ 241455Z AUTO 00000KT 10SM SCT045 SCT050 BKN060 05/00 A3016
     RMK AO2=
KADG 241453Z AUTO 31011KT 10SM FEW025 SCT032 OVC065 04/M01 A3018
     RMK AO2 SLP230 T00441011 51009=
KAIA 241453Z AUTO 17003KT 10SM CLR 09/M05 A2990 RMK AO2 SLP126
     T00891050 50000=
KAOH 241453Z AUTO 32006KT 10SM SCT024 BKN047 OVC065 06/00 A3019
     RMK AO2 SLP228 60000 T00560000 51004=
KAOO 241453Z AUTO 29008KT 10SM BKN040 OVC070 08/M02 A3008 RMK AO2
     SLP195 T00781022 58002=
