SAUS70 KWBC 241500
METAR
K08D 241455Z AUTO 11010KT 10SM CLR 03/M02 A3008 RMK AO2=
KAFN 241452Z AUTO 00000KT 10SM FEW018 BKN026 OVC045 09/04 A2999
     RMK AO2 SLP166 T00890039 53001=
KAQP 241453Z AUTO 06005KT 10SM 04/M04 A3017 RMK AO2=
KAQW 241452Z AUTO 30005KT 10SM OVC020 07/03 A3004 RMK AO2 SLP175
     T00720028 53005=
KARR 241452Z 28008G17KT 10SM FEW044 07/M03 A3020 RMK AO2 SLP232
     T00671033 51007=
KARV 241455Z AUTO 00000KT 10SM BKN035 03/M06 A3011 RMK AO2
     T00251062=
KATL 241452Z 35005KT 10SM SCT100 BKN150 BKN200 14/00 A3016 RMK AO2
     SLP209 ACC S W T01390000 51016=
KAUO 241453Z AUTO 03010KT 10SM BKN095 OVC120 13/04 A3017 RMK AO2
     SLP211 6//// T01280039 51019 PNO $=
KBIS 241452Z 09008KT 10SM CLR 03/M04 A3012 RMK AO2 SLP217
     T00281039 51002=
KBLF 241452Z AUTO 26006G17KT 10SM CLR 05/M04 A3013 RMK AO2 SLP206
     T00501044 51003=
KBML 241452Z AUTO 14010KT 10SM OVC021 08/03 A3002 RMK AO2 SLP175
     T00780033 51002=
KBNL 241455Z AUTO 09006KT 10SM FEW100 17/05 A3012 RMK AO2=
KCFV 241452Z AUTO 21011KT 10SM CLR 13/00 A3017 RMK AO2 SLP218
     T01280000 51007 $=
KCGI 241453Z 00000KT 10SM CLR 11/03 A3026 RMK AO2 SLP248 T01110033
     51010=
KCLT 241452Z 02010KT 10SM FEW085 FEW110 SCT250 14/01 A3015 RMK AO2
     SLP220 T01440006 53006=
KCPF 241455Z AUTO 19004KT 10SM SCT043 SCT049 08/M03 A3021 RMK
     AO2=
KCQX 241452Z AUTO 13005KT 10SM OVC009 12/10 A3003 RMK AO2 CIG
     007V011 SLP168 T01170100 52009=
KCVG 241452Z 31005KT 10SM BKN037 06/M03 A3022 RMK AO2 SLP237
     T00561028 53013=
KDCA 241452Z 30006KT 10SM FEW055 12/M01 A3013 RMK AO2 SLP203
     T01221006 58004 $=
KDDC 241452Z AUTO 19022G31KT 8SM FEW100 11/M04 A3005 RMK AO2 PK
     WND 18032/1432 SLP171 T01111039 51004=
KDPA 241452Z VRB05KT 10SM CLR 07/M03 A3019 RMK AO2 SLP230
     T00671028 51006=
KDVN 241452Z AUTO 24008KT 10SM CLR 09/M04 A3023 RMK AO2 SLP237
     T00941039 51004=
KEMV 241455Z AUTO 36006KT 320V020 10SM OVC050 12/01 A3016 RMK AO2
     T01160014=
KEST 241452Z AUTO VRB04KT 10SM CLR 07/M04 A3013 RMK AO2 SLP213
     T00721039 50006=
KETH 241453Z AUTO 01005KT 10SM CLR 03/M01 A3019 RMK AO2=
KFOZ 241453Z AUTO 00000KT 10SM CLR 04/M07 A3019 RMK AO2=
KFVX 241455Z AUTO 00000KT 10SM BKN070 13/M02 A3013 RMK AO2
     T01251020=
KFWS 241452Z 12004KT 10SM BKN065 13/05 A3019=
KGGW 241453Z AUTO 12024KT 10SM BKN090 OVC110 04/M06 A2988 RMK AO2
     PK WND 10031/1428 SLP136 T00391061 55005=
KGLR 241453Z AUTO 26010G16KT 10SM OVC025 02/M05 A3010 RMK AO2
     SLP206 T00171050 51005=
KGLS 241452Z 01013KT 10SM SCT049 BKN060 OVC070 14/12 A3009 RMK AO2
     RAE34 SLP190 P0000 60000 T01440117 51019=
KGVE 241455Z AUTO 00000KT 10SM CLR 11/M03 A3013 RMK AO1
     T01101026=
KGYR 241447Z 12004KT 10SM FEW250 23/01 A2980=
KHIE 241452Z AUTO 00000KT 10SM OVC025 08/03 A3000 RMK AO2 SLP167
     T00830028 51001=
KHRL 241452Z 01014G19KT 10SM OVC012 19/17 A3002 RMK AO2 SLP164
     T01890172 51009=
KHUT 241452Z 21011KT 10SM CLR 13/M01 A3010 RMK AO2 SLP185
     T01281011 50005=
KIAD 241452Z 33008G19KT 290V360 10SM SCT055 12/M02 A3012 RMK AO2
     SLP200 T01221022 58004=
KIEN 241452Z AUTO 13008KT 10SM CLR 08/M06 A2993 RMK AO2 SLP144
     T00781056 50004=
KIJD 241452Z AUTO VRB06KT 10SM SCT020 11/06 A3003 RMK AO2 SLP168
     T01060056 53002=
KIOW 241452Z AUTO 19008KT 10SM FEW100 09/M02 A3021 RMK AO2 SLP236
     T00891022 51003=
KJFX 241455Z AUTO 04009G18KT 10SM CLR 14/02 A3019 RMK AO2=
KLBF 241453Z AUTO 00000KT 10SM CLR 10/M03 A2995 RMK AO2 SLP146
     T01001028 51004=
KLGU 241451Z AUTO 21003KT 10SM OVC060 06/01 A2989 RMK AO2 SLP110
     T00560011 58002=
