SAUS70 KWBC 241522 RRC
METAR
KAAA 241515Z AUTO 00000KT 10SM CLR 10/M02 A3025 RMK AO2=
KAPS 241516Z AUTO 05007KT 10SM OVC080 14/08 A3010 RMK AO2=
KAZE 241515Z AUTO 03003KT 10SM SCT120 19/08 A3010 RMK AO2
     T01860077=
KBDG 241515Z AUTO 16006KT 10SM 09/06 A3003 RMK AO1 T00850055=
KBMT 241515Z AUTO 06009KT 10SM OVC060 15/08 A3011 RMK AO2
     T01470080=
KC99 241515Z AUTO 32014G22KT 10SM CLR M04/M08 A3001 RMK AO2=
KCBK 241515Z AUTO 17013KT 10SM SCT120 13/02 A2997 RMK AO2
     T01290019=
KCCO 241515Z AUTO 02007KT 10SM OVC110 13/00 A3016 RMK AO2
     T01300001=
KCPW 241515Z AUTO 22014G27KT 1/4SM SN OVC001 M04/M04 A3011 RMK AO2
     P0001=
KCTJ 241515Z AUTO 36009KT 7SM SCT110 12/M01 A3020 RMK AO2
     T01221009=
KCZT 241515Z AUTO 10SM OVC014 14/11 A3009 RMK AO2=
KE11 241515Z AUTO 13011G14KT 10SM OVC007 09/09 A3007 RMK AO2
     T00850085=
KEBG 241515Z AUTO 04010KT 10SM OVC012 17/15 A3005 RMK AO2
     T01730146=
KEBS 241515Z AUTO 21012KT 10SM SCT085 09/M05 A3011 RMK AO2=
KFRR 241535Z AUTO 00000KT 10SM BKN065 10/M02 A3013 RMK AO1=
KFSK 241515Z AUTO 21011KT 10SM CLR 14/M02 A3019 RMK AO2
     T01381022=
KGCD 241515Z AUTO 27011KT 10SM SCT039 SCT046 OVC065 04/M01 A2998
     RMK AO2 T00401011=
KGGF 241515Z AUTO 20007KT 10SM CLR 11/M02 A2991 RMK AO2=
KGGP 241515Z AUTO 31006KT 10SM SCT045 SCT060 BKN065 07/M03 A3023
     RMK AO2=
KGNB 241515Z AUTO 21003KT 10SM SCT045 BKN050 OVC070 00/M05 A3001
     RMK AO2 T10041046=
KGVT 241515Z AUTO 08007G16KT 10SM BKN110 13/03 A3018 RMK AO2 TSNO
     T01330031=
KHBV 241515Z AUTO 06005KT 10SM OVC007 15/13 A3007 RMK AO2
     T01460125=
KHHW 241515Z AUTO 12004KT 10SM 13/04 A3019 RMK AO2=
KHJH 241515Z AUTO 24013G21KT 10SM CLR 14/M03 A3004 RMK AO2
     T01361029=
KHSP 241515Z AUTO 28010G14KT 10SM CLR 05/M05 A3008 RMK AO2
     T00471051=
KI35 241518Z AUTO 36006KT 10SM CLR 11/M04 A3020 RMK AO2=
KIKK 241515Z AUTO 29010G17KT 10SM CLR 08/M05 A3023 RMK AO2
     T00841052 PWINO=
KJCA 241515Z AUTO 07003KT 10SM BKN085 14/02 A3015 RMK AO2
     T01410020=
KJES 241515Z AUTO 03005KT 10SM SCT110 20/08 A3012 RMK AO2=
KJXI 241535Z AUTO 08006KT 10SM CLR 13/04 A3016 RMK AO2
     T01300036=
KK82 241515Z AUTO 22019G25KT 10SM CLR 15/M04 A3003 RMK AO2
     T01541036=
KLUV 241515Z AUTO 15015G19KT 10SM OVC007 09/07 A3007 RMK AO2=
KMCX 241535Z AUTO 26011KT 10SM SCT049 SCT060 08/M05 A3023 RMK AO2
     T00751048=
KMGC 241515Z AUTO 29008KT 10SM CLR 07/M03 A3022 RMK AO2=
KMYZ 241515Z AUTO 23005KT 10SM BKN120 13/00 A3008 RMK AO2=
KOOA 241515Z AUTO 20008KT 10SM CLR 11/M03 A3018 RMK AO2
     T01111035=
KOPL 241515Z AUTO 05005KT 10SM OVC100 14/08 A3012 RMK AO2
     T01440084=
KOPN 241515Z AUTO 04004KT 10SM BKN100 OVC120 13/00 A3016 RMK
     AO2=
KORG 241515Z AUTO 05008KT 10SM OVC085 17/09 A3013 RMK AO2
     T01670088=
KOSA 241515Z AUTO 11010KT 10SM BKN100 13/06 A3018 RMK AO2
     T01330059=
KOWX 241515Z AUTO 27006KT 10SM SCT031 SCT040 BKN065 06/M01 A3021
     RMK AO1=
KOXI 241515Z AUTO 30009G16KT 10SM SCT060 SCT075 07/M06 A3021 RMK
     AO1=
KOXV 241515Z AUTO 19010G15KT 10SM SCT075 BKN090 10/M04 A3015 RMK
     AO2=
KOZA 241515Z AUTO 10SM OVC006 10/08 A3012 RMK AO2=
KPBX 241515Z AUTO 29008KT 10SM SCT050 09/M03 A3020 RMK AO2
     T00861035=
KPEA 241515Z AUTO 18008KT 10SM OVC065 10/M04 A3016 RMK AO2
     T00991038=
KPEQ 241515Z AUTO 08006KT 10SM OVC015 10/07 A3007 RMK AO2
     T01020066=
KPIM 241515Z AUTO 05007KT 10SM BKN100 OVC120 13/02 A3015 RMK AO2
     T01310016=
KPMU 241515Z AUTO 10SM 15/03 A3022 RMK AO2=
KPMV 241515Z AUTO 18009KT 10SM BKN100 10/M01 A3007 RMK AO2
     T00961010=
