SAUS70 KWBC 241456
METAR
KLDJ 241515Z AUTO 34005KT 10SM CLR 13/00 A3005 RMK AO2
     T01261001=
KLDJ 241515Z AUTO 34005KT 10SM CLR 13/00 A3005 RMK AO2
     T01261001=
