SASA41 KWBC 241500 RRA
METAR
SKMD 241500Z 05005KT 9999 SCT030 BKN080 23/17 Q1022 RMK A3019=
SKSM 241500Z 24006KT 9999 FEW020 SCT200 30/23 Q1013 RMK A2994=
