SAUS70 KWBC 241500 RRH
METAR
KO32 241455Z AUTO 00000KT 10SM CLR 15/15 A2993 RMK AO2 T01510151
     $=
KOCQ 241455Z AUTO 05003KT 10SM CLR 04/M03 A3017 RMK AO1
     T00371032=
KOEO 241455Z AUTO 00000KT 10SM SCT033 SCT041 BKN050 04/00 A3018
     RMK AO2 T00360000=
KATY 241453Z AUTO 04009KT 10SM CLR 04/M03 A3012 RMK AO2 SLP215
     T00441033 52005=
KBAF 241453Z 23003KT 10SM OVC029 09/03 A3003 RMK AO2 SLP170
     T00940033 53003=
KGRB 241453Z 00000KT 10SM CLR 06/M03 A3016 RMK AO2 SLP219
     T00611028 51008=
KHIB 241453Z AUTO 00000KT 10SM CLR 02/M09 A3014 RMK AO2 SLP226
     T00221089 51006=
KHSI 241453Z AUTO 23010G17KT 10SM CLR 12/M01 A3001 RMK AO2 SLP164
     T01221011 50006=
KHUF 241453Z 24006KT 10SM CLR 08/M04 A3026 RMK AO2 SLP250
     T00781039 51008=
KHUL 241453Z AUTO VRB04KT 10SM OVC009 05/01 A3018 RMK AO2 SLP225
     T00500011 51003=
KLHQ 241453Z AUTO 30010KT 10SM SCT042 OVC060 07/M02 A3018 RMK AO2
     SLP225 T00671022 53006=
KLNL 241455Z AUTO 00000KT 10SM BKN041 BKN049 03/M08 A3013 RMK AO2
     T00311082=
KLNS 241453Z VRB03KT 10SM SCT045 12/02 A3009 RMK AO2 SLP190
     T01170017 58005=
KTTN 241453Z 33004KT 10SM CLR 12/01 A3006 RMK AO2 SLP175 T01170006
     58004=
KTVC 241453Z 32006KT 10SM SCT037 BKN250 05/M03 A3014 RMK AO2
     SLP211 T00501033 50007=
KTWM 241455Z AUTO 07006KT 10SM CLR 02/M05 A3015 RMK AO2=
KHHR 241453Z 11005KT 10SM OVC015 17/12 A2991 RMK AO2 SLP127
     T01670117 51014=
KHLN 241453Z 00000KT 10SM SCT060 07/01 A2979 RMK AO2 SLP098 60001
     T00670006 58000=
KHOU 241453Z 04010KT 10SM SCT055 OVC070 15/09 A3009 RMK AO2 SLP194
     T01500089 51015=
KHQM 241453Z AUTO 28003KT 10SM FEW030 09/07 A3007 RMK AO2 SLP187
     T00940067 51023=
KLOL 241453Z AUTO 35005KT 10SM CLR 11/M02 A2993 RMK AO2 SLP115
     T01061022 53005=
KLVS 241453Z AUTO 19013KT 10SM CLR 08/00 A2995 RMK AO2 SLP093
     T00780000 58007=
KTIW 241453Z 23006KT 10SM BKN007 OVC012 08/06 A3007 RMK AO2 SLP186
     T00780061 53034=
KTOR 241453Z AUTO 15005KT 10SM CLR 07/M04 A2988 RMK AO2 SLP118
     T00671044 50003=
KTRL 241453Z AUTO 07009KT 10SM BKN100 12/02 A3017 RMK AO2 SLP216
     T01220022 51008=
KTTD 241453Z 00000KT 10SM FEW015 BKN042 OVC055 10/06 A3012 RMK AO2
     RAB16E44 SLP200 P0000 60000 T01000061 53025=
KTVL 241453Z AUTO 17004KT 10SM CLR 02/M03 A3004 RMK AO2 SLP157
     T00171033 53000=
KGKJ 241453Z AUTO 30006KT 10SM SCT009 BKN013 OVC035 03/01 A3009
     RMK AO2 UPB01E05SNE01 SLP198 P0000 60000 T00330006 53007=
KGRI 241453Z 21004KT 10SM FEW110 10/M03 A3002 RMK AO2 SLP177
     T01001033 50006=
KGSH 241453Z AUTO 26008KT 10SM FEW035 BKN075 07/00 A3019 RMK AO2
     SLP231 60000 T00670000 51007=
KHLG 241453Z 29014G19KT 10SM FEW033 BKN042 OVC060 06/M03 A3013 RMK
     AO2 SLP212 T00611033 51005=
KHVN 241453Z 16008KT 10SM CLR 12/06 A3004 RMK AO2 SLP172 T01220061
     53003=
KHYR 241453Z AUTO VRB05KT 10SM FEW031 04/M04 A3013 RMK AO2 SLP218
     T00391044 51004=
KHYX 241455Z AUTO 27006KT 10SM SCT022 BKN034 OVC050 05/01 A3015
     RMK AO2 T00450011=
KHZE 241455Z AUTO 10007KT 10SM CLR 04/M00 A3011 RMK AO2=
KI68 241455Z AUTO 33009KT 10SM 06/M01 A3021 RMK AO1 6////
     T00571011=
KLEB 241453Z 06007KT 10SM FEW010 BKN014 OVC045 10/06 A3000 RMK AO2
     SLP159 60001 T01000061 56002=
KLPR 241453Z AUTO 35005KT 10SM -RA FEW019 OVC029 03/01 A3017 RMK
     AO2 RAB47SNE12 SLP222 P0000 60004 T00280011 53008=
KLUK 241453Z VRB03KT 10SM OVC042 07/M01 A3024 RMK AO2 SLP242
     T00721011 53009=
KLWV 241453Z AUTO 00000KT 10SM CLR 09/M03 A3027 RMK AO2 SLP252
     T00891028 51007=
