SAUS80 KWBC 241500 RRB
METAR
K12N 241454Z AUTO VRB04KT 12/01 A3005 RMK AO1 SLP178 T01220006
     58007=
K9MN 241455Z AUTO 31003KT 10SM SCT020 BKN055 OVC070 04/M01 A3015
     RMK AO1 T00381010=
KBIH 241456Z AUTO 00000KT 10SM CLR 12/M02 A2996 RMK AO2 SLP114
     T01171017 51011=
KBZN 241456Z 00000KT 10SM FEW080 FEW100 08/M01 A2980 RMK AO2
     SLP086 T00831011 55002=
KCAE 241456Z 05009KT 10SM OVC060 14/04 A3013 RMK AO2 SLP202
     T01440039 53013=
KCHS 241456Z 36003KT 10SM FEW060 SCT120 BKN250 21/05 A3009 RMK AO2
     SLP190 T02110050 53015=
KEDU 241455Z AUTO 00000KT 10SM CLR 12/09 A2994 RMK AO1=
KFSD 241456Z 06005KT 10SM FEW100 FEW250 09/M04 A3010 RMK AO2
     SLP203 T00891039 50003 $=
KGNG 241500Z AUTO 00000KT 10SM FEW048 SCT065 SCT075 08/08 A2987
     RMK AO2=
KHTH 241455Z AUTO 00000KT 10SM CLR 13/M02 A2996 RMK A01=
KINW 241456Z AUTO 31008KT 10SM CLR 13/04 A2997 RMK AO2 SLP100
     T01330039 50010=
KJAX 241456Z 03008KT 10SM FEW030 FEW070 BKN150 BKN250 23/17 A3006
     RMK AO2 SLP178 T02330167 51018=
KLWS 241456Z 33010KT 10SM SCT060 OVC100 10/02 A2993 RMK AO2 SLP135
     T01000017 51014=
KMKN 241455Z AUTO 12005KT 10SM 11/11 A3015 RMK AO2 T01050105=
KMOB 241456Z 03010KT 10SM OVC100 17/07 A3010 RMK AO2 SLP192
     T01720072 50010=
KO86 241455Z AUTO 00000KT 10SM 04/M00 A3004 RMK A01=
KOFK 241456Z AUTO 08010KT 10SM OVC120 08/M03 A3004 RMK AO2 SLP181
     T00831033 50001=
KRFI 241455Z AUTO 08006KT 10SM OVC095 15/00 A3018 RMK AO2
     T01460004=
KS39 241455Z AUTO 28012KT 10SM CLR 06/M01 A3003 RMK AO2=
KSDM 241453Z COR 00000KT 5SM HZ OVC012 14/11 A2990 RMK AO2 SLP123
     T01390106 51006=
KSFO 241456Z 28013KT 10SM FEW250 12/07 A3000 RMK AO2 SLP157
     T01170072 53008 $=
KVTI 241455Z AUTO 18006KT 10SM CLR 11/M04 A3018 RMK AO2
     T01051036=
KWMC 241456Z AUTO 17004KT 10SM CLR 11/02 A2991 RMK AO2 SLP108
     T01110022 53004=
TJSJ 241456Z 36008KT 10SM SCT032 SCT140 27/22 A2992 RMK AO2 SLP131
     60000 T02720217 51012=
K2I0 241455Z AUTO 06006KT 10SM CLR 10/M01 A3029 RMK AO2
     T01011014=
K40U 241455Z AUTO 00000KT 10SM CLR 04/M04 A2995 RMK AO2
     T00361043=
K48A 241455Z AUTO 35010KT 10SM SCT120 17/04 A3012 RMK AO2
     T01680045=
K9V9 241455Z AUTO 13008KT 10SM CLR 10/M04 A3006 RMK AO2
     T00981041=
KAYS 241455Z AUTO 07003KT 10SM OVC110 19/08 A3011 RMK AO2
     T01890080=
KCKP 241455Z AUTO 17006KT 10SM CLR 09/M01 A3011 RMK AO2
     T00901009=
KCTY 241455Z AUTO 35005KT 10SM SCT085 BKN110 21/16 A3005 RMK
     AO2=
PAJN 241453Z COR 12019G25KT 6SM -RA BR FEW010 BKN042 OVC060 06/03
     A2964 RMK AO2 SLP038 P0002 60005 T00560028 51006=
KDBN 241455Z AUTO 04005KT 10SM CLR 18/05 A3015 RMK AO2=
KFLG 241457Z AUTO 00000KT 10SM CLR 11/00 A3002 RMK AO2 SLP089
     T01110000 53006=
KEHA 241455Z AUTO 19019G24KT 10SM OVC032 08/02 A3001 RMK AO2
     T00800016=
KGIC 241455Z AUTO 11006KT 10SM BKN019 OVC026 00/00 A2993 RMK AO1
     P0003=
KIZA 241455Z AUTO 00000KT 7SM OVC003 09/09 A2994 RMK AO2=
KSYR 241454Z 29008KT 10SM -RA SCT024 BKN042 OVC070 09/02 A3007 RMK
     AO2 RAB43 SLP180 P0000 60000 T00890017 51003=
KPSN 241455Z AUTO VRB06KT 10SM BKN095 13/08 A3013 RMK AO2=
KSOA 241455Z AUTO 00000KT 10SM OVC008 11/09 A3014 RMK AO2=
KCUL 241456Z AUTO 16003KT 10SM CLR 10/M03 A3027 RMK AO2=
KDVK 241450Z AUTO 32006KT 10SM CLR 08/M01 A3024 RMK AO2=
