SAUS70 KWBC 241500 RRP
METAR
PAPB 241453Z AUTO 13020G26KT 2SM -RA FEW010 OVC016 06/M01 A2970
     RMK AO2 PK WND 13026/1446 SLP046 P0000 60000 T00611011 58042
     TSNO $=
K04W 241459Z AUTO 03004KT 10SM SCT037 BKN044 OVC080 05/M05 A3014
     RMK AO2=
KAAA 241458Z AUTO 24004KT 10SM CLR 09/M02 A3025 RMK AO2=
KDED 241450Z AUTO 04009KT 10SM BKN031 25/18 A3004 RMK AO2
     T02470176=
KEAN 241450Z AUTO 31005KT 10SM CLR 12/M06 A2987 RMK AO2
     T01161063=
KETN 241450Z AUTO 15010KT 10SM SCT011 OVC060 10/07 A3015 RMK AO2
     T00970068=
KVVS 241450Z AUTO 27009KT 10SM -RA SCT031 SCT037 OVC050 05/M02
     A3014 RMK AO2 T00481020=
PAPB 241453Z AUTO 13020G26KT 2SM -RA FEW010 OVC016 06/M01 A2970
     RMK AO2 PK WND 13026/1446 SLP046 P0000 60000 T00611011 58042
     TSNO $=
KAKO 241453Z AUTO 29006KT 10SM BKN090 09/M02 A2990 RMK AO2 SLP115
     T00941022 50004 TSNO=
KNSE 241456Z 03009KT 10SM FEW040 BKN120 BKN160 16/09 A3010 RMK AO2
     SLP179 T01610089 51015=
KGLE 241455Z AUTO 14009KT 10SM BKN090 14/05 A3018 RMK AO2
     T01390051=
KCMY 241455Z AUTO 00000KT 10SM FEW012 BKN041 BKN060 03/02 A3016
     RMK AO2 SLP227 T00310015 50004 FZRANO $=
KGOV 241455Z AUTO 32008KT 10SM OVC028 03/M04 A3011 RMK AO2 SLP215
     60000 T00261042 52007 $=
KAHQ 241455Z AUTO 00000KT 10SM BKN100 BKN120 08/M01 A3007 RMK AO2
     T00811012=
KAPG 241455Z 30004KT 8SM SCT050 12/00 A3011 RMK AO2A=
KBBB 241457Z AUTO 00000KT 10SM CLR 03/M01 A3017 RMK AO2=
KBTA 241455Z AUTO 11005KT 10SM CLR 08/M01 A3007 RMK AO2
     T00801013=
KCBF 241455Z AUTO VRB04KT 10SM CLR 08/M03 A3006 RMK AO2=
KCIN 241455Z AUTO 15015KT 10SM FEW100 11/M04 A3010 RMK AO2=
KGOV 241455Z AUTO 32008KT 10SM OVC028 03/M04 A3011 RMK AO2 SLP215
     60000 T00261042 52007 $=
K05U 241450Z AUTO 24006KT 10SM 07/03 A2998 RMK A01=
K46U 241455Z AUTO 00000KT 10SM FEW043 OVC075 00/M03 A2993 RMK
     A01=
K5T9 241455Z AUTO 06007KT 9SM BKN009 BKN013 14/13 A3007 RMK
     A01=
K6R3 241455Z AUTO 08003KT 10SM OVC080 15/09 A3013 RMK AO2
     T01480090 TSNO=
KA39 241455Z AUTO 13009KT 10SM CLR 23/M04 A2984 RMK AO2=
KAUN 241455Z AUTO 00000KT 10SM CLR 15/07 A2995 RMK A01=
KAVQ 241455Z AUTO 11009KT 10SM 22/M05 A2984 RMK AO2 T02201054=
KBDN 241455Z AUTO 03004KT 10SM BKN049 05/M01 A3002 RMK AO2=
KBPG 241455Z AUTO 09007KT 10SM OVC008 09/07 A3009 RMK AO2
     T00890068=
KBYY 241455Z AUTO 05008KT 10SM OVC021 14/11 A3010 RMK AO2
     T01410112=
KCFD 241455Z AUTO 03007KT 10SM OVC060 12/08 A3014 RMK AO2
     T01210079=
KEFD 241454Z 04008KT 10SM BKN065 15/09 A3008=
KO69 241455Z AUTO 28007KT 10SM CLR 09/06 A2999 RMK A01=
KPRS 241455Z AUTO 08004KT 10SM CLR 14/07 A3005 RMK AO2
     T01420074=
KRDM 241456Z 29010G15KT 10SM FEW060 07/M02 A3002 RMK AO2 SLP166
     T00721022 53017=
KVCV 241455Z 26013G21KT 10SM CLR 16/05 A2994 RMK AO2=
K81R 241455Z AUTO 12005KT 10SM BKN008 OVC031 10/08 A3016 RMK AO2
     T01020083=
KCOM 241455Z AUTO 15004KT 10SM OVC008 10/07 A3015 RMK AO2 60001
     T00950070=
KDUG 241456Z AUTO 17007KT 10SM CLR 18/M07 A2997 RMK AO2 SLP091
     T01831072 51010 TSNO=
KWJF 241456Z 28017KT 10SM CLR 18/08 A2991 RMK AO2 SLP116 T01780083
     53017=
KBTN 241455Z AUTO 05009KT 10SM CLR 03/M03 A3014 RMK AO2=
KCNC 241455Z AUTO 16010KT 10SM FEW075 09/M03 A3015 RMK AO2=
KDCY 241455Z AUTO 00000KT 10SM CLR 07/M05 A3027 RMK AO2
     T00721050=
KDEH 241455Z AUTO VRB03KT 10SM SCT065 BKN080 BKN095 06/M03 A3014
     RMK AO2=
KDNS 241455Z AUTO RMK AO2 PNO PWINO=
KENL 241455Z AUTO 00000KT 10SM CLR 10/01 A3026 RMK AO2
     T01000007=
KEOK 241455Z AUTO 00000KT 10SM FEW065 09/M02 A3022 RMK A01=
