SAUS70 KWBC 241500 RRT
METAR
KI63 241455Z AUTO 19005KT 10SM SCT055 SCT070 SCT080 10/M03 A3023
     RMK AO2 T00971027=
KIFA 241455Z AUTO 18005KT 10SM CLR 09/00 A3016 RMK AO2
     T00901005=
KIIB 241455Z AUTO 21009KT 10SM CLR 08/M04 A3019 RMK AO2
     T00771037=
KIJX 241455Z AUTO 21006KT 10SM CLR 10/M03 A3024 RMK AO2
     T00981032=
KIKV 241455Z AUTO 17009KT 10SM BKN075 09/M03 A3016 RMK AO2=
KLNR 241456Z AUTO 23003KT 10SM OVC050 05/M03 A3019 RMK AO2 SLP225
     T00501033 51005=
KMCD 241455Z AUTO 27011KT 10SM BKN016 BKN020 OVC034 02/M01 A3010
     RMK AO2 T00161015=
KMDT 241456Z 29007KT 10SM FEW047 11/01 A3009 RMK AO2 SLP191
     T01110011 58006=
K6S8 241455Z AUTO 00000KT 10SM 07/M01 A2982 RMK A01 LAUREL=
KHRX 241455Z AUTO 21010KT 10SM SCT015 OVC022 08/04 A3006 RMK AO2
     T00770035=
KHVE 241455Z AUTO 00000KT 10SM CLR 10/05 A2993 RMK AO2=
KJTC 241455Z AUTO 25015G21KT 10SM CLR 15/M05 A3003 RMK AO2=
KRTS 241455Z AUTO 29008KT 10SM CLR 11/00 A2999 RMK AO2=
KRYN 241450Z AUTO 10005KT 10SM CLR 21/M06 A2986 RMK AO2=
KSLE 241456Z 19006KT 10SM FEW010 SCT050 09/07 A3012 RMK AO2 SLP201
     60000 T00890067 52018=
KSTK 241455Z AUTO 00000KT 10SM SCT090 06/M01 A2990 RMK AO2=
KT89 241455Z AUTO VRB04KT 10SM CLR 14/06 A3003 RMK A01=
KNSE 241456Z 03009KT 10SM FEW040 BKN120 BKN160 16/09 A3010 RMK AO2
     SLP179 T01610089 51015=
KBUR 241453Z 16004KT 5SM HZ OVC014 14/12 A2990 RMK AO2 SLP114
     T01440117 51014=
