SAUS80 KWBC 241446
METAR
KCUL 241436Z AUTO 00000KT 10SM CLR 10/M02 A3027 RMK AO2=
KNY0 241434Z AUTO 33007KT 10SM BKN021 BKN032 OVC080 06/02 A3003
     RMK AO2=
