SAUS70 KWBC 241522 RRE
METAR
KSJS 241515Z AUTO 34005KT 10SM SCT050 09/M03 A3020 RMK AO2
     T00941031=
KSLB 241515Z AUTO 18007KT 10SM CLR 10/M04 A3010 RMK AO2=
KSLR 241515Z AUTO 11008KT 10SM SCT110 14/05 A3020 RMK AO2
     T01370054=
KSWW 241515Z AUTO 17006KT 10SM OVC019 11/11 A3013 RMK AO2
     T01130113=
KSXK 241515Z AUTO 18008KT 10SM CLR 10/M03 A3008 RMK AO2=
KSXU 241515Z AUTO 18008KT 10SM OVC013 07/03 A3000 RMK AO2
     T00650026=
KSZT 241515Z AUTO 22004KT 10SM OVC021 06/03 A2988 RMK AO2=
KT20 241515Z AUTO 03005KT 10SM OVC024 15/11 A3011 RMK AO2
     T01510110=
KT35 241515Z AUTO 03006KT 10SM SCT045 OVC060 12/08 A3014 RMK AO2
     T01190082=
KT41 241515Z AUTO 05008KT 10SM SCT046 OVC080 16/10 A3010 RMK AO2
     T01560095=
KT74 241515Z AUTO 01007KT 10SM SCT012 OVC042 12/09 A3014 RMK AO2
     T01180086=
KTAZ 241515Z AUTO 32003KT 10SM CLR 10/M03 A3025 RMK AO2
     T00971032=
KUMP 241515Z AUTO 33006KT 10SM CLR 08/M02 A3024 RMK AO2
     T00801025=
KEOK 241515Z AUTO 19006KT 10SM FEW060 11/M03 A3021 RMK A01=
KFFL 241515Z AUTO 22010KT 10SM FEW070 FEW085 10/M06 A3019 RMK
     A01=
KGPC 241515Z AUTO 34007KT 10SM CLR 08/M04 A3025 RMK AO2
     T00781038=
KGWB 241515Z AUTO 27006G09KT 10SM SCT037 SCT050 OVC065 05/M01
     A3020 RMK AO2=
KHDE 241515Z AUTO 21014G17KT 10SM SCT100 12/00 A2998 RMK AO2
     T01201005=
KHMZ 241515Z AUTO 27007G15KT 10SM SCT060 OVC070 07/M04 A3010 RMK
     AO2 T00741044=
KHNR 241515Z AUTO VRB05KT 10SM CLR 10/M01 A3009 RMK A01=
KHPT 241515Z AUTO 22007G14KT 10SM CLR 11/M02 A3014 RMK AO2=
KI75 241515Z AUTO 14015G19KT 10SM CLR 11/M02 A3013 RMK AO2
     T01131022=
KI95 241515Z AUTO 31011KT 10SM SCT021 BKN026 OVC060 05/01 A3017
     RMK A01=
KIBM 241515Z AUTO 24006KT 10SM CLR 12/M03 A2990 RMK AO2
     T01181031=
KICL 241515Z AUTO RMK AO2 PNO PWINO=
KIIB 241515Z AUTO 22008KT 10SM CLR 08/M03 A3019 RMK AO2=
KIKV 241515Z AUTO 16008KT 10SM SCT075 09/M03 A3016 RMK AO2=
KJOT 241515Z AUTO 29008KT 10SM SCT050 09/M03 A3022 RMK AO2
     T00881026=
KJYR 241515Z AUTO 21006KT 10SM CLR 09/M02 A3003 RMK AO2=
KLCG 241515Z AUTO 10007KT 10SM BKN110 09/M03 A3007 RMK AO2
     T00901026=
KLNN 241515Z AUTO 31011KT 10SM BKN027 BKN034 OVC080 06/00 A3015
     RMK AO1 T00571002=
KLXN 241515Z AUTO 23008G15KT 10SM CLR 13/00 A2998 RMK AO2
     T01281002=
KMWO 241515Z AUTO 34006KT 10SM SCT039 BKN048 OVC055 06/M04 A3024
     RMK AO2 T00631037=
KMZZ 241515Z AUTO 29011KT 10SM SCT036 BKN042 06/M02 A3023 RMK AO2
     T00561018=
KONL 241515Z AUTO 09015KT 10SM CLR 10/M05 A3004 RMK AO2
     T01001055=
K06C 241515Z AUTO 28007KT 10SM SCT049 07/M01 A3020 RMK AO2
     T00721012=
K1H2 241515Z AUTO 31004KT 10SM CLR 09/M03 A3027 RMK AO2
     T00941027=
KADU 241515Z AUTO 00000KT 10SM BKN002 BKN034 OVC080 10/M03 A3009
     RMK AO2=
KAFK 241515Z AUTO 22010KT 10SM SCT060 SCT075 OVC095 10/00 A3008
     RMK AO2 T00991001=
KAHQ 241515Z AUTO 15008KT 10SM OVC100 09/M01 A3005 RMK AO2
     T00881010=
KAIO 241515Z AUTO 18007KT 10SM CLR 10/M01 A3008 RMK AO2=
KANW 241515Z AUTO 11010KT 10SM CLR 09/M05 A3000 RMK AO2
     T00881049=
KASW 241515Z AUTO 27012KT 10SM BKN038 BKN046 BKN070 07/M01 A3021
     RMK AO2 T00701014=
KAWG 241515Z AUTO 22010KT 10SM CLR 11/M02 A3018 RMK AO2=
KAXA 241515Z AUTO 21007KT 10SM CLR 09/M01 A3012 RMK A01=
KBNW 241515Z AUTO 20011KT 10SM SCT080 09/M03 A3012 RMK AO2=
KC65 241515Z AUTO 29008G13KT 10SM OVC060 06/M03 A3020 RMK A01=
KCAV 241515Z AUTO 22009KT 10SM CLR 09/M00 A3013 RMK A01=
KCIN 241515Z AUTO 15012KT 10SM FEW060 FEW095 10/M04 A3010 RMK
     AO2=
KDCY 241515Z AUTO 00000KT 10SM CLR 08/M05 A3027 RMK AO2
     T00771050=
