SAUS80 KWBC 241514
METAR
KAID 241515Z AUTO 31006G14KT 10SM SCT039 SCT045 07/M05 A3023 RMK
     AO2 T00681047=
KCBE 241505Z AUTO 35007KT 10SM BKN060 OVC065 08/M02 A3017 RMK AO2
     T00851024=
