SAUS80 KWBC 241500 RRB
METAR
KDBQ 241453Z 23006KT 10SM OVC070 07/M01 A3019 RMK AO2 SLP231
     T00671011 51006=
KFAR 241453Z 03006KT 10SM CLR 04/M01 A3018 RMK AO2 SLP232
     T00391011 50003=
KPOV 241455Z AUTO 30004KT 10SM SCT014 BKN019 OVC030 04/00 A3011
     RMK AO2 T00430000 PWINO=
KROS 241455Z AUTO 00000KT 10SM SCT055 07/M01 A3015 RMK AO2
     T00701008=
KDAL 241453Z VRB06KT 10SM FEW070 BKN100 13/03 A3016 RMK AO2 SLP211
     T01330028 50001=
KDMN 241453Z AUTO 05005KT 10SM CLR 14/01 A2997 RMK AO2 SLP087
     T01440011 51013=
KFAT 241453Z 28004KT 10SM FEW200 16/10 A2993 RMK AO2 SLP133
     T01560100 53010=
PHJR 241453Z AUTO 01004KT 10SM CLR 20/17 A2997 RMK AO2 SLP155
     T02000172 56010 TSNO=
KLBB 241453Z 15011KT 9SM OVC008 07/04 A3007 RMK AO2 SLP172
     T00720044 58002=
KPDX 241453Z 22005KT 10SM FEW015 BKN055 BKN080 09/06 A3012 RMK AO2
     SLP200 T00940056 53025=
KATT 241451Z AUTO 36004KT 10SM OVC033 13/10 A3013 RMK AO2 SLP201
     T01280100 51007=
KDRA 241453Z AUTO 02008KT 10SM CLR 18/02 A2989 RMK AO2 SLP083
     T01830022 51014 $=
KP69 241452Z AUTO 00000KT 06/04 A2998 RMK AO1 SLP157 P0004 60019
     T00560039 51019=
KREO 241452Z AUTO 30007KT 08/01 A2992 RMK AO1 SLP128 T00780006
     51022=
KELY 241453Z AUTO 19010KT 10SM CLR 03/01 A2997 RMK AO2 SLP123
     T00280011 53001 $=
KRIW 241453Z AUTO 22004KT 10SM CLR 05/M04 A2985 RMK AO2 SLP096
     T00501044 50000=
KRQE 241453Z AUTO 35006KT 10SM BKN090 09/01 A3002 RMK AO2 SLP092
     T00940006 51004=
KSEA 241453Z 22006KT 7SM BKN009 OVC015 07/05 A3006 RMK AO2 SLP186
     60000 T00720050 53029=
KRNM 241453Z 00000KT 1 3/4SM BR OVC003 12/11 A2990 RMK AO2 SLP118
     T01170111 53003=
KSDM 241453Z 00000KT 6SM HZ OVC012 14/11 A2990 RMK AO2 SLP123
     T01390106 51006=
KP68 241453Z AUTO 24005KT 07/03 A2996 RMK AO1 SLP110 T00720033
     55001=
KDAB 241453Z 07011KT 10SM SCT047 OVC200 25/17 A3004 RMK AO2 SLP170
     T02500167 53018=
KSAV 241453Z 03007KT 10SM SCT130 BKN170 21/07 A3009 RMK AO2 SLP190
     T02110067 53010=
KDLH 241455Z 11005KT 10SM OVC060 02/M05 A3014 RMK AO2 SLP224
     T00171050 51007=
KDVL 241456Z AUTO 04006KT 10SM OVC042 02/M06 A3021 RMK AO2 SLP263
     T00221061 53016 FZRANO=
KDWU 241456Z AUTO VRB06KT 10SM SCT055 10/M02 A3020 RMK AO2 SLP227
     T01001017 55001=
KEAR 241456Z AUTO 21012KT 10SM BKN100 12/M02 A3000 RMK AO2 SLP164
     T01171017 51006=
KFWA 241454Z COR 29006KT 10SM FEW018 BKN023 BKN055 06/M02 A3020
     RMK SLPNO=
KAAT 241455Z AUTO 24005KT 10SM CLR 04/M01 A3003 RMK AO2 SLP161
     T00391011 51021=
KANJ 241455Z AUTO 28006KT 1SM -SN BR BKN005 OVC015 01/01 A3007 RMK
     AO2 SLP188 P0003 60005 T00110006 50007=
KAST 241455Z AUTO 21003KT 10SM SCT029 OVC035 08/07 A3010 RMK AO2
     RAB20E31 SLP192 P0000 60000 T00780067 51012=
KCAO 241455Z AUTO 22017G27KT 10SM OVC016 06/02 A2994 RMK AO2 PK
     WND 21031/1404 SLP124 T00610017 56002=
KCNK 241455Z AUTO 22011KT 10SM CLR 13/M02 A3006 RMK AO2 SLP179
     T01281022 51009=
KN60 241452Z AUTO 12008KT 02/M02 A3010 RMK AO1 SLP213 T00221022
     50002=
KNUI 241453Z AUTO VRB06KT 10SM OVC075 12/01 A3012 RMK AO2 SLP198
     T01170006 53004=
KP59 241451Z AUTO 05010KT 01/M01 A3016 RMK AO1 SLP223 P0001 60009
     T00111011 51009=
KSTC 241453Z 35006KT 10SM SCT032 06/M03 A3014 RMK AO2 SLP225 6////
     T00561033 50003 PNO $=
KRNO 241455Z 21004KT 10SM CLR 11/M02 A2998 RMK AO2 SLP119
     T01061022 53003=
KSCK 241455Z 30004KT 10SM CLR 14/08 A2993 RMK AO2 SLP136 T01390078
     53007=
KSHV 241456Z 09008G15KT 10SM BKN110 15/05 A3017 RMK SLPNO=
