SAUS70 KWBC 241500 RRH
METAR
KMIW 241453Z AUTO 22007KT 10SM BKN085 10/M02 A3015 RMK AO2 SLP216
     T01001022 58002=
KMJQ 241455Z AUTO 03007KT 10SM CLR 06/M03 A3013 RMK AO2=
KMKL 241453Z 08005KT 10SM CLR 12/02 A3025 RMK AO2 SLP245 T01170017
     51012=
KMKO 241453Z AUTO 15010KT 10SM CLR 13/03 A3021 RMK AO2 SLP228
     T01330033 50006=
KLBX 241453Z AUTO 36007KT 10SM OVC049 13/11 A3009 RMK AO2 RAE43
     SLP190 P0001 60006 T01280111 51005=
KLCH 241453Z 06012KT 10SM BKN095 14/08 A3011 RMK AO2 SLP202
     T01440078 51021=
KLEB 241453Z 06007KT 10SM FEW010 BKN014 OVC045 10/06 A3000 RMK AO2
     SLP159 60001 T01000061 56002=
KLEE 241453Z 05011KT 10SM CLR 23/19 A3002 RMK AO2 SLP166 T02280189
     50013=
KLFK 241453Z AUTO 08009G14KT 10SM OVC055 13/07 A3014 RMK AO2
     SLP205 T01330072 51014=
KLFT 241453Z 05008G16KT 10SM OVC070 16/09 A3010 RMK AO2 SLP191
     T01560094 51017=
KLGB 241453Z 13006KT 9SM OVC016 16/11 A2990 RMK AO2 SLP126
     T01560111 51014=
KLHQ 241453Z AUTO 30010KT 10SM SCT042 OVC060 07/M02 A3018 RMK AO2
     SLP225 T00671022 53006=
KLHX 241453Z AUTO 29007KT 10SM FEW120 08/M01 A2989 RMK AO2 SLP103
     T00781006=
KLLQ 241453Z AUTO 04010KT 10SM CLR 15/04 A3020 RMK AO2 SLP226
     T01500044 51008=
KLMT 241453Z VRB03KT 10SM CLR 03/M02 A3005 RMK AO2 SLP169
     T00331017 53015=
KLNL 241455Z AUTO 00000KT 10SM BKN041 BKN049 03/M08 A3013 RMK AO2
     T00311082=
KLNS 241453Z VRB03KT 10SM SCT045 12/02 A3009 RMK AO2 SLP190
     T01170017 58005=
KLOL 241453Z AUTO 35005KT 10SM CLR 11/M02 A2993 RMK AO2 SLP115
     T01061022 53005=
KLOU 241453Z 30007G18KT 280V350 10SM CLR 08/M06 A3025 RMK AO2
     SLP247 T00781056 53008=
KLOZ 241453Z AUTO 10/M02 A3022 RMK AO2 SLP233 T01001017 51007
     $=
KLPR 241453Z AUTO 35005KT 10SM -RA FEW019 OVC029 03/01 A3017 RMK
     AO2 RAB47SNE12 SLP222 P0000 60004 T00280011 53008=
KLQK 241455Z AUTO 00000KT 10SM CLR 14/01 A3014 RMK AO2
     T01410010=
KLRY 241455Z AUTO 23004KT 10SM CLR 11/M01 A3020 RMK AO2=
KLUK 241453Z VRB03KT 10SM OVC042 07/M01 A3024 RMK AO2 SLP242
     T00721011 53009=
KLUX 241455Z AUTO 08007KT 10SM CLR 13/02 A3015 RMK AO2=
KLVJ 241453Z AUTO 06009KT 10SM SCT032 BKN055 OVC080 16/09 A3010
     RMK AO2 SLP192 T01560094 51015=
KLVK 241453Z 31005KT 7SM CLR 11/07 A2998 RMK AO2 SLP152 T01060072
     53010=
KLVM 241453Z AUTO 10004KT 10SM OVC085 09/M02 A2980 RMK AO2 SLP077
     T00941022 57003=
KLVS 241453Z AUTO 19013KT 10SM CLR 08/00 A2995 RMK AO2 SLP093
     T00780000 58007=
KLWV 241453Z AUTO 00000KT 10SM CLR 09/M03 A3027 RMK AO2 SLP252
     T00891028 51007=
KLXT 241453Z AUTO 20010KT 10SM CLR 11/M02 A3017 RMK AO2 SLP219
     T01111017 51008=
KHHR 241453Z 11005KT 10SM OVC015 17/12 A2991 RMK AO2 SLP127
     T01670117 51014=
KHIB 241453Z AUTO 00000KT 10SM CLR 02/M09 A3014 RMK AO2 SLP226
     T00221089 51006=
KHIO 241453Z 20004KT 10SM BKN038 08/06 A3011 RMK AO2 SLP196
     T00830056 51023=
KHJO 241453Z AUTO 31005KT 10SM CLR 17/10 A2995 RMK AO2 SLP143
     T01670100 51016=
KHKA 241453Z AUTO VRB05KT 10SM CLR 13/04 A3025 RMK AO2 SLP244
     T01280039 51015 $=
KHKS 241453Z 07010G17KT 10SM 14/03 A3016 RMK AO2 SLP206 T01390033
     $=
KHKY 241453Z 06004KT 10SM CLR 12/00 A3014 RMK AO2 SLP195 T01220000
     53005=
KHLG 241453Z 29014G19KT 10SM FEW033 BKN042 OVC060 06/M03 A3013 RMK
     AO2 SLP212 T00611033 51005=
KHLN 241453Z 00000KT 10SM SCT060 07/01 A2979 RMK AO2 SLP098 60001
     T00670006 58000=
KHOT 241453Z AUTO 00000KT 10SM CLR 11/08 A3022 RMK AO2 SLP233
     T01110078 51003=
KHOU 241453Z 04010KT 10SM SCT055 OVC070 15/09 A3009 RMK AO2 SLP194
     T01500089 51015=
