SAUS70 KWBC 241600
METAR
KLDJ 241555Z AUTO 02004KT 10SM CLR 13/M01 A3005 RMK AO2
     T01321013=
