SAUS70 KWBC 241500 RRT
METAR
PADL 241456Z AUTO 02009KT 10SM OVC036 M07/M14 A2982 RMK AO2 SLP101
     T10671139 56010 FZRANO=
PADM 241456Z AUTO 36010KT 10SM CLR M11/M16 A2998 RMK AO2 SLP158
     T11061156 58019 FZRANO=
PADU 241456Z 16003KT 7SM -RASN BKN014 OVC020 02/00 A2984 RMK AO2
     UPE11RAB11SNB47 SLP108 P0004 60004 T00170000 58028=
PAFE 241456Z AUTO 15007KT 10SM -RA FEW030 OVC036 04/03 A2975 RMK
     AO2 SLP087 P0003 60010 T00440028 53016 $=
PAFM 241456Z AUTO 02009KT 10SM CLR M11/M18 A3024 RMK AO2 SLP249
     T11061183 56016 FZRANO=
PAGL 241456Z AUTO 04018G23KT 10SM BKN120 M07/M14 A3011 RMK AO2
     SLP192 T10671139 58019 FZRANO=
PAGN 241456Z AUTO 00000KT 10SM FEW034 BKN055 OVC075 05/04 A2969
     RMK AO2 RAE32 SLP042 P0001 60004 T00500044 53004=
PAGS 241456Z AUTO 14011KT 10SM BKN044 OVC055 06/03 A2963 RMK AO2
     SLP033 60000 T00610028 51006=
PAHC 241456Z AUTO 02006KT 10SM CLR M10/M16 A2992 RMK AO2 SLP136
     T11001156 58011 FZRANO=
PAHL 241456Z AUTO 06011G18KT 10SM CLR M09/M16 A3013 RMK AO2 SLP210
     T10941161 56011 FZRANO=
PAHY 241456Z AUTO 10009KT 10SM SCT023 BKN050 06/03 A2983 RMK AO2
     RAE25 SLP099 P0001 60002 T00560033 51013 $=
PAIG 241456Z AUTO 21003KT 10SM CLR M13/M16 A2977 RMK AO2 SLP091
     T11331156 56006 FZRANO $=
PAIN 241456Z AUTO 00000KT 10SM BKN014 M22/M24 A2975 RMK AO2 SLP123
     60000 T12171239 58017 FZRANO=
PAIW 241456Z AUTO 07011G35KT 330V090 10SM CLR M09/M16 A3023 RMK
     AO2 PK WND 03035/1449 SLP238 T10941156 58019 FZRANO=
PAJZ 241456Z AUTO 32006KT 10SM CLR M11/M16 A2985 RMK AO2 SLP115
     T11111161 55007 FZRANO $=
PAKI 241456Z AUTO 10SM CLR M13/M15 A2990 RMK AO2 SLP130 T11281150
     57025 FZRANO $=
PAKP 241456Z AUTO 03008KT 9SM -SN CLR M24/M27 A3026 RMK AO2 SLP335
     P0000 60000 T12391267 58018 FZRANO=
PALG 241456Z AUTO VRB05KT 10SM CLR M09/M15 A2989 RMK AO2 SLP126
     T10941150 58014 FZRANO=
PAMB 241456Z AUTO 06004KT 8SM M07/M13 A2982 RMK AO2 SLP103
     T10671128 58009 FZRANO $=
PAMH 241456Z AUTO 03005KT OVC026 M13/M19 A2986 RMK AO2 SLP122
     T11281194 56008 PWINO FZRANO $=
PAMK 241456Z AUTO 04012KT 10SM BKN085 M09/M11 A3002 RMK AO2 SLP167
     T10891106 58019 FZRANO=
K3T5 241455Z AUTO 04004KT 10SM OVC029 13/11 A3011 RMK AO2
     T01320114=
KALM 241455Z AUTO 31006KT 10SM FEW120 13/01 A2999 RMK AO2=
KATA 241455Z AUTO 10006KT 10SM OVC100 13/05 A3018 RMK AO2 SLP119
     T01300054 $=
KATS 241455Z AUTO 15016G21KT 10SM OVC013 08/05 A3004 RMK AO2=
KBFL 241454Z 00000KT 8SM CLR 17/12 A2995 RMK AO2 SLP137 T01720122
     51011=
KBKS 241455Z AUTO 05010KT 7SM FEW015 18/15 A3004 RMK AO2 SLP132
     T01750146 $=
KBVU 241455Z AUTO 34008KT 10SM CLR 21/03 A2984 RMK AO2=
KBXK 241455Z AUTO 10006KT 10SM CLR 22/M00 A2981 RMK A01=
KCLS 241455Z AUTO VRB04KT 10SM BKN015 08/08 A3010 RMK AO2=
KCNW 241455Z 01005KT 10SM SKC 13/08 A3016=
KCPT 241455Z AUTO 07006KT 10SM SCT090 12/06 A3018 RMK A01=
KCVH 241455Z AUTO 00000KT 1/2SM FG OVC001 09/08 A3002 RMK A01=
KDNA 241455Z AUTO 14010KT 10SM CLR 14/02 A2997 RMK AO2=
KEUG 241454Z 18006KT 10SM FEW016 SCT025 BKN032 09/07 A3016 RMK AO2
     SLP212 T00890067 53018=
KFFZ 241454Z 14009KT 10SM CLR 24/M03 A2980 RMK AO2 SLP067
     T02391033 51013=
KGCN 241454Z VRB03KT 10SM CLR 12/02 A3000 RMK AO2 SLP095 T01170017
     51002=
KHAF 241455Z AUTO 34009G14KT 4SM HZ CLR 10/07 A3002 RMK AO2=
K3N8 241455Z AUTO 03003KT 10SM CLR 01/M01 A3016 RMK AO2
     T00141013=
KAUW 241454Z AUTO 28007KT 10SM BKN040 BKN085 05/M05 A3011 RMK AO2
     SLP212 T00501050 50002=
KBAC 241455Z AUTO 01006KT 10SM OVC049 01/01 A3017 RMK AO2=
