SAUS70 KWBC 241534
METAR
K1S5 241535Z AUTO 00000KT 10SM SCT110 09/03 A2999 RMK AO2
     T00910032=
KBEA 241535Z AUTO 05011KT 10SM CLR 16/13 A3005 RMK AO2
     T01640126=
KBWD 241515Z AUTO 15004KT 10SM FEW013 BKN030 OVC034 11/08 A3015
     RMK AO1=
KDUB 241517Z AUTO 31009KT 10SM BKN050 OVC070 04/M09 A2987 RMK
     AO2=
K1P1 241535Z AUTO 00000KT 10SM OVC015 08/05 A3002 RMK AO2
     T00810054=
K2C8 241535Z AUTO 36005KT 10SM OVC050 02/M03 A3020 RMK AO2=
K2G4 241525Z AUTO 25009G18KT 230V300 10SM BKN038 04/M08 A3007 RMK
     AO2=
K2W6 241529Z AUTO 31004KT 10SM CLR 12/M01 A3013 RMK AO1=
K6L4 241535Z AUTO VRB05KT 10SM FEW050 09/M05 A3017 RMK AO2=
KCGE 241525Z AUTO VRB05KT 10SM SCT090 12/01 A3011 RMK A01=
KCGS 241530Z AUTO 28008G14KT 10SM SCT055 12/M02 A3013 RMK AO2
     T01231018=
KDMW 241525Z AUTO 30005KT 10SM SCT047 BKN060 11/M02 A3010 RMK
     AO2=
KFME 241529Z AUTO 31006KT 10SM SCT055 12/M01 A3014 RMK AO1=
KIUA 241535Z AUTO 32005KT 10SM SCT029 BKN055 OVC110 05/01 A3006
     RMK AO2 P0006 T00460012=
KRID 241535Z AUTO 31009KT 10SM SCT041 OVC050 05/M03 A3022 RMK
     AO2=
KW29 241525Z AUTO 01004KT 10SM CLR 12/00 A3012 RMK AO2
     T01221001=
KY51 241535Z AUTO 27006KT 10SM BKN046 BKN055 05/M01 A3015 RMK AO1
     T00491009=
KBFR 241535Z AUTO 34005KT 10SM CLR 08/M06 A3025 RMK AO2=
KC62 241535Z AUTO 27009G12KT 10SM SCT035 BKN050 OVC060 03/00 A3020
     RMK AO2 T00401005=
KEDC 241515Z AUTO 02009KT 10SM OVC034 12/09 A3012 RMK AO2=
KEFT 241535Z AUTO 28009G15KT 10SM OVC100 07/M05 A3018 RMK AO2
     T00671047=
KETB 241535Z AUTO 27008KT 10SM BKN050 BKN070 06/M06 A3017 RMK
     AO2=
KGAF 241535Z AUTO 00000KT 9SM BKN050 02/M03 A3021 RMK AO2=
KL18 241535Z AUTO 00000KT 7SM OVC008 13/12 A2991 RMK AO2=
KMAW 241535Z AUTO 05006KT 10SM CLR 13/04 A3027 RMK AO1=
KPDC 241535Z AUTO 00000KT 10SM BKN060 BKN070 OVC100 07/M03 A3018
     RMK AO2 T00701032=
KRPD 241535Z AUTO 00000KT 10SM SCT033 OVC042 06/00 A3014 RMK AO2
     T00571003=
KUNU 241535Z AUTO 23008KT 10SM SCT045 06/M04 A3018 RMK AO2
     T00561045=
KVBW 241535Z AUTO 22005KT 10SM SCT050 09/M02 A3012 RMK AO1
     T00881023=
K0V4 241535Z AUTO 16006KT 10SM CLR 12/M01 A3013 RMK AO1=
K3R7 241535Z AUTO 06012G16KT 10SM SCT075 OVC090 16/09 A3010 RMK
     AO2 T01560085=
K4R5 241535Z AUTO 08007KT 10SM CLR 03/M04 A3019 RMK AO2
     T00301040=
KDLL 241535Z AUTO 29007KT 10SM BKN050 OVC070 07/M05 A3017 RMK AO2
     T00651046=
KDVP 241533Z AUTO 04008KT 10SM CLR 05/M06 A3014 RMK AO2
     T00501061=
KINF 241535Z AUTO 09007KT 060V130 7SM CLR 25/20 A3000 RMK AO2=
KLUM 241535Z 00000KT 10SM SCT035 SCT050 07/M04 A3015 RMK AO2
     T00681040 PWINO=
KSUW 241535Z AUTO 04009KT 10SM SCT013 03/M01 A3018 RMK AO2
     T00331011=
KVNW 241535Z AUTO 30009KT 10SM SCT036 OVC060 06/M03 A3021 RMK
     AO2=
