SAUS70 KWBC 241500 RRD
METAR
KAOO 241453Z AUTO 29008KT 10SM BKN040 OVC070 08/M02 A3008 RMK AO2
     SLP195 T00781022 58002=
KAPA 241453Z 00000KT 10SM FEW080 BKN130 BKN200 07/M03 A2992 RMK
     AO2 SLP123 T00671028 50006=
KAPF 241453Z 16005KT 10SM FEW025 28/22 A2996 RMK AO2 SLP145
     T02830217 51008=
KARA 241453Z 04011KT 10SM OVC075 16/09 A3008 RMK AO2 SLP186
     T01610089 51015=
KARB 241453Z 27006KT 10SM BKN029 BKN036 OVC065 04/M02 A3015 RMK
     AO2 SLP217 T00441022 51004=
KASD 241453Z AUTO 04006KT 10SM -RA FEW038 SCT075 OVC095 15/08
     A3010 RMK AO2 RAB32 SLP192 P0000 60000 T01500083 53014=
KASE 241453Z 00000KT 10SM CLR 04/M08 A2996 RMK AO2 SLP090
     T00441078 58002=
KASX 241453Z AUTO 36009KT 10SM BKN075 OVC090 04/M02 A3016 RMK AO2
     SLP225 T00391017 51008=
KATY 241453Z AUTO 04009KT 10SM CLR 04/M03 A3012 RMK AO2 SLP215
     T00441033 52005=
KAUG 241453Z AUTO 10007KT 070V130 2SM BR OVC004 06/05 A3009 RMK
     AO2 RAB13E37 CIG 003V008 SLP192 P0000 60000 T00610050
     52002=
KAUS 241453Z 02008KT 10SM FEW015 OVC033 13/09 A3011 RMK AO2 SLP196
     T01280094 50005=
KAWM 241453Z AUTO 06005KT 10SM CLR 14/02 A3023 RMK AO2 SLP236
     60000 T01390017 51010=
KAXN 241453Z AUTO 02006KT 10SM CLR 03/M04 A3015 RMK AO2 SLP228
     I3001 T00331044 51005=
KAXV 241455Z AUTO 29006KT 10SM BKN021 BKN031 OVC060 05/00 A3020
     RMK AO2=
KAZO 241453Z 29008KT 10SM OVC070 07/M03 A3017 RMK AO2 SLP225
     T00671033 51006=
KBAF 241453Z 23003KT 10SM OVC029 09/03 A3003 RMK AO2 SLP170
     T00940033 53003=
KBBW 241453Z AUTO 10005KT 10SM CLR 08/M05 A2998 RMK AO2 SLP161
     T00781050 51008=
KBCB 241455Z AUTO 29008KT 220V320 10SM CLR 09/M02 A3015 RMK AO2
     T00881019=
KBCE 241453Z AUTO 26005KT 10SM CLR 03/02 A3000 RMK AO2 SLP104
     T00330017 51004=
KBDE 241453Z AUTO 10SM OVC080 03/M04 A3017 RMK AO2 SLP230
     T00331039 51010=
KBEH 241453Z AUTO 28008KT 10SM BKN080 07/00 A3020 RMK AO2 SLP229
     T00720000 51009=
KBFD 241453Z AUTO VRB05KT 10SM -RA SCT017 BKN039 OVC046 04/M01
     A3004 RMK AO2 RAB51 SLP186 P0000 60000 T00441006 53001=
KBFI 241453Z 18005KT 10SM BKN013 OVC021 08/06 A3007 RMK AO2
     RAE1354 SLP181 P0000 60000 T00780061 53030=
KBFM 241453Z 36011KT 10SM BKN110 17/08 A3011 RMK AO2 SLP194
     T01670083 50011=
KBGM 241453Z VRB06KT 10SM SCT030 BKN037 07/M01 A3003 RMK AO2
     SLP179 T00671006 53000=
KBGR 241453Z 10010KT 10SM -RA OVC011 07/04 A3014 RMK AO2 SLP208
     P0001 60009 T00670044 51004=
KBHM 241453Z 05015G23KT 10SM SCT120 14/M01 A3019 RMK AO2 SLP221
     T01441006 50004=
KBIV 241453Z AUTO 31007KT 10SM CLR 08/M03 A3018 RMK AO2 SLP224
     T00781033 51007=
KBKE 241453Z AUTO 34017KT 10SM SCT060 BKN075 06/M01 A2993 RMK AO2
     SLP139 60000 T00611006 53012=
KBKL 241453Z 25008KT 10SM FEW027 BKN060 OVC070 06/03 A3015 RMK AO2
     WSHFT 1400 RAE43 SLP212 P0001 60003 T00610028 50005=
KBKN 241455Z AUTO 17010KT CLR 14/01 A3016 RMK AO2=
KBKV 241453Z 09010KT 10SM CLR 26/19 A2999 RMK AO2 SLP155 T02560194
     50002=
KBLI 241453Z 19007KT 10SM FEW011 OVC060 08/08 A3003 RMK AO2 SLP176
     T00830078 53028=
KBMG 241453Z 02007KT 10SM CLR 08/M06 A3025 RMK AO2 SLP247
     T00831056 53009=
KBMQ 241453Z AUTO 03006KT 10SM BKN009 OVC032 11/09 A3015 RMK AO2
     SLP203 T01110089 51010=
KBNA 241453Z 03005KT 10SM FEW060 FEW250 13/M01 A3026 RMK AO2
     SLP245 T01281006 53012=
KBOI 241453Z 32009KT 10SM SCT017 SCT025 BKN033 09/05 A2987 RMK AO2
     SLP110 T00890050 51016=
KBPI 241453Z AUTO 00000KT 10SM OVC075 M01/M05 A2994 RMK AO2 SLP131
     T10111050 58001=
KBPK 241453Z AUTO VRB06KT 10SM CLR 12/M03 A3023 RMK AO2 SLP235
     T01171033 51009=
