SAUS70 KWBC 241446
METAR
K2G9 241435Z AUTO 28007G14KT 10SM SCT028 BKN041 OVC048 02/M04
     A3008 RMK AO2=
KAAA 241435Z AUTO 22005KT 10SM CLR 09/M02 A3025 RMK AO2=
KEBS 241435Z AUTO 20010KT 10SM CLR 08/M03 A3012 RMK AO2=
KEVM 241442Z AUTO 00000KT 10SM CLR 02/M06 A3015 RMK AO2=
KFWC 241435Z AUTO 19004KT 10SM CLR 08/M02 A3026 RMK AO1
     T00831018=
KGGF 241435Z AUTO 20010KT 10SM CLR 09/M03 A2992 RMK AO2=
KGGP 241435Z AUTO 24007KT 10SM CLR 05/M03 A3024 RMK AO2=
KHJH 241435Z AUTO 23012G18KT 10SM CLR 12/M02 A3005 RMK AO2
     T01201021=
KHPT 241435Z AUTO 22011KT 10SM CLR 09/M02 A3014 RMK AO2=
KI75 241435Z AUTO 15009KT 10SM SCT050 09/M02 A3015 RMK AO2
     T00891016=
KIKK 241435Z AUTO 28012KT 10SM SCT060 08/M04 A3023 RMK AO2
     T00771037 PWINO=
KIKV 241435Z AUTO 19008KT 10SM OVC080 08/M03 A3016 RMK AO2=
KMGC 241435Z AUTO 28006KT 10SM BKN075 06/M01 A3022 RMK AO2=
KOLY 241430Z AUTO 00000KT 10SM CLR 09/M04 A3027 RMK AO2 T00851036
     PWINO=
KOOA 241435Z AUTO 22008KT 10SM SCT075 10/M01 A3019 RMK AO2
     T01021015=
KOWX 241435Z AUTO 31005KT 10SM SCT024 BKN045 OVC065 06/00 A3021
     RMK AO1=
KRZT 241435Z AUTO 31007KT 10SM SCT040 BKN060 07/M02 A3021 RMK AO2
     PWINO=
KTIP 241435Z AUTO 26009KT 10SM CLR 07/M03 A3024 RMK AO2
     T00741033=
KTVK 241435Z AUTO 17008KT 10SM SCT080 SCT100 08/M03 A3018 RMK
     AO2=
KTYQ 241435Z AUTO 29003KT 10SM CLR 05/M03 A3024 RMK AO2
     T00501032=
KVWU 241435Z AUTO 00000KT 10SM CLR 02/M02 A3016 RMK AO2=
KW22 241435Z AUTO 24009KT 10SM BKN050 08/M07 A3015 RMK AO2=
KXLL 241435Z AUTO 27004G08KT 10SM CLR 10/00 A3009 RMK AO2=
KAPS 241439Z AUTO 05008KT 10SM OVC080 14/09 A3010 RMK AO2=
KDED 241430Z AUTO 06009KT 10SM SCT028 25/18 A3004 RMK AO2 LTG DSNT
     E T02460176=
KEAN 241430Z AUTO 23004KT 10SM CLR 11/M05 A2987 RMK AO2
     T01071049=
KETN 241430Z AUTO 13009KT 10SM SCT009 BKN060 OVC075 09/07 A3015
     RMK AO2 T00910067=
KMNE 241436Z AUTO 08009KT 10SM CLR 14/07 A3018 RMK AO2=
KVVS 241430Z AUTO 24009G15KT 10SM SCT029 SCT046 OVC060 07/00 A3014
     RMK AO2 T00681005=
KGLE 241435Z AUTO 12008KT 10SM OVC090 12/04 A3019 RMK AO2
     T01220041=
K6S8 241440Z AUTO 00000KT 10SM 06/M01 A2982 RMK A01 Laurel=
