SAUS80 KWBC 241500
METAR
KAID 241455Z AUTO 33008KT 10SM SCT035 06/M05 A3023 RMK AO2
     T00591049=
KSNT 241451Z AUTO 12003KT 01/00 A2984 RMK AO1 SLP072 P0007 60013
     T00110000 58001=
KNYC 241451Z AUTO 31004KT 10SM CLR 12/01 A3008 RMK AO2 SLP176
     T01220006 50000 $=
KCDJ 241451Z AUTO 15008KT 11/M02 A3018 RMK AO1 SLP226 T01111017
     58002=
KGDP 241451Z AUTO RMK AO2 SLPNO PWINO FZRANO $=
KROW 241451Z 17016KT 8SM OVC014 09/04 A3002 RMK AO2 SLP137
     T00890044 56003=
KSAD 241451Z AUTO 15003KT 10SM CLR 19/00 A2989 RMK AO2 SLP077
     T01890000 51013=
KSAN 241451Z 15005KT 10SM OVC019 16/10 A2992 RMK AO2 SLP129
     T01560100 51005=
KSAT 241451Z 04006KT 10SM FEW015 OVC021 14/11 A3010 RMK AO2 SLP182
     60000 T01440106 50002 $=
KSMX 241451Z 30003KT 1/4SM R12/1600V4000FT FG VV002 09/09 A2996
     RMK AO2 SLP147 T00890089 53005=
KVCT 241451Z 03008KT 10SM FEW014 OVC020 16/12 A3009 RMK AO2 SLP188
     T01560122 51008=
KALB 241451Z 30004KT 10SM BKN028 BKN035 OVC047 09/03 A3006 RMK AO2
     SLP180 T00940028 53002=
KBDL 241451Z 31011KT 10SM FEW027 BKN038 11/03 A3003 RMK AO2 SLP170
     T01110033 53003=
KBKW 241451Z AUTO 00000KT 10SM BKN039 06/M04 A3014 RMK AO2 SLP219
     T00611039 51004=
KCRP 241451Z 05011KT 10SM SCT013 BKN016 BKN095 18/13 A3005 RMK AO2
     SLP176 T01830133 53001=
KEKN 241451Z AUTO 29013G16KT 10SM CLR 07/M05 A3013 RMK AO2 SLP220
     T00721050 53000=
KELP 241451Z 15006KT 10SM FEW120 13/02 A2997 RMK AO2 SLP103
     T01330022 50005=
KHSE 241451Z AUTO 01007KT 340V050 10SM CLR 17/15 A3005 RMK AO2
     SLP175 T01670150 53011 $=
KHTS 241451Z 24008KT 10SM SCT055 10/M03 A3018 RMK AO2 SLP222
     T01001033 53002=
KIGM 241451Z AUTO 00000KT 10SM CLR 17/03 A2987 RMK AO2 SLP062
     T01720033 51017=
KORF 241451Z 04008KT 10SM OVC048 11/06 A3011 RMK AO2 SLP195 60000
     T01110061 51010=
KOXR 241451Z 09005KT 7SM OVC009 13/12 A2990 RMK AO2 SLP125
     T01330122 53009=
KPVD 241451Z 00000KT 10SM BKN018 11/07 A3003 RMK AO2 SLP168
     T01060072 51005=
KCQT 241447Z AUTO 00000KT 10SM OVC016 16/12 A2991 RMK AO2 SLP126
     T01610122 51014=
KABE 241451Z 33003KT 10SM CLR 11/M01 A3007 RMK AO2 SLP183
     T01061011 58006=
KCAK 241451Z 30009KT 10SM SCT019 BKN030 OVC038 04/01 A3013 RMK AO2
     RAE19B34E50 SLP212 P0000 60000 T00390011 53008=
KMYL 241451Z AUTO 23004KT 10SM -RA SCT007 BKN016 OVC021 02/02
     A2982 RMK AO2 RAE05B25 SLP105 P0001 60003 T00170017 53004=
KTEB 241451Z 31006KT 10SM CLR 12/02 A3005 RMK AO2 SLP174 T01220022
     58001=
KYNG 241451Z 27009KT 10SM BKN019 BKN034 OVC070 06/02 A3011 RMK AO2
     SLP203 60000 T00610017 53005=
KCRP 241451Z 05011KT 10SM SCT013 BKN016 BKN095 18/13 A3005 RMK AO2
     SLP176 T01830133 53001=
KELP 241451Z 15006KT 10SM FEW120 13/02 A2997 RMK AO2 SLP103
     T01330022 50005=
KIGM 241451Z AUTO 00000KT 10SM CLR 17/03 A2987 RMK AO2 SLP062
     T01720033 51017=
KJDN 241448Z AUTO 12010KT 06/M03 A2984 RMK AO1 SLP120 T00611033
     58003=
KROW 241451Z 17016KT 8SM OVC014 09/04 A3002 RMK AO2 SLP137
     T00890044 56003=
KAID 241455Z AUTO 33008KT 10SM SCT035 06/M05 A3023 RMK AO2
     T00591049=
KALB 241451Z 30004KT 10SM BKN028 BKN035 OVC047 09/03 A3006 RMK AO2
     SLP180 T00940028 53002=
KBDL 241451Z 31011KT 10SM FEW027 BKN038 11/03 A3003 RMK AO2 SLP170
     T01110033 53003=
KBKW 241451Z AUTO 00000KT 10SM BKN039 06/M04 A3014 RMK AO2 SLP219
     T00611039 51004=
KEKN 241451Z AUTO 29013G16KT 10SM CLR 07/M05 A3013 RMK AO2 SLP220
     T00721050 53000=
KHTS 241451Z 24008KT 10SM SCT055 10/M03 A3018 RMK AO2 SLP222
     T01001033 53002=
