SAUS80 KWBC 241524
METAR
KPSN 241515Z AUTO 09006G11KT 10SM BKN100 14/08 A3013 RMK AO2=
KSOA 241515Z AUTO 08005KT 10SM OVC009 11/09 A3014 RMK AO2=
KDBN 241510Z AUTO 02003KT 10SM SCT120 18/04 A3014 RMK AO2=
KDVK 241510Z AUTO 31010KT 10SM CLR 08/M01 A3025 RMK AO2=
