SAUS70 KWBC 241500 RRP
METAR
KBOK 241456Z AUTO 00000KT 10SM BKN028 OVC049 09/08 A3017 RMK AO2
     SLP217 6//// T00890078 53011=
KBTP 241456Z AUTO 29009KT 10SM SCT024 SCT044 BKN050 06/00 A3011
     RMK AO2 SLP210 T00560000 53003 TSNO $=
KBVX 241456Z AUTO 00000KT 10SM CLR 12/01 A3025 RMK AO2 SLP246
     T01220011 51011=
KCGZ 241456Z AUTO 12003KT 10SM CLR 22/M02 A2982 RMK AO2 SLP087
     6//// T02171017 51010 PNO $=
KCIU 241456Z AUTO 28006KT 1 1/4SM -SN BR BKN005 OVC010 01/M01
     A3009 RMK AO2 SLP200 P0001 60001 T00111006 51003 FZRANO=
KCMA 241455Z 00000KT 6SM BR OVC007 13/11 A2990 RMK AO2 SLP135
     T01330111 53010=
KCOD 241456Z AUTO 00000KT 10SM CLR 12/M06 A2983 RMK AO2 SLP081
     T01171061 58002=
KCOE 241456Z AUTO 17007KT 10SM BKN022 OVC026 06/03 A2990 RMK AO2
     SLP147 6//// T00560033 53015 PNO $=
KCSV 241453Z AUTO 01007KT 10SM CLR 09/M04 A3020 RMK AO2 SLP229
     T00891039 51007=
KCVN 241456Z AUTO 18012KT 4SM BR OVC004 05/05 A3006 RMK AO2
     RAB06E34 SLP180 P0000 60000 T00500050 50003=
KCWA 241455Z 24006KT 10SM SCT040 05/M04 A3014=
KLSE 241453Z 00000KT 10SM SCT060 BKN085 OVC100 06/M02 A3016 RMK
     AO2 SLP223 60000 T00561022 50004=
KRCX 241455Z AUTO 00000KT 10SM OVC100 04/M01 A3015 RMK AO2
     T00361006=
KROX 241455Z AUTO 00000KT 10SM CLR 02/M03 A3018 RMK AO2=
KSNY 241453Z AUTO VRB03KT 10SM CLR 11/M02 A2989 RMK AO2 SLP118
     T01061017 50004=
KBYS 241455Z AUTO 27008KT 10SM CLR 18/04 A2982 RMK AO2 SLP077
     T01760042 52013 $=
KGFA 241455Z 00000KT 10SM SCT080 08/02 A2977 RMK AO2A SLPNO ALSTG
     ESTMD 53003 $=
KGFA 241455Z 00000KT 10SM SCT080 08/02 A2977 RMK AO2A SLPNO ALSTG
     ESTMD 53003 $=
K1MW 241455Z AUTO 00000KT 10SM CLR 07/M04 A2989 RMK AO2 SLP121
     T00661036 50004 $=
K1NW 241455Z AUTO 00000KT 10SM BKN180 06/M04 A2989 RMK AO2 SLP119
     T00641044 50003 $=
KPIB 241456Z AUTO 03010KT 10SM FEW120 14/05 A3015 RMK AO2 SLP208
     T01390050 51009=
KPQI 241456Z AUTO 12007KT 10SM OVC017 07/03 A3019 RMK AO2 SLP252
     T00720028 58000=
KPRX 241456Z AUTO 09009KT 10SM -RA CLR 13/04 A3019 RMK AO2 SLP225
     P0000 60000 T01330039 51007=
KPTN 241456Z AUTO 05013KT 10SM OVC080 17/11 A3007 RMK AO2 SLP183
     T01670106 51009 $=
KPTV 241456Z AUTO 18004KT 10SM CLR 16/12 A2996 RMK AO2 PK WND
     19028/1411 SLP142 T01560122 53010=
KPVC 241456Z AUTO 29009KT 10SM OVC006 08/07 A3004 RMK AO2 SLP171
     T00830072 51014=
KPVG 241456Z AUTO 10SM OVC047 12/06 A3013 RMK AO2 SLP203 T01170061
     51010 $=
KPVU 241456Z 19004KT 10SM OVC100 10/02 A2992 RMK AO2 SLP111
     T01000017 50002=
KPWG 241456Z AUTO 04005KT 10SM FEW012 12/08 A3016 RMK AO2 SLP212
     T01220083 50007=
KPWT 241456Z AUTO 20005KT 10SM BKN005 OVC047 07/06 A3006 RMK AO2
     CIG 004V007 SLP185 T00670061 53028=
KRKD 241456Z AUTO 09015G21KT 8SM -RA OVC008 06/05 A3012 RMK AO2
     SLP199 P0001 60009 T00560050 53004=
KRUT 241456Z AUTO 24005KT 9SM -RA SCT009 OVC015 06/06 A3002 RMK
     AO2 SLP166 P0002 60004 T00610056 53005 $=
KSDY 241456Z AUTO 15005KT 10SM CLR 07/M07 A3001 RMK AO2 SLP181
     T00671072 58007=
KSFM 241456Z AUTO 09010KT 1 1/2SM -RA BR OVC003 08/07 A3003 RMK
     AO2 SLP175 P0000 60001 T00780072 51008=
KSFZ 241456Z AUTO VRB05KT 10SM BKN022 BKN026 BKN032 12/07 A3001
     RMK AO2 SLP165 T01170067 51001=
KSGH 241456Z AUTO 29010KT 10SM SCT027 SCT034 OVC050 06/M01 A3019
     RMK AO2 SLP233 T00561011 53007=
KSGJ 241456Z 05008KT 10SM CLR 24/17 A3006 RMK AO2 SLP180 T02390172
     53017 $=
KSGT 241456Z AUTO 05007KT 10SM CLR 13/06 A3023 RMK AO2 SLP239
     T01330061 51011=
KSGU 241456Z AUTO 11006KT 10SM CLR 16/05 A2990 RMK AO2 SLP101
     T01560050 53008=
