SAUS70 KWBC 241500 RRF
METAR
KISW 241454Z AUTO 22006KT 10SM BKN060 OVC075 06/M06 A3015 RMK AO2
     SLP220 T00561056 50002=
KIZG 241454Z AUTO VRB03KT 1 1/2SM -RA BR BKN006 OVC012 07/06 A3006
     RMK AO2 RAB37E40B42 SLP182 P0001 60001 T00670061 53003=
KJFZ 241455Z AUTO 26007KT 10SM SCT035 BKN042 06/M01 A3015 RMK AO2
     T00601014=
KJKJ 241455Z AUTO 03004KT 10SM CLR 02/M01 A3019 RMK AO2 TSNO=
KJST 241454Z AUTO 26010KT 230V290 10SM FEW036 OVC060 04/M05 A3006
     RMK AO2 SLP196 T00391050 53003=
KJYG 241455Z AUTO 01005KT 10SM 04/00 A3015 RMK AO2=
KJZI 241455Z AUTO 04005KT 10SM CLR 20/10 A3009 RMK AO2=
KKY8 241455Z AUTO 00000KT 10SM CLR 09/M03 A3027 RMK A01=
KL08 241455Z AUTO 25004KT 10SM CLR 23/05 A2976 RMK AO2=
KLAF 241454Z 24010KT 10SM CLR 08/M03 A3024 RMK AO2 SLP243
     T00781033 51006=
KLDM 241455Z AUTO 00000KT 10SM CLR 07/M05 A3015 RMK AO2
     T00731052=
KLJF 241455Z AUTO 03003KT 10SM CLR 03/M01 A3015 RMK AO2=
KLKR 241455Z AUTO 06009G17KT 4SM HZ BKN120 14/03 A3015 RMK AO2=
KLKU 241455Z AUTO 35009KT 10SM CLR 12/M02 A3014 RMK AO2
     T01211017=
KLNK 241454Z 20011KT 10SM BKN100 11/M02 A3006 RMK AO2 SLP182
     T01061017 50002=
KLNP 241455Z AUTO 35007KT 320V050 10SM CLR 05/M05 A3017 RMK
     AO2=
KLRO 241455Z AUTO 00000KT 9SM CLR 19/06 A3009 RMK AO2=
KLUA 241455Z AUTO 31008KT 270V330 10SM OVC050 09/M03 A3013 RMK
     AO2=
KTMA 241455Z AUTO VRB04KT 9SM OVC140 19/08 A3012 RMK AO2 T01860080
     $=
KTOB 241455Z AUTO 33005KT 10SM SCT060 04/00 A3014 RMK AO2=
KTQE 241454Z AUTO 15007KT 10SM FEW110 09/M01 A3008 RMK AO2 SLP187
     T00891011 58003=
KTSP 241455Z AUTO 30010KT 9SM OVC016 12/11 A3002 RMK AO2=
KTTF 241455Z AUTO 29010G14KT 10SM SCT034 BKN040 OVC070 05/M02
     A3017 RMK AO2 T00541023=
KTWT 241455Z AUTO 09003KT 10SM CLR 10/00 A3028 RMK AO2=
KTYL 241455Z AUTO 29003KT 10SM CLR 13/00 A3001 RMK AO2=
KU42 241455Z AUTO 18010KT 10SM SCT070 SCT080 OVC100 12/03 A2990
     RMK AO1 T01180026=
KUBE 241455Z AUTO 06006KT 10SM BKN037 BKN046 05/M01 A3013 RMK
     AO2=
KUIN 241454Z AUTO 00000KT 10SM FEW075 FEW095 10/M03 A3022 RMK AO2
     SLP234 T01001033 50005=
KUKT 241455Z AUTO 32007KT 10SM CLR 11/M01 A3007 RMK A01=
KUOX 241455Z AUTO 08009KT 060V120 10SM CLR 13/02 A3023 RMK AO2=
KUTA 241455Z AUTO 04008KT 10SM CLR 14/05 A3023 RMK AO2 T01370050
     $=
KUZA 241454Z AUTO 03011G15KT 10SM CLR 14/01 A3014 RMK AO2 SLP202
     T01440011 53008=
KVAY 241454Z AUTO VRB03KT 10SM CLR 12/01 A3008 RMK AO2 SLP184
     T01170006 58004=
KVGC 241455Z AUTO 31005KT 10SM -RA BKN025 BKN037 OVC080 05/00
     A3005 RMK AO2=
KVKS 241455Z AUTO 05007G13KT 360V080 10SM FEW110 14/05 A3015 RMK
     A01=
KVNC 241455Z AUTO 12009G15KT 10SM CLR 27/22 A2996 RMK AO2=
KVSF 241454Z AUTO 31004KT 8SM -RA FEW018 BKN034 OVC049 08/06 A3000
     RMK AO2 SLP164 P0003 60003 T00830056 51002=
KVTA 241454Z AUTO 27011G19KT 10SM SCT044 BKN055 07/M03 A3016 RMK
     AO2 SLP217 T00721028 53004=
KW81 241455Z AUTO 00000KT 10SM BKN070 11/M05 A3014 RMK AO1
     T01081052=
KWLD 241454Z AUTO 19013G19KT 10SM CLR 15/02 A3016 RMK AO2 SLP210
     T01500017 51009=
KX07 241455Z AUTO 09010KT 10SM FEW021 SCT070 25/21 A3000 RMK
     A01=
KY19 241455Z AUTO 11010KT 10SM CLR 02/M03 A3011 RMK AO2=
PAKN 241454Z AUTO 00000KT 10SM CLR M10/M15 A2979 RMK AO2 SLP091
     T11001150 55002 TSNO $=
KRNP 241455Z AUTO 26007KT 10SM SCT020 BKN041 OVC065 05/M01 A3015
     RMK AO2 T00451007=
KRPH 241455Z AUTO VRB03KT 10SM OVC080 12/07 A3014 RMK AO2
     T01200067 $=
KRSN 241455Z AUTO 06008KT 030V090 10SM OVC090 12/06 A3018 RMK AO2
     T01230063 $=
