SAUS80 KWBC 241532
METAR
KCBE 241525Z AUTO 32007G17KT 300V360 10SM OVC055 09/M03 A3017 RMK
     AO2 T00891033=
KJNX 241530Z AUTO 02011G17KT 10SM CLR 14/01 A3014 RMK AO2=
