SAUS80 KWBC 241454
METAR
KLZZ 241435Z AUTO 08003KT 10SM OVC034 10/07 A3013 RMK AO2
     T01000072=
