SAUS70 KWBC 241500 RRE
METAR
K05U 241450Z AUTO 24006KT 10SM 07/03 A2998 RMK A01=
K0A0 241455Z AUTO 16009KT 10SM CLR 16/M00 A2997 RMK AO2=
K0A9 241455Z AUTO 02004G10KT 10SM FEW043 10/M01 A3017 RMK AO2=
K0R0 241455Z AUTO 05008G15KT 10SM CLR 16/04 A3015 RMK AO2=
K1D1 241455Z AUTO 36005KT 10SM OVC049 02/02 A3017 RMK AO2=
K2A0 241455Z AUTO 02011KT 330V030 10SM CLR 12/M02 A3020 RMK
     A01=
K2G2 241455Z AUTO 29010G15KT 10SM BKN027 BKN040 BKN065 05/M00
     A3012 RMK A01=
K2G4 241455Z AUTO 27011G18KT 10SM OVC036 02/M07 A3007 RMK AO2=
K2M2 241455Z AUTO 06005G13KT 10SM CLR 11/M01 A3021 RMK A01=
K33N 241455Z AUTO 33004KT 10SM FEW085 11/00 A3009 RMK A01=
K3AU 241455Z AUTO 22013G16KT 10SM CLR 13/M03 A3013 RMK AO2=
K3L4 241455Z AUTO 05014KT 10SM BKN065 BKN075 15/11 A3007 RMK
     A01=
K3S8 241455Z AUTO 00000KT 10SM OVC043 07/04 A3017 RMK AO2=
K46U 241455Z AUTO 00000KT 10SM FEW043 OVC075 00/M03 A2993 RMK
     A01=
K4S2 241455Z AUTO 00000KT 10SM -RA SCT011 SCT022 OVC029 07/06
     A3007 RMK AO2 P0001=
K54A 241455Z AUTO 11009KT 10SM CLR 26/21 A2998 RMK AO2=
K5A6 241455Z AUTO 05007KT 7SM 14/03 A3018 RMK AO2 T01400032=
K5T9 241455Z AUTO 06007KT 9SM BKN009 BKN013 14/13 A3007 RMK
     A01=
K65S 241455Z AUTO 19008G14KT 160V220 10SM BKN048 06/04 A2984 RMK
     AO2=
K8A3 241455Z AUTO VRB05KT 10SM CLR 09/M04 A3021 RMK A01=
KAMG 241453Z AUTO VRB05KT 10SM FEW110 19/09 A3010 RMK AO2 SLP190
     T01890089 51012=
KAND 241456Z AUTO 09005KT 10SM BKN090 15/01 A3014 RMK AO2 SLP202
     T01500006 53008=
KART 241456Z AUTO 25007KT 10SM FEW020 OVC070 08/03 A3005 RMK AO2
     SLP177 60000 T00780028 52006=
KAVK 241500Z AUTO 21017G24KT 10SM CLR 13/M01 A3012 RMK AO2
     PWINO=
KBBB 241457Z AUTO 00000KT 10SM CLR 03/M01 A3017 RMK AO2=
KBBP 241455Z AUTO 02009G15KT 10SM OVC080 12/05 A3013 RMK AO2=
KBDN 241455Z AUTO 03004KT 10SM BKN049 05/M01 A3002 RMK AO2=
KBGF 241455Z AUTO 05007G12KT 10SM CLR 11/M02 A3021 RMK A01=
KBJJ 241456Z AUTO 33009KT 10SM -RA BKN009 BKN012 OVC039 03/02
     A3015 RMK AO2 UPB06E09RAB18SNE06B09E18 SLP219 P0000 60000
     T00280017 53008=
KBTN 241455Z AUTO 05009KT 10SM CLR 03/M03 A3014 RMK AO2=
KBUR 241453Z 16004KT 5SM HZ OVC014 14/12 A2990 RMK AO2 SLP114
     T01440117 51014=
KC83 241455Z AUTO 24014KT 9SM CLR 14/05 A2994 RMK AO2=
KCDD 241455Z AUTO 04003KT 10SM CLR 01/M06 A3020 RMK AO2=
KCEC 241456Z AUTO 04006KT 3SM BR OVC049 10/08 A3016 RMK AO2 SLP215
     T01000078 53008=
KCKN 241455Z AUTO 03006KT 10SM CLR 03/M03 A3019 RMK AO2=
KCNC 241455Z AUTO 16010KT 10SM FEW075 09/M03 A3015 RMK AO2=
KCRX 241455Z AUTO 03005G10KT 10SM CLR 13/01 A3023 RMK AO2=
KCSQ 241455Z AUTO 15013KT 10SM SCT080 SCT100 09/M02 A3010 RMK
     AO2=
KCTB 241456Z AUTO 10004KT 10SM SCT070 BKN090 07/01 A2974 RMK AO2
     SLP077 T00670011 51004=
KCXE 241455Z AUTO 10SM OVC060 12/M01 A3014 RMK AO1 T01151009=
KCXP 241455Z AUTO 29003KT 10SM CLR 09/M03 A3000 RMK AO2=
KCXW 241455Z AUTO 00000KT 10SM CLR 11/ A3023 RMK A01=
KCXY 241456Z 33007KT 10SM SCT047 11/M01 A3010 RMK AO2 SLP194
     T01061011 56006=
KCZL 241455Z AUTO 01009G16KT 10SM CLR 13/00 A3021 RMK AO2=
KDAY 241456Z 29009KT 10SM BKN024 BKN050 06/M01 A3021 RMK AO2
     SLP236 T00611011 53008 VISNO RWY 6L $=
KDIK 241456Z AUTO 13010KT 10SM CLR 06/M08 A3000 RMK AO2 SLP175
     T00611078 58002=
KDKX 241455Z AUTO 00000KT 10SM CLR 12/M02 A3021 RMK A01=
KDLZ 241455Z AUTO 28006KT SCT023 BKN065 04/M01 A3018 RMK AO2
     PWINO=
KDZB 241455Z AUTO 04004KT 10SM BKN011 OVC029 12/09 A3013 RMK AO2
     T01200088=
KE42 241455Z AUTO 16015G21KT 10SM OVC030 07/01 A3006 RMK AO2
     T00730011=
