SAUS70 KWBC 241512
METAR
KGZN 241440Z AUTO 14009KT 10SM SCT008 SCT013 BKN070 09/07 A3012
     RMK AO2=
KMHV 241440Z AUTO 30020G33KT 10SM CLR 17/06 A2988 RMK AO2=
KTFP 241415Z AUTO 06015G20KT 10SM CLR 18/13 A3003 RMK AO2
     T01750130=
K1S5 241515Z AUTO 00000KT 10SM SCT110 09/02 A2998 RMK AO2
     T00910024=
K6L4 241515Z AUTO 15004KT 10SM SCT048 07/M05 A3017 RMK AO2=
KHAE 241515Z AUTO 17004KT 10SM CLR 12/M04 A3023 RMK AO2=
KUUV 241515Z AUTO 15005KT 10SM CLR 11/M04 A3026 RMK AO2=
KW63 241515Z AUTO 02005KT 10SM BKN060 12/00 A3015 RMK AO1=
KY51 241515Z AUTO 26009KT 10SM SCT044 SCT050 05/M01 A3015 RMK AO1
     T00511009=
K2C8 241515Z AUTO 36005KT 10SM OVC050 01/M02 A3020 RMK AO2=
KD50 241515Z AUTO 13014KT 10SM CLR 05/M05 A3007 RMK AO2=
KEVM 241502Z AUTO 00000KT 10SM CLR 03/M07 A3015 RMK AO2=
KRID 241515Z AUTO 36008KT 10SM SCT034 SCT039 BKN050 05/M04 A3021
     RMK AO2=
KRRL 241515Z AUTO 23005KT 10SM CLR 04/M05 A3011 RMK AO2 T00421052
     TSNO=
K1A5 241510Z AUTO 00000KT 10SM CLR 11/M02 A3017 RMK AO2
     T01081025=
K24A 241505Z AUTO 11003KT 10SM CLR 08/M04 A3014 RMK AO2
     T00821042=
K2G4 241505Z AUTO 29013G21KT 10SM OVC036 02/M07 A3008 RMK AO2=
K2W6 241509Z AUTO 28003KT 10SM SCT085 11/00 A3013 RMK AO1=
K7W6 241510Z AUTO 01010KT 10SM BKN027 OVC090 16/10 A3007 RMK AO2
     T01610098=
KACZ 241505Z AUTO 34008KT 10SM -RA OVC085 12/05 A3012 RMK AO2
     T01170050=
KAFP 241509Z AUTO 06004KT 10SM OVC090 13/01 A3015 RMK AO2
     T01280014=
KASJ 241505Z AUTO 01007KT 10SM OVC043 11/02 A3014 RMK AO2
     T01070021=
KCGE 241505Z AUTO 01003KT 10SM SCT080 BKN090 12/00 A3012 RMK
     A01=
KCGS 241510Z AUTO 26008KT 240V300 10SM SCT055 12/M01 A3013 RMK AO2
     T01221015=
KCPC 241505Z AUTO 34009KT 10SM BKN080 13/06 A3013 RMK AO2
     T01250063=
KCTZ 241505Z AUTO 36007G16KT 10SM SCT095 OVC110 12/03 A3014 RMK
     AO2 T01150030=
KDMW 241505Z AUTO 25005KT 10SM BKN047 11/M02 A3010 RMK AO2=
KDPL 241505Z AUTO 02010KT 7SM SCT080 OVC110 11/03 A3014 RMK
     AO2=
KEDE 241510Z AUTO 01010KT 10SM OVC034 14/09 A3011 RMK AO2
     T01400089=
KEHO 241505Z AUTO 01003KT 10SM CLR 12/00 A3015 RMK AO2
     T01241001=
KEXX 241510Z AUTO 36005KT 10SM CLR 13/00 A3015 RMK AO2
     T01320002=
KEYF 241510Z AUTO 02005KT 10SM BKN070 OVC085 11/04 A3013 RMK AO2
     T01130041=
KFFA 241515Z AUTO 36009G15KT 330V040 10SM BKN021 OVC031 13/07
     A3009 RMK AO2 T01290071=
KFME 241509Z AUTO 32008KT 290V020 10SM SCT055 12/00 A3014 RMK
     AO1=
KFQD 241505Z AUTO 07003KT 10SM CLR 13/00 A3016 RMK AO2=
KGEV 241505Z AUTO 28006KT 10SM CLR 07/M07 A3012 RMK AO2
     T00661067=
KGWW 241520Z AUTO 02010G15KT 10SM OVC034 12/01 A3014 RMK AO2
     T01230014=
KHBI 241505Z AUTO 07005KT 10SM CLR 12/M01 A3017 RMK AO2
     T01151008=
KHNZ 241515Z AUTO 35004KT 10SM SCT060 11/M02 A3015 RMK AO2
     T01131019=
KHRJ 241505Z AUTO 05010KT 10SM SCT095 14/01 A3016 RMK AO2
     T01400006=
KIPJ 241505Z AUTO 08007KT 10SM CLR 13/00 A3015 RMK AO2
     T01300000=
KIXA 241510Z AUTO 03006KT 340V040 10SM OVC050 10/04 A3014 RMK
     AO2=
KLHZ 241515Z AUTO 03009KT 10SM SCT048 11/00 A3016 RMK AO2=
KMCZ 241505Z AUTO 02007KT 10SM OVC035 12/03 A3012 RMK AO2
     T01230031=
KMQI 241510Z AUTO 03015G18KT 10SM BKN023 BKN032 OVC095 14/08 A3010
     RMK AO2 T01360075=
KMRN 241505Z AUTO 00000KT 10SM CLR 13/00 A3015 RMK AO2
     T01320003=
KMWK 241505Z AUTO 28003KT 10SM CLR 11/M01 A3016 RMK AO2
     T01091012=
KOCW 241505Z AUTO 03008KT 10SM BKN090 13/05 A3012 RMK AO2
     T01320051=
KONX 241505Z AUTO 01008KT OVC036 12/03 A3011 RMK AO2 T01150032
     PWINO=
