SACA45 KWBC 241500 RRB
METAR
MSAC 241450Z 28002KT 9999 FEW027 32/25 Q1010 A2983=
