SAUS70 KWBC 241500 RRH
METAR
KSBP 241456Z 30008KT 10SM CLR 11/09 A2995 RMK AO2 SLP142 T01060089
     53006=
KSCX 241455Z AUTO 02009KT 10SM CLR 09/M05 A3021 RMK A01=
KSDF 241456Z 31009KT 10SM FEW050 09/M06 A3026 RMK AO2 SLP248
     T00941056 53008=
KSEM 241455Z AUTO 05010KT 10SM BKN110 14/04 A3016 RMK AO2=
KSLE 241456Z 19006KT 10SM FEW010 SCT050 09/07 A3012 RMK AO2 SLP201
     60000 T00890067 52018=
KSLO 241455Z AUTO 00000KT 10SM CLR 10/M01 A3026 RMK AO2
     T01031009=
KSME 241455Z AUTO 30007KT 270V330 10SM CLR 09/M01 A3022 RMK
     AO2=
KSNH 241450Z AUTO VRB05G10KT 10SM CLR 13/02 A3022 RMK A01=
KSRB 241455Z AUTO VRB06G12KT 10SM CLR 11/M04 A3022 RMK AO2=
KSRE 241455Z AUTO 19006G13KT 10SM CLR 12/04 A3017 RMK AO2=
KSTK 241455Z AUTO 00000KT 10SM SCT090 06/M01 A2990 RMK AO2=
KSYI 241455Z AUTO 36006G13KT 10SM CLR 12/M02 A3022 RMK A01=
KSZY 241455Z AUTO 05009KT 10SM 12/01 A3023 RMK A01=
KT89 241455Z AUTO VRB04KT 10SM CLR 14/06 A3003 RMK A01=
KTHA 241455Z AUTO 02008KT 10SM CLR 11/M03 A3021 RMK A01=
KTNU 241455Z AUTO 20008KT 10SM CLR 08/M01 A3015 RMK A01=
KTPH 241456Z AUTO 01004KT 10SM CLR 11/M01 A2999 RMK AO2 SLP107
     T01111011 50005=
KTQH 241455Z AUTO 14007KT 10SM CLR 14/M05 A3020 RMK AO2=
KTQV 241455Z AUTO 02008KT 360V060 10SM CLR 12/M02 A3014 RMK
     A01=
KUCY 241455Z AUTO VRB04KT 10SM CLR 13/01 A3025 RMK A01=
KUKI 241456Z AUTO 35004KT 10SM CLR 09/05 A3005 RMK AO2 SLP172
     T00940050 51011=
KUKL 241455Z AUTO 21014G19KT 10SM CLR 14/M03 A3015 RMK AO2
     T01381027=
KUSE 241455Z AUTO 31012KT 10SM SCT026 BKN031 OVC060 05/00 A3018
     RMK AO2=
KUYF 241455Z AUTO 24007KT 10SM SCT042 BKN050 06/M06 A3017 RMK
     AO2=
KVCV 241455Z 26013G21KT 10SM CLR 16/05 A2994 RMK AO2=
KVPZ 241456Z AUTO 30009KT 10SM BKN075 07/M05 A3021 RMK AO2 SLP234
     T00721050 51004=
KVTP 241455Z AUTO 27009KT 10SM SCT100 SCT120 00/M06 A3002 RMK
     AO2=
KW13 241455Z AUTO 00000KT 10SM SCT050 09/M03 A3012 RMK AO1
     T00851029=
KW78 241455Z AUTO 00000KT 10SM OVC060 12/M02 A3015 RMK AO1
     T01151022=
KWJF 241456Z 28017KT 10SM CLR 18/08 A2991 RMK AO2 SLP116 T01780083
     53017=
KXNX 241455Z AUTO 00000KT 10SM CLR 12/M01 A3027 RMK A01=
KY49 241455Z AUTO 01004KT 10SM SCT023 BKN050 OVC070 01/M05 A3015
     RMK AO2 T00081052=
PAAD 241455Z AUTO 24006KT 10SM OVC012 M29/M31 A3062 RMK AO2
     T12861315 PWINO=
PAAD 241455Z AUTO 24006KT 10SM OVC012 M29/M31 A3062 RMK AO2
     T12861315 PWINO=
PAWG 241456Z 14008KT 10SM -RA FEW012 BKN030 OVC065 06/04 A2978=
KBTN 241455Z AUTO 05009KT 10SM CLR 03/M03 A3014 RMK AO2=
KEFD 241454Z 04008KT 10SM BKN065 15/09 A3008=
K06C 241455Z AUTO 25006KT 10SM SCT060 07/M01 A3020 RMK AO2
     T00691009=
K13K 241455Z AUTO 21018G23KT 10SM CLR 15/M01 A3015 RMK AO2
     T01471007=
K1A6 241455Z AUTO 03005KT 10SM CLR 10/M03 A3022 RMK AO2
     T00981030=
K1H2 241455Z AUTO 00000KT 10SM CLR 09/M02 A3027 RMK AO2
     T00911024=
K1R8 241455Z AUTO 03010KT 10SM BKN110 16/08 A3010 RMK AO2=
K1V6 241455Z AUTO 29011KT 10SM SCT120 10/00 A2990 RMK AO2=
K20V 241455Z AUTO 00000KT 10SM BKN065 00/M03 A3001 RMK AO2=
K2IS 241455Z AUTO 12008KT 10SM SCT028 SCT039 BKN080 28/21 A2998
     RMK AO2 LTG DSNT E T02770209=
K2J3 241455Z AUTO 09006KT 10SM CLR 17/05 A3013 RMK AO2
     T01740052=
K2R9 241455Z AUTO 04008KT 10SM SCT015 OVC080 15/11 A3010 RMK AO2
     T01500113=
K3F3 241455Z AUTO 08010G16KT 10SM SCT090 BKN110 15/05 A3020 RMK
     AO2 T01460047=
K49A 241455Z AUTO 06009G17KT 10SM CLR 13/00 A3016 RMK AO2=
K4A9 241455Z AUTO 02010KT 10SM CLR 12/M01 A3019 RMK AO2
     T01231008=
K5C1 241455Z AUTO 00000KT 7SM OVC011 11/11 A3011 RMK AO1=
