SAUS70 KWBC 241520 RRF
METAR
KBTA 241515Z AUTO 12005KT 10SM SCT095 SCT120 09/M01 A3007 RMK AO2
     T00911009=
KBVN 241515Z AUTO 11006KT SCT120 08/M03 A3004 RMK AO2
     T00841033=
KBVS 241515Z AUTO 00000KT 10SM FEW008 OVC060 08/08 A3006 RMK
     A01=
KBYY 241515Z AUTO 03009KT 10SM OVC021 14/11 A3010 RMK AO2
     T01460112=
KC65 241515Z AUTO 29008G13KT 10SM OVC060 06/M03 A3020 RMK A01=
KCAV 241515Z AUTO 22009KT 10SM CLR 09/M00 A3013 RMK A01=
KCBF 241515Z AUTO 21006KT 10SM FEW095 09/M03 A3006 RMK AO2=
KCCY 241515Z AUTO 21007KT 10SM OVC080 07/M01 A3015 RMK AO2=
KCDH 241515Z AUTO 03008KT 8SM SCT110 15/05 A3020 RMK AO2=
KCFD 241515Z AUTO 07004KT 10SM OVC060 13/08 A3015 RMK AO2
     T01250081=
KCHK 241515Z AUTO 17011KT 10SM OVC080 13/05 A3014 RMK AO2
     T01340048=
KCIC 241515Z AUTO 00000KT 10SM CLR 15/02 A2996 RMK AO1=
KCIN 241515Z AUTO 15012KT 10SM FEW060 FEW095 10/M04 A3010 RMK
     AO2=
KCKF 241515Z AUTO 04007KT 10SM CLR 17/03 A3013 RMK AO2
     T01720028=
KCNI 241515Z AUTO 02005KT 10SM CLR 13/M04 A3016 RMK AO2
     T01351040=
KCOM 241515Z AUTO 13007KT 10SM OVC008 10/07 A3014 RMK AO2
     T01000072=
KCQF 241515Z AUTO 04010G18KT 10SM OVC120 16/08 A3007 RMK AO2=
KCUH 241515Z AUTO 19008G15KT 10SM SCT095 14/01 A3015 RMK AO2
     T01440007=
KCWV 241515Z AUTO 03004KT 10SM SCT120 21/05 A3011 RMK AO2
     T02060049=
KD73 241515Z AUTO 08007KT 10SM CLR 14/01 A3016 RMK AO2
     T01390010=
KDCY 241515Z AUTO 00000KT 10SM CLR 08/M05 A3027 RMK AO2
     T00771050=
KDEH 241515Z AUTO 23007G12KT 10SM BKN070 BKN095 07/M04 A3014 RMK
     AO2=
KDKR 241515Z AUTO 04006KT 10SM BKN060 OVC070 13/09 A3014 RMK
     AO2=
KDNS 241515Z AUTO RMK AO2 PNO PWINO=
KEQA 241515Z AUTO 21015G21KT 10SM CLR 16/M01 A3013 RMK AO2=
KLRU 241515Z AUTO 15006KT 10SM BKN120 17/03 A2998 RMK AO2
     T01660028=
KPMH 241515Z AUTO 33003KT 10SM BKN050 BKN065 11/M04 A3020 RMK AO2
     T01061044=
K0CO 241515Z AUTO 35009G18KT 271V031 SCT016 OVC024 M08/M11 A3004
     RMK AO2 PWINO=
K0F2 241515Z AUTO 10SM SCT075 13/04 A3015 RMK AO2 T01320037=
K4V0 241515Z AUTO 00000KT 10SM CLR 06/00 A2994 RMK AO2
     T00621003=
KAEJ 241515Z AUTO 00000KT 10SM CLR 07/M07 A2996 RMK AO2
     T00701075=
KAJZ 241515Z AUTO 00000KT 10SM OVC065 11/M03 A2995 RMK AO2
     T01111027=
KARM 241515Z AUTO 01006KT 10SM BKN022 OVC029 13/13 A3011 RMK AO2
     T01300130 TSNO=
KAXH 241515Z AUTO 05007KT 10SM BKN026 BKN031 OVC080 15/10 A3011
     RMK AO2 T01520095=
KBAM 241515Z AUTO 19005KT 10SM CLR 08/05 A2992 RMK AO1=
KBKD 241515Z AUTO 17007KT 10SM OVC075 12/07 A3015 RMK AO2
     T01230072=
KCCU 241515Z AUTO 30006KT 10SM OVC021 M02/M08 A3006 RMK AO2=
KDNA 241515Z AUTO 14008KT 10SM CLR 15/02 A2997 RMK AO2=
KE42 241515Z AUTO 16018KT 10SM OVC030 08/01 A3005 RMK AO2
     T00770012=
KEIK 241515Z AUTO 00000KT 10SM CLR 07/M04 A2992 RMK AO2
     T00711044=
KF44 241515Z AUTO 06006KT 10SM OVC095 12/05 A3014 RMK AO2=
KFTN 241515Z AUTO 07006KT 10SM OVC013 15/12 A3009 RMK A01=
KHRX 241515Z AUTO 20012KT 10SM OVC015 08/04 A3006 RMK AO2
     T00780036=
KHSG 241515Z AUTO 24003KT 10SM CLR 09/M05 A2982 RMK AO2
     T00931053=
KINJ 241515Z AUTO 06004KT 10SM OVC090 12/06 A3016 RMK AO2
     T01170064=
K05U 241510Z AUTO 00000KT 10SM 09/03 A2997 RMK A01=
K2V5 241515Z AUTO 19003KT 10SM SCT100 11/00 A2992 RMK AO2=
K33V 241515Z AUTO 19003KT 10SM CLR 04/M05 A2998 RMK AO1=
K3S8 241515Z AUTO 00000KT 10SM OVC043 07/04 A3018 RMK AO2=
K4S2 241515Z AUTO 00000KT 10SM -RA BKN022 OVC027 07/06 A3007 RMK
     AO2=
K5T9 241515Z AUTO 07006KT 10SM BKN011 14/13 A3007 RMK A01=
K66R 241515Z AUTO 03003KT 10SM OVC025 14/10 A3012 RMK AO2
     T01370103=
