SAPA31 KWBC 241500 RRB
METAR
PKWA 241520Z AUTO 08013KT 10SM SCT017 SCT024 26/24 A2979 RMK AO2
     T02640243 TSNO=
