SAUS70 KWBC 241500 RRW
METAR
KIMT 241454Z AUTO 32008KT 10SM FEW048 03/M08 A3012 RMK AO2 SLP216
     T00331078 50004=
KIND 241454Z 28007KT 10SM FEW020 07/M04 A3024 RMK AO2 SLP244 FU
     FEW020 T00671044 51009=
KIZG 241454Z AUTO VRB03KT 1 1/2SM -RA BR BKN006 OVC012 07/06 A3006
     RMK AO2 RAB37E40B42 SLP182 P0001 60001 T00670061 53003=
KJKJ 241455Z AUTO 03004KT 10SM CLR 02/M01 A3019 RMK AO2 TSNO=
KLAF 241454Z 24010KT 10SM CLR 08/M03 A3024 RMK AO2 SLP243
     T00781033 51006=
KLNK 241454Z 20011KT 10SM BKN100 11/M02 A3006 RMK AO2 SLP182
     T01061017 50002=
KLVN 241455Z AUTO 31003KT 10SM CLR 05/M03 A3015 RMK AO2=
KMIV 241454Z AUTO 30005KT 10SM BKN080 OVC095 11/02 A3009 RMK AO2
     SLP189 T01060017 58000=
KMOX 241455Z AUTO 01006KT 10SM CLR 03/M03 A3017 RMK AO2=
KN79 241455Z AUTO 29006KT 10SM BKN035 10/M00 A3007 RMK AO2
     T01001001=
KPHL 241454Z 27007KT 10SM FEW050 11/M02 A3008 RMK AO2 SLP187
     T01111022 56005=
KS32 241455Z AUTO 05005KT 10SM SCT045 02/02 A3018 RMK AO2 TSNO=
KSBY 241454Z 33005KT 10SM OVC065 11/03 A3011 RMK AO2 SLP198
     T01060028 53002=
KTQE 241454Z AUTO 15007KT 10SM FEW110 09/M01 A3008 RMK AO2 SLP187
     T00891011 58003=
KUIN 241454Z AUTO 00000KT 10SM FEW075 FEW095 10/M03 A3022 RMK AO2
     SLP234 T01001033 50005=
KVGC 241455Z AUTO 31005KT 10SM -RA BKN025 BKN037 OVC080 05/00
     A3005 RMK AO2=
KHCO 241455Z AUTO 01003KT 10SM OVC050 01/M02 A3020 RMK AO2=
KIDI 241455Z AUTO VRB05KT 10SM OVC031 05/00 A3013 RMK A01=
KILN 241454Z AUTO 26007KT 10SM BKN040 OVC047 07/M03 A3019 RMK AO2
     SLP239 T00671028 53007=
KISW 241454Z AUTO 22006KT 10SM BKN060 OVC075 06/M06 A3015 RMK AO2
     SLP220 T00561056 50002=
KLWM 241454Z 24003KT 10SM OVC012 10/06 A3003 RMK AO2 SLP170
     T01000061 50006=
KOYM 241455Z AUTO 00000KT 10SM SCT012 BKN050 OVC090 03/01 A3009
     RMK AO2 P0001 PWINO=
KPJC 241455Z AUTO 27010G14KT 10SM SCT027 BKN035 BKN060 06/00 A3012
     RMK AO2=
KPNM 241455Z AUTO 32004KT 10SM CLR 06/M04 A3015 RMK AO2=
KRDG 241454Z 34005KT 10SM FEW046 12/00 A3008 RMK AO2 SLP191
     T01170000 56006=
KTMA 241455Z AUTO VRB04KT 9SM OVC140 19/08 A3012 RMK AO2 T01860080
     $=
KUBE 241455Z AUTO 06006KT 10SM BKN037 BKN046 05/M01 A3013 RMK
     AO2=
KVAY 241454Z AUTO VRB03KT 10SM CLR 12/01 A3008 RMK AO2 SLP184
     T01170006 58004=
KY19 241455Z AUTO 11010KT 10SM CLR 02/M03 A3011 RMK AO2=
KIPT 241454Z 23009KT 200V270 10SM BKN040 09/01 A3007 RMK AO2
     SLP185 T00940006 58007=
KISQ 241455Z AUTO 32007KT 10SM BKN021 OVC048 04/M03 A3012 RMK AO2
     T00361032=
KJYG 241455Z AUTO 01005KT 10SM 04/00 A3015 RMK AO2=
KLDM 241455Z AUTO 00000KT 10SM CLR 07/M05 A3015 RMK AO2
     T00731052=
KLJF 241455Z AUTO 03003KT 10SM CLR 03/M01 A3015 RMK AO2=
KLXL 241455Z AUTO 34003KT 10SM CLR 03/M05 A3014 RMK AO2=
KMGJ 241454Z AUTO VRB03KT 10SM BKN049 BKN055 10/M01 A3003 RMK AO2
     SLP170 T01001011 58002=
KMOT 241454Z 13008KT 10SM CLR 03/M03 A3012 RMK AO2 SLP221
     T00331033 51004=
KMWM 241455Z AUTO 01008KT 10SM CLR 05/M01 A3013 RMK AO2=
KPNE 241454Z VRB06KT 10SM CLR 13/01 A3009 RMK AO2 SLP188 T01280006
     58003=
KRNP 241455Z AUTO 26007KT 10SM SCT020 BKN041 OVC065 05/M01 A3015
     RMK AO2 T00451007=
KRST 241454Z 32007KT 10SM BKN070 04/00 A3015 RMK AO2 SLP222 60000
     T00440000 51003=
KRUG 241455Z AUTO 11007KT 10SM CLR 02/M04 A3016 RMK AO2=
KRZN 241455Z AUTO 00000KT 10SM CLR 04/M03 A3014 RMK AO2
     T00411034=
KSPF 241455Z AUTO 10010KT 10SM CLR 09/M06 A2990 RMK AO2=
KTEW 241455Z AUTO 30004KT 10SM BKN022 BKN030 OVC070 05/M01 A3016
     RMK AO2 T00461008=
KTOB 241455Z AUTO 33005KT 10SM SCT060 04/00 A3014 RMK AO2=
