SAUS80 KWBC 241500 RRA
METAR
PHJR 241453Z AUTO 01004KT 10SM CLR 20/17 A2997 RMK AO2 SLP155
     T02000172 56010 TSNO=
PHKO 241453Z AUTO 02006KT 10SM CLR 22/17 A2997 RMK AO2 SLP146
     T02220167 56011 TSNO=
PHNL 241453Z 00000KT 10SM FEW024 22/20 A2996 RMK AO2 SLP144
     T02220200 56010 $=
PHTO 241453Z AUTO 00000KT 10SM BKN050 21/19 A2998 RMK AO2 SLP150
     T02110194 55005 TSNO=
KSXT 241456Z AUTO 00000KT 1/4SM FG FEW002 OVC019 02/01 A3008 RMK
     AO2 SLP196 T00170011 51008=
