SAUS70 KWBC 241532 RRA
METAR
KTTA 241525Z AUTO 02010KT 10SM CLR 13/00 A3014 RMK AO2
     T01340001=
KUKF 241525Z AUTO 13003KT 10SM CLR 12/00 A3018 RMK AO2=
KUUV 241535Z AUTO 14003KT 10SM CLR 12/M04 A3026 RMK AO2=
KVUJ 241525Z AUTO 05008KT 10SM CLR 14/03 A3019 RMK AO2
     T01410026=
KW29 241525Z AUTO 01004KT 10SM CLR 12/00 A3012 RMK AO2
     T01221001=
KW40 241525Z AUTO 03008KT 10SM BKN100 OVC120 12/03 A3014 RMK AO2
     T01170031=
KW63 241535Z AUTO 34006KT 10SM OVC060 13/00 A3015 RMK AO1=
KY51 241535Z AUTO 27006KT 10SM BKN046 BKN055 05/M01 A3015 RMK AO1
     T00491009=
K6S8 241525Z AUTO 00000KT 10SM 08/M01 A2982 RMK A01 Laurel=
