SAUS70 KWBC 241510
METAR
K8W2 241515Z AUTO 01006KT 10SM SCT050 09/M04 A3014 RMK AO1
     T00921042=
KTGI 241515Z AUTO 36009KT 10SM OVC060 12/03 A3012 RMK AO1
     T01150029=
K1P1 241515Z AUTO 08005KT 10SM OVC017 08/05 A3002 RMK AO2
     T00780053=
K2C8 241515Z AUTO 36005KT 10SM OVC050 01/M02 A3020 RMK AO2=
KBEA 241515Z AUTO 03012KT 10SM SCT080 16/12 A3004 RMK AO2
     T01550123 PWINO=
KCPK 241515Z AUTO 01004KT 10SM OVC044 12/05 A3011 RMK AO2
     T01160046=
KIUA 241515Z AUTO 32010KT 10SM RA SCT027 BKN031 OVC050 08/02 A3006
     RMK AO2 T00810020=
KRID 241515Z AUTO 36008KT 10SM SCT034 SCT039 BKN050 05/M04 A3021
     RMK AO2=
