SAPA31 KWBC 241500
METAR
AGGG NIL=
AGGH 241500Z 18002KT 9999 FEW014 SCT100 23/23 Q1009=
ANAU NIL=
AYPY NIL=
PGNT NIL=
PGRO NIL=
PGSN 241454Z 08012KT 10SM FEW017 BKN033 27/ A2985 RMK AO2 SLP128
     T0272 58004 /=
PGSN 241454Z 08012KT 10SM FEW017 BKN033 27/ A2985 RMK AO2 SLP128
     T0272 58004 $=
PGUA 241455Z AUTO 06012KT 10SM BKN012 BKN019 BKN032 26/24 A2984
     RMK AO2 CIG 012V018 CIG 009 RWY24L SLP095 T02600236 58007
     $=
PGUM NIL=
PGWT NIL=
PHJH NIL=
PHJR 241453Z AUTO 01004KT 10SM CLR 20/17 A2997 RMK AO2 SLP155
     T02000172 56010 TSNO=
PHMK 241454Z AUTO 00000KT 10SM FEW025 FEW050 21/19 A2998 RMK AO2
     SLP155 T02060189 56010 TSNO /=
PHMK 241454Z AUTO 00000KT 10SM FEW025 FEW050 21/19 A2998 RMK AO2
     SLP155 T02060189 56010 TSNO $=
PJON NIL=
PKMJ NIL=
PKMR 241454Z 08007KT 15SM FEW014TCU SCT045 BKN110 OVC300 26/24
     A2975 RMK SHRAB30E40 TCU OHD SLP078 60026 8/878 T02630236
     57010=
PKWA 241500Z AUTO 07011KT 10SM SCT055 26/24 A2979 RMK AO2
     T02630243 TSNO=
PLCH 241500Z 09006KT 9999 FEW020 27/24 Q1008=
PMDY 241456Z AUTO 10SM OVC034 18/12 A3020 RMK AO2 SLP229 T01780122
     55003 TSNO /=
PMDY 241456Z AUTO 10SM OVC034 18/12 A3020 RMK AO2 SLP229 T01780122
     55003 TSNO $=
PTKK 241450Z 00000KT 15SM FEW014 SCT120 OVC280 26/26 A2977 RMK
     SLP084 8/171 T02640264 58005=
PTKR NIL=
PTPN NIL=
PTRO 241450Z 00000KT 14SM FEW015 SCT110 BKN290 24/23 A2980=
PTSA NIL=
PTTP NIL=
PTYA 241458Z 00000KT 12SM FEW017 SCT300 25/24 A2978 RMK SLP086
     8/101 T02480241 403070248 58008=
PWAK 241455Z AUTO 06015KT 9SM FEW024 25/21 A2998 RMK AO2 SLP158
     T02480205 57013 $=
