SAUS80 KWBC 241512
METAR
KCBE 241505Z AUTO 35007KT 10SM BKN060 OVC065 08/M02 A3017 RMK AO2
     T00851024=
KJNX 241510Z AUTO 04012G15KT 10SM CLR 13/01 A3014 RMK AO2=
