SAUS80 KWBC 241500 RRF
METAR
KLZZ 241455Z AUTO 08004KT 10SM OVC034 10/07 A3012 RMK AO2
     T01040073=
KCHS 241456Z 36003KT 10SM FEW060 SCT120 BKN250 21/05 A3009 RMK AO2
     SLP190 T02110050 53015=
