SAUS70 KWBC 241506
METAR
KD50 241515Z AUTO 13014KT 10SM CLR 05/M05 A3007 RMK AO2=
KW96 241515Z AUTO 35004KT 10SM SCT070 SCT080 12/01 A3013 RMK AO1
     T01220005=
