SAUS70 KWBC 241500 RRI
METAR
K5R8 241455Z AUTO 06004KT 10SM OVC060 14/07 A3012 RMK AO2
     T01370069=
K5SM 241455Z AUTO 00000KT 10SM CLR M02/M08 A3007 RMK AO2=
K6A1 241455Z AUTO 01009KT 360V080 10SM OVC100 14/03 A3015 RMK AO2
     T01380025=
K6R3 241455Z AUTO 08003KT 10SM OVC080 15/09 A3013 RMK AO2
     T01480090 TSNO=
K81R 241455Z AUTO 12005KT 10SM BKN008 OVC031 10/08 A3016 RMK AO2
     T01020083=
K9A5 241455Z AUTO 02010G15KT 10SM CLR 11/M02 A3022 RMK AO2
     T01111019=
KA39 241455Z AUTO 13009KT 10SM CLR 23/M04 A2984 RMK AO2=
KADU 241455Z AUTO 16007KT 10SM SCT002 BKN049 OVC090 09/M03 A3009
     RMK AO2=
KAFK 241455Z AUTO 21007KT 10SM SCT060 SCT070 OVC095 09/M01 A3008
     RMK AO2 T00851008=
KAHQ 241455Z AUTO 00000KT 10SM BKN100 BKN120 08/M01 A3007 RMK AO2
     T00811012=
KAIO 241455Z AUTO 18008KT 10SM CLR 09/M01 A3009 RMK AO2=
KAJR 241455Z AUTO 00000KT 7SM CLR 14/00 A3013 RMK AO2
     T01420001=
KANW 241455Z AUTO 10010KT 10SM CLR 07/M05 A3001 RMK AO2
     T00731047=
KAQO 241455Z AUTO 04007KT 10SM OVC012 11/08 A3013 RMK AO2=
KASW 241455Z AUTO 26006G14KT 10SM SCT034 SCT040 BKN046 06/M01
     A3021 RMK AO2 T00591015=
KAUN 241455Z AUTO 00000KT 10SM CLR 15/07 A2995 RMK A01=
KAVQ 241455Z AUTO 11009KT 10SM 22/M05 A2984 RMK AO2 T02201054=
KAWG 241455Z AUTO 22009KT 10SM CLR 10/M04 A3018 RMK AO2=
KAXA 241455Z AUTO 20006KT 10SM CLR 08/00 A3012 RMK A01=
KAXX 241455Z AUTO 26016G23KT 10SM CLR 08/M04 A2998 RMK AO2
     T00821044=
KAZC 241455Z AUTO 17004KT 10SM CLR 11/04 A2997 RMK AO2=
KBBD 241455Z AUTO 07006KT 4SM BR OVC005 09/08 A3012 RMK AO2=
KBDU 241455Z AUTO 00000KT 10SM CLR 06/M02 A2991 RMK AO2=
KBEC 241455Z AUTO 19011KT 10SM CLR 13/00 A3012 RMK AO2
     T01311001=
KBGE 241455Z AUTO 06011KT 10SM SCT037 21/08 A3010 RMK AO2
     T02060084=
KBHC 241455Z AUTO 05008KT 10SM BKN120 17/06 A3009 RMK AO2=
KBIJ 241455Z AUTO 04005KT 10SM CLR 16/08 A3012 RMK AO2=
KBNW 241455Z AUTO 19010KT 10SM CLR 09/M02 A3012 RMK AO2=
KBPG 241455Z AUTO 09007KT 10SM OVC008 09/07 A3009 RMK AO2
     T00890068=
KBQK 241455Z AUTO 03007KT 10SM BKN110 20/10 A3009 RMK AO2
     T02030097=
KBQP 241455Z AUTO 06008KT 030V090 10SM OVC100 13/04 A3019 RMK AO2
     T01290044=
KBTA 241455Z AUTO 11005KT 10SM CLR 08/M01 A3007 RMK AO2
     T00801013=
KBVN 241455Z AUTO 12008KT BKN120 08/M03 A3004 RMK AO2
     T00771033=
KBVS 241455Z AUTO 18004KT 10SM OVC060 08/08 A3005 RMK A01=
KBYY 241455Z AUTO 05008KT 10SM OVC021 14/11 A3010 RMK AO2
     T01410112=
KC65 241455Z AUTO 29009KT 10SM BKN060 06/M02 A3020 RMK A01=
KCAV 241455Z AUTO 23009KT 10SM CLR 08/M01 A3014 RMK A01=
KCBF 241455Z AUTO VRB04KT 10SM CLR 08/M03 A3006 RMK AO2=
KCCY 241455Z AUTO 23005KT 10SM BKN075 OVC085 06/M01 A3015 RMK
     AO2=
KCDH 241455Z AUTO VRB06KT 8SM SCT110 15/06 A3020 RMK AO2=
KCFD 241455Z AUTO 03007KT 10SM OVC060 12/08 A3014 RMK AO2
     T01210079=
KCHK 241455Z AUTO 16011KT 10SM BKN090 13/05 A3014 RMK AO2
     T01260048=
KCIC 241455Z AUTO 32003KT 10SM CLR 13/02 A2996 RMK AO1=
KCIN 241455Z AUTO 15015KT 10SM FEW100 11/M04 A3010 RMK AO2=
KCKF 241455Z AUTO 04005G08KT 10SM CLR 17/03 A3014 RMK AO2
     T01690025=
KCNI 241455Z AUTO 01005KT 10SM CLR 13/M03 A3016 RMK AO2
     T01301030=
KCOM 241455Z AUTO 15004KT 10SM OVC008 10/07 A3015 RMK AO2 60001
     T00950070=
KCQF 241455Z AUTO 04010KT 10SM SCT042 OVC100 16/08 A3008 RMK
     AO2=
KCUH 241455Z AUTO 19007KT 10SM CLR 14/01 A3016 RMK AO2
     T01350009=
KCWV 241455Z AUTO 02004KT 10SM CLR 21/05 A3011 RMK AO2
     T02070046=
PANA 241456Z AUTO 02009KT 10SM CLR M09/M13 A2990 RMK AO2 SLP125
     T10891133 56019 FZRANO TSNO $=
