SAUS70 KWBC 241500 RRM
METAR
KPIH 241453Z 20008KT 10SM SCT042 BKN050 10/02 A2986 RMK AO2 SLP097
     T01000017 56001=
KPIL 241453Z AUTO 36015G22KT 10SM OVC015 20/18 A3000 RMK AO2
     SLP159 T02000178 51008=
KPIR 241453Z AUTO 11008KT 10SM CLR 07/M05 A3004 RMK AO2 SLP184
     T00721050 50003=
KPKB 241453Z 26011G16KT 10SM BKN049 09/M03 A3017 RMK AO2 SLP219
     T00891033 51003=
KPKD 241453Z AUTO 35003KT 10SM CLR 03/M06 A3014 RMK AO2 SLP225
     T00281056 50006=
KPLN 241454Z AUTO 27008KT 10SM OVC026 02/M02 A3013 RMK AO2 SLP210
     T00171022 53004=
KPMD 241453Z 28015G24KT 10SM CLR 17/08 A2992 RMK AO2 SLP112
     T01720083 51015=
KPMP 241453Z 15012G19KT 10SM SCT022 SCT030 BKN042 26/21 A2998 RMK
     AO2 SLP153 T02610206 51018=
KPNS 241453Z 02009G19KT 10SM FEW110 18/08 A3007 RMK AO2 SLP185
     T01830083 51007=
KPOU 241453Z 00000KT 10SM BKN033 10/03 A3004 RMK AO2 SLP170
     T01000028 51002=
KPQL 241453Z 05009G15KT 10SM OVC110 17/09 A3008 RMK AO2 SLP188
     T01720089 51011=
KPRB 241453Z AUTO 07003KT 10SM OVC004 09/08 A2999 RMK AO2 SLP153
     T00940078 53010=
KPRC 241453Z 16005KT 10SM CLR 17/02 A2994 RMK AO2 SLP070 T01720017
     53006=
KPSC 241453Z 24011KT 10SM FEW065 SCT080 OVC100 10/03 A2998 RMK AO2
     SLP151 T01000033 53019 $=
KPSF 241454Z AUTO 31007KT 10SM BKN016 OVC024 06/02 A3001 RMK AO2
     SLP159 T00610017 53003=
KPSK 241455Z AUTO 00000KT 10SM CLR 08/M01 A3012 RMK AO2
     T00781014=
KPSP 241453Z 30012G20KT 10SM CLR 23/09 A2977 RMK AO2 SLP078
     T02280094 51019=
KPSX 241453Z AUTO 04012KT 10SM SCT018 SCT024 OVC060 16/12 A3008
     RMK AO2 SLP185 T01560117 50010=
KPTK 241453Z 28007KT 9SM BKN018 OVC060 03/M02 A3014 RMK AO2
     SNB37E48 SLP213 P0000 60000 T00331017 51003=
KPUB 241453Z 23004KT 10SM BKN110 07/M01 A2990 RMK AO2 SLP103
     T00721011 50001=
KPUC 241453Z AUTO 24003KT 10SM CLR 09/M01 A2992 RMK AO2 SLP115
     T00891011 56002=
KPUW 241453Z AUTO 25015G22KT 10SM SCT022 BKN060 OVC080 06/02 A2993
     RMK AO2 SLP141 T00560017 53012=
KPWA 241453Z 19013KT 10SM OVC090 13/03 A3016 RMK AO2 SLP208
     T01280028 52008=
KRAC 241453Z AUTO 27005KT 10SM CLR 08/M05 A3019 RMK AO2 SLP229
     T00781050 51006=
KRAL 241453Z 01003KT 2SM BR OVC007 14/12 A2990 RMK AO2 CIG 005V010
     SLP114 T01390122 51010=
KRAW 241455Z AUTO 18005KT 10SM CLR 11/M02 A3020 RMK AO2=
KRBD 241453Z 10008KT 10SM BKN095 12/04 A3015 RMK AO2 SLP210
     T01170039 50004=
KRBG 241453Z AUTO 02003KT 10SM FEW030 BKN039 BKN047 09/06 A3016
     RMK AO2 SLP213 T00890056 51014=
KRBW 241455Z AUTO 34004KT 10SM CLR 20/05 A3011 RMK AO2=
KRCX 241455Z AUTO 00000KT 10SM OVC100 04/M01 A3015 RMK AO2
     T00361006=
KRDD 241453Z 02005KT 10SM CLR 13/05 A2995 RMK AO2 SLP137 T01280050
     53018=
KRHI 241453Z AUTO 00000KT 10SM FEW080 02/M05 A3012 RMK AO2 SLP217
     60000 T00171050 50004=
KRIL 241453Z AUTO 00000KT 10SM CLR 06/M01 A2996 RMK AO2 SLP125
     T00561011 58000=
KRKP 241453Z AUTO 03015KT 8SM SCT080 18/13 A3004 RMK AO2 SLP172
     T01780128 58005=
KRKS 241454Z AUTO VRB04KT 10SM CLR 04/M05 A2993 RMK AO2 SLP126
     T00391050 58000=
KRME 241453Z 30007KT 10SM BKN022 BKN028 OVC045 07/02 A3006 RMK AO2
     SLP182 T00670022 53001=
KRNT 241453Z 20003KT 10SM BKN020 OVC025 08/06 A3007 RMK AO2 SLP186
     60000 T00830056 53028=
KROX 241455Z AUTO 00000KT 10SM CLR 02/M03 A3018 RMK AO2=
KRSL 241453Z AUTO 21022G32KT 10SM CLR 14/M03 A3004 RMK AO2 PK WND
     20032/1451 SLP169 T01391033 51005 $=
KRSW 241453Z 11006KT 10SM CLR 26/22 A2997 RMK AO2 SLP146 T02610217
     51008=
KRTN 241453Z AUTO 19004KT 10SM OVC012 04/01 A2996 RMK AO2 SLP121
     T00390006 58001=
