SAUS70 KWBC 241500 RRB
METAR
KIWA 241448Z 11009KT 10SM CLR 22/M01 A2982=
PABA 241452Z AUTO 23007KT 10SM OVC006 M27/M29 A3064 RMK AO2 SLP383
     6//// T12671294 58022 FZRANO PNO $=
KBGD 241451Z AUTO 15011G21KT 10SM SCT026 OVC038 09/02 A3008 RMK
     AO2 SLP176 T00940022 51003=
KBHK 241451Z AUTO 12015KT 10SM CLR 06/M06 A2994 RMK AO2 SLP156
     T00611061 58003=
KGYI 241450Z 12010KT 10SM SCT100 13/05 A3019=
KOKB 241452Z AUTO VRB03KT 10SM OVC014 15/12 A2990 RMK AO2 SLP124
     T01500117 53008=
KSJT 241451Z 09006KT 6SM BR OVC006 10/09 A3011 RMK AO2 CIG 003V009
     SLP194 T01000094 51002=
KSMO 241451Z 22004KT 8SM SCT008 OVC012 14/12 A2991 RMK AO2 SLP126
     T01390122 51015=
KVNY 241451Z 17003KT 6SM HZ OVC011 15/12 A2989 RMK AO2 SLP116
     T01500117 52011=
KARR 241452Z 28008G17KT 10SM FEW044 07/M03 A3020 RMK AO2 SLP232
     T00671033 51007=
KDVN 241452Z AUTO 24008KT 10SM CLR 09/M04 A3023 RMK AO2 SLP237
     T00941039 51004=
KEST 241452Z AUTO VRB04KT 10SM CLR 07/M04 A3013 RMK AO2 SLP213
     T00721039 50006=
KIEN 241452Z AUTO 13008KT 10SM CLR 08/M06 A2993 RMK AO2 SLP144
     T00781056 50004=
KIJD 241452Z AUTO VRB06KT 10SM SCT020 11/06 A3003 RMK AO2 SLP168
     T01060056 53002=
KMKE 241452Z VRB04KT 10SM SCT049 08/M06 A3017 RMK AO2 SLP221
     T00781061 51007=
KMRJ 241455Z AUTO 25006KT 10SM SCT047 BKN060 BKN070 05/M06 A3020
     RMK AO2 PWINO=
KMWC 241445Z 27004KT 10SM BKN060 07/M05 A3017=
KORB 241453Z AUTO 00000KT 10SM SCT075 03/M07 A3013 RMK AO2=
KORE 241452Z AUTO 28007KT 10SM FEW020 SCT033 OVC048 09/05 A3001
     RMK AO2 SLP167 60000 T00890050 53002=
KRAP 241452Z 13008KT 10SM CLR 05/M05 A2995 RMK AO2 SLP161
     T00501050 50003=
KSPI 241452Z VRB05KT 10SM CLR 09/M01 A3025 RMK AO2 SLP247
     T00941011 51008=
KFWS 241452Z 12004KT 10SM BKN065 13/05 A3019=
KGLS 241452Z 01013KT 10SM SCT049 BKN060 OVC070 14/12 A3009 RMK AO2
     RAE34 SLP190 P0000 60000 T01440117 51019=
KGYR 241447Z 12004KT 10SM FEW250 23/01 A2980=
KHRL 241452Z 01014G19KT 10SM OVC012 19/17 A3002 RMK AO2 SLP164
     T01890172 51009=
KLGU 241451Z AUTO 21003KT 10SM OVC060 06/01 A2989 RMK AO2 SLP110
     T00560011 58002=
KLKV 241453Z AUTO 25005KT 10SM CLR 05/M03 A3001 RMK AO2 SLP162
     6//// T00501028 53011=
KMER 241453Z 33005KT 10SM CLR A2994=
KMWH 241452Z 24006KT 10SM OVC070 09/03 A2991 RMK AO2 SLP131
     T00890033 53018=
KPAE 241452Z 00000KT 10SM FEW009 BKN013 OVC060 08/04 A3005 RMK AO2
     SLP178 60004 T00780044 53027=
KTRM 241452Z AUTO 33011KT 7SM CLR 23/11 A2973 RMK AO2 SLP070
     T02280106 53019 $=
KTVY 241455Z AUTO 18015KT 10SM -RA SCT055 OVC070 11/01 A2988 RMK
     AO2=
KTWF 241453Z 23009KT 10SM FEW065 BKN080 BKN100 11/03 A2985 RMK AO2
     SLP082 T01060033 53001=
KCLE 241451Z 27008KT 10SM SCT011 BKN017 OVC090 05/02 A3014 RMK AO2
     DZE15 SLP226 P0000 60003 T00500017 51010=
KDVP 241453Z AUTO 05006KT 10SM CLR 04/M06 A3013 RMK AO2
     T00421060=
KERI 241451Z 25003KT 6SM -RA BR OVC006 02/02 A3012 RMK AO2
     UPB28E32RAB32SNE28 SLP206 P0005 60008 T00220017 53010=
KEWR 241451Z VRB05KT 10SM FEW045 FEW080 SCT120 14/01 A3005 RMK AO2
     SLP176 T01390006 58002=
KILG 241451Z VRB04KT 10SM CLR 13/M01 A3010 RMK AO2 SLP191
     T01281006 56007=
KJFK 241451Z 30006KT 10SM BKN038 BKN100 12/03 A3006 RMK AO2 SLP177
     T01170028 50002=
KJVL 241445Z 29008KT 10SM SCT055 08/M06 A3019=
KLGA 241451Z 00000KT 10SM SCT041 SCT130 12/02 A3005 RMK AO2 SLP176
     T01220017 58000=
KPIT 241451Z 26007KT 10SM -RA FEW015 BKN028 OVC039 03/00 A3012 RMK
     AO2 SLP215 P0000 60000 T00330000 53006=
