SAUS80 KWBC 241528
METAR
KNY0 241516Z AUTO 30009KT 10SM BKN027 OVC080 07/02 A3003 RMK
     AO2=
KCUL 241516Z AUTO 00000KT 10SM CLR 11/M04 A3027 RMK AO2=
