SAUS70 KWBC 241500 RRA
METAR
KLKV 241453Z AUTO 25005KT 10SM CLR 05/M03 A3001 RMK AO2 SLP162
     6//// T00501028 53011=
KLWC 241452Z AUTO 7SM CLR 12/M01 A3015 RMK AO1 SLP211 6////
     T01171006 50003=
KMDH 241452Z 16006KT 10SM CLR 10/01 A3027 RMK AO2 SLP250 T01000011
     50007=
KMEB 241452Z AUTO 05015KT 10SM -RA SCT080 BKN100 BKN120 13/00
     A3014 RMK AO2 RAB10 SLP206 P0000 60000 T01280000 51022=
KMER 241453Z 33005KT 10SM CLR A2994=
KTRM 241452Z AUTO 33011KT 7SM CLR 23/11 A2973 RMK AO2 SLP070
     T02280106 53019 $=
KTVY 241455Z AUTO 18015KT 10SM -RA SCT055 OVC070 11/01 A2988 RMK
     AO2=
KTWF 241453Z 23009KT 10SM FEW065 BKN080 BKN100 11/03 A2985 RMK AO2
     SLP082 T01060033 53001=
KTZR 241445Z 28004KT 10SM OVC050 06/M04 A3019=
KVDF 241455Z AUTO 07005KT 10SM BKN065 BKN080 BKN110 25/21 A2999
     RMK AO2=
KVER 241455Z AUTO 16010KT 10SM CLR 12/M02 A3022 RMK AO2
     T01171019=
KW75 241455Z AUTO 32005KT 10SM OVC055 11/03 A3013 RMK AO1
     T01050030=
KXSA 241455Z AUTO 02003KT 10SM BKN070 BKN085 12/01 A3014 RMK AO2
     T01150012=
KXVG 241453Z AUTO 35003KT 10SM CLR 02/M07 A3015 RMK AO2=
KMKE 241452Z VRB04KT 10SM SCT049 08/M06 A3017 RMK AO2 SLP221
     T00781061 51007=
KMLI 241452Z 00000KT 10SM CLR 11/M04 A3021 RMK AO2 SLP232
     T01111039 50003=
KMRJ 241455Z AUTO 25006KT 10SM SCT047 BKN060 BKN070 05/M06 A3020
     RMK AO2 PWINO=
KMWC 241445Z 27004KT 10SM BKN060 07/M05 A3017=
KMWH 241452Z 24006KT 10SM OVC070 09/03 A2991 RMK AO2 SLP131
     T00890033 53018=
KOIN 241455Z AUTO 21021KT 10SM CLR 15/01 A3000 RMK AO1
     T01450007=
KOKB 241452Z AUTO VRB03KT 10SM OVC014 15/12 A2990 RMK AO2 SLP124
     T01500117 53008=
KOKC 241452Z 18012KT 10SM BKN085 BKN150 BKN250 12/04 A3016 RMK AO2
     SLP211 T01170044 53007=
KOMA 241452Z 17004KT 10SM BKN110 08/M02 A3008 RMK AO2 SLP190
     T00781017 58001=
KORB 241453Z AUTO 00000KT 10SM SCT075 03/M07 A3013 RMK AO2=
KORE 241452Z AUTO 28007KT 10SM FEW020 SCT033 OVC048 09/05 A3001
     RMK AO2 SLP167 60000 T00890050 53002=
KOTM 241453Z AUTO 19009KT 10SM OVC075 09/M03 A3018 RMK AO2 SLP224
     T00891033 50002=
KOWA 241453Z AUTO 01006KT 10SM SCT041 SCT050 BKN070 04/M01 A3014
     RMK AO2=
KPAE 241452Z 00000KT 10SM FEW009 BKN013 OVC060 08/04 A3005 RMK AO2
     SLP178 60004 T00780044 53027=
KPBH 241455Z AUTO 00000KT 10SM OVC031 03/M04 A3011 RMK AO2
     T00251042=
KPNC 241453Z AUTO 21006KT 10SM CLR 14/01 A3015 RMK AO2 SLP207
     T01440011 53005=
KPTB 241455Z AUTO 00000KT 10SM OVC060 12/M02 A3015 RMK AO2
     T01171025=
KPWK 241452Z 30006KT 10SM BKN060 08/M04 A3020 RMK AO2 SLP232
     T00831044 51005=
KPYM 241452Z AUTO 27005KT 10SM OVC012 11/07 A3002 RMK AO2 SLP168
     T01060067 51008=
KRAP 241452Z 13008KT 10SM CLR 05/M05 A2995 RMK AO2 SLP161
     T00501050 50003=
KRHV 241447Z 00000KT 10SM SCT010 SCT110 10/08 A3001=
KSGF 241452Z 16010KT 10SM CLR 11/M02 A3019 RMK AO2 SLP224
     T01111017 51007=
KSNK 241455Z AUTO 17006KT 10SM OVC011 08/07 A3013 RMK AO2
     T00840067=
KSPA 241455Z AUTO 05006KT 10SM CLR 13/00 A3014 RMK AO2=
KSPI 241452Z VRB05KT 10SM CLR 09/M01 A3025 RMK AO2 SLP247
     T00941011 51008=
KSUX 241452Z 13007KT 10SM OVC110 08/M02 A3009 RMK AO2 SLP198
     T00831017 50000=
KTAN 241452Z AUTO VRB04KT 10SM BKN017 OVC022 11/07 A3002 RMK AO2
     SLP166 T01110072 51003=
PATA 241452Z 09010KT 10SM BKN090 M12/M21 A3004 RMK AO2 SLP180
     T11221206 58018=
KSBD 241454Z 00000KT 2SM BR BKN006 OVC009 14/11 A2991=
KTOA 241450Z 12007KT 7SM SCT011 BKN015 15/13 A2990=
KLSE 241453Z 00000KT 10SM SCT060 BKN085 OVC100 06/M02 A3016 RMK
     AO2 SLP223 60000 T00561022 50004=
