SAUS70 KWBC 241500 RRO
METAR
TISX 241453Z 11005KT 10SM FEW028 BKN035 BKN095 26/24 A2992 RMK AO2
     RAB06E42 SLP129 P0014 60014 T02560239 51004=
KCVO 241456Z AUTO 18004KT 10SM OVC029 08/07 A3015 RMK AO2 RAE56
     SLP212 P0001 60001 T00780067 52019=
KCWI 241456Z AUTO VRB05KT 10SM CLR 08/M03 A3022 RMK AO2 SLP243
     T00831028 50004=
KDIJ 241456Z AUTO 00000KT 10SM OVC060 03/M01 A2989 RMK AO2 SLP131
     60001 T00281006 58007=
KDYR 241456Z AUTO VRB03KT 10SM CLR 13/02 A3027 RMK AO2 SLP258
     T01280022 51015=
KEAT 241455Z AUTO 31012KT 10SM FEW120 09/00 A2990 RMK AO2 SLP127
     T00940000 53017=
KEEN 241456Z AUTO VRB03KT 10SM FEW045 BKN055 10/04 RMK AO2 SLPNO
     T01000039 $=
KEGE 241456Z 00000KT 10SM CLR 03/M04 A3000 RMK AO2 SLP074
     T00331039 58001=
KEHR 241456Z AUTO 06003KT 10SM CLR 09/M03 A3029 RMK AO2 SLP257
     T00941028 52013=
KEKQ 241456Z AUTO VRB04KT 10SM FEW050 09/M03 A3025 RMK AO2 SLP244
     P0003 60007 T00941028 53006=
KEKY 241456Z AUTO 05008KT 10SM CLR 14/01 A3018 RMK AO2 SLP066
     T01390011 51005=
KENV 241456Z AUTO 04003KT 10SM CLR 10/02 A2989 RMK AO2 SLP111
     T01000022 58001=
KESC 241456Z AUTO 01009KT 10SM CLR 04/M06 A3015 RMK AO2 SLP220
     T00391061 50000=
KEUL 241456Z AUTO 28014G23KT 10SM BKN042 08/04 A2990 RMK AO2
     SLP124 T00830039 53021=
KEWK 241456Z AUTO 21018G21KT 10SM CLR 14/00 A3011 RMK AO2 SLP195
     T01390000 50003=
KFAM 241456Z AUTO VRB03KT 7SM CLR 10/M02 A3025 RMK AO2 SLP257
     T01001017 51004=
KFCI 241456Z AUTO 03006KT 10SM BKN065 BKN075 12/M04 A3015 RMK AO2
     SLP219 T01171039 51004=
KFKL 241456Z AUTO 28005KT 10SM SCT019 SCT042 BKN050 04/00 A3009
     RMK AO2 RAB18E30 SLP201 P0000 60000 T00440000 51004=
KFLP 241456Z AUTO 11003KT 10SM CLR 11/00 A3025 RMK AO2 SLP245
     T01060000 51008=
KFNL 241456Z VRB03KT 10SM CLR 08/M03 A2992 RMK AO2 SLP111
     T00781033 50003=
KFOD 241456Z AUTO 20007KT 10SM CLR 09/M02 A3014 RMK AO2 SLP227
     T00891022 58001=
KFRM 241456Z AUTO 02003KT 9SM BKN075 05/M02 A3015 RMK AO2 SLP223
     T00501022 50003=
KFXE 241453Z 18009KT 10SM SCT035 BKN055 27/21 A2998 RMK AO2 SLP154
     6//// T02720206 51017 PNO=
KGAD 241456Z AUTO 01017G20KT 10SM CLR 13/00 A3019 RMK AO2 SLP229
     6//// T01330000 50007 PNO $=
KGAI 241456Z AUTO VRB04KT 10SM BKN049 12/00 A3012 RMK AO2 SLP214
     T01170000 58005=
K1M4 241456Z AUTO 04008G14KT 350V080 10SM CLR 12/01 A3022 RMK AO2
     SLP228 T01220006 51005=
KADF 241456Z AUTO 02006KT 10SM CLR 13/07 A3022 RMK AO2 SLP233
     T01330067 51005=
KAFJ 241456Z AUTO 28013KT 10SM SCT043 BKN075 06/M02 A3016 RMK AO2
     SLP221 T00611022 53007=
KAIZ 241456Z AUTO 18008KT 150V210 10SM CLR 11/M03 RMK AO2 SLPNO
     T01111028 $=
KAJO 241456Z AUTO 26006KT 10SM OVC010 13/12 A2991 RMK AO2 SLP125
     T01330117 53011=
KARG 241456Z AUTO 04006KT 10SM CLR 12/04 A3025 RMK AO2 SLP246
     T01220044 51010=
KASH 241456Z 00000KT 10SM BKN020 11/07 A3001 RMK AO2 SLP169
     T01110067 50001=
KAWO 241456Z AUTO 17005KT 10SM -RA FEW005 SCT023 OVC044 08/07
     A3007 RMK AO2 RAB1359E17B49 SLP186 P0001 60004 T00780067
     53029=
KBHB 241456Z AUTO 09011KT 10SM OVC010 06/04 A3015 RMK AO2 SLP213
     60000 T00560039 50002=
KBID 241456Z AUTO 04005KT 10SM OVC004 08/07 A3005 RMK AO2 SLP176
     T00780067 53003=
KBKX 241456Z AUTO 05011KT 10SM CLR 05/M02 A3012 RMK AO2 SLP226
     T00501022 51004=
KBLM 241456Z AUTO 28004KT 10SM BKN080 OVC100 11/03 A3008 RMK AO2
     SLP186 P0001 60001 T01060033 55001=
KBMI 241456Z 28008KT 10SM CLR 09/M03 A3025 RMK AO2 SLP247
     T00891028 53006=
