SAUS80 KWBC 241500
METAR
KP28 241456Z AUTO 20015G24KT 13/M01 A3010 RMK AO1 SLP190 T01331006
     50003 $=
KALK 241456Z AUTO 22009KT 10SM CLR 19/M08 A2999 RMK AO2 SLP073
     T01941078 51009=
KGNA 241456Z AUTO 13005KT 01/M03 A3020 RMK AO1 SLP237 T00111033
     51008=
KP60 241456Z AUTO 00000KT M03/M04 A2992 RMK AO1 SLP141 T10281044
     58001=
K2WX 241456Z AUTO 12010KT 08/M05 A2992 RMK AO1 SLP147 T00831050
     50002=
KAAT 241455Z AUTO 24005KT 10SM CLR 04/M01 A3003 RMK AO2 SLP161
     T00391011 51021=
KCAO 241455Z AUTO 22017G27KT 10SM OVC016 06/02 A2994 RMK AO2 PK
     WND 21031/1404 SLP124 T00610017 56002=
KANJ 241455Z AUTO 28006KT 1SM -SN BR BKN005 OVC015 01/01 A3007 RMK
     AO2 SLP188 P0003 60005 T00110006 50007=
KDLH 241455Z 11005KT 10SM OVC060 02/M05 A3014 RMK AO2 SLP224
     T00171050 51007=
KDVL 241456Z AUTO 04006KT 10SM OVC042 02/M06 A3021 RMK AO2 SLP263
     T00221061 53016 FZRANO=
KEAR 241456Z AUTO 21012KT 10SM BKN100 12/M02 A3000 RMK AO2 SLP164
     T01171017 51006=
KFWA 241454Z COR 29006KT 10SM FEW018 BKN023 BKN055 06/M02 A3020
     RMK SLPNO=
KMKG 241455Z 28008KT 10SM SCT040 09/M04 A3017 RMK AO2 SLP220
     T00891044 51007=
KPHP 241455Z AUTO 09008KT 10SM CLR 06/M03 A3000 RMK AO2 SLP168
     T00611028 50002=
KAST 241455Z AUTO 21003KT 10SM SCT029 OVC035 08/07 A3010 RMK AO2
     RAB20E31 SLP192 P0000 60000 T00780067 51012=
KMEH 241456Z AUTO VRB03KT 4SM -SN BR OVC001 02/00 A2995 RMK AO2
     RAB32E33UPB33E39SNE20B39 SLP153 P0001 60001 T00170000
     53008=
KGPI 241455Z 14004KT 9SM -RA OVC031 07/07 A2980 RMK AO2 SLP096
     P0004 60006 T00670067 52010=
KGPZ 241456Z AUTO 31005KT 10SM CLR 03/M06 A3016 RMK AO2 SLP233
     T00281056 50006=
KHON 241455Z AUTO 09008KT 10SM CLR 07/M03 A3010 RMK AO2 SLP204
     T00721028 50005=
KCIR 241455Z AUTO 08003KT 10SM CLR 10/03 A3027 RMK AO2
     T01020031=
KLIC 241455Z AUTO 27004KT 10SM CLR 10/M02 A2990 RMK AO2 SLP101
     T01001017 52000=
KRNO 241455Z 21004KT 10SM CLR 11/M02 A2998 RMK AO2 SLP119
     T01061022 53003=
KSCK 241455Z 30004KT 10SM CLR 14/08 A2993 RMK AO2 SLP136 T01390078
     53007=
KIKW 241455Z AUTO 28006KT 10SM SCT036 BKN049 OVC065 06/M03 A3013
     RMK AO2 T00551031=
KTKV 241455Z AUTO 10003KT 10SM SCT039 04/M05 A3012 RMK AO2
     T00421049 PWINO=
KSYN 241455Z AUTO 00000KT 10SM CLR 05/00 A3015 RMK AO2
     T00530001=
KY23 241455Z AUTO 33003KT 10SM SCT048 05/M02 A3014 RMK AO2
     T00501018=
KRLD 241455Z AUTO 25008KT 10SM SCT055 BKN070 OVC080 11/03 A2998
     RMK AO2 T01070030=
KSEP 241455Z AUTO 12005KT 10SM SCT010 SCT070 OVC080 11/07 A3017
     RMK AO2 T01080073=
K4BM 241455Z AUTO 00000KT 10SM CLR 00/M10 A3006 RMK AO2=
KMWN 241451Z 12029KT 1/16SM FZDZ FZFG VV000 M04/M04 RMK VRY LGT
     ICG AND GICG=
KD07 241456Z AUTO 13013KT 08/M06 A2999 RMK AO1 SLP172 T00781061
     $=
KSPD 241456Z AUTO 20022G29KT 09/02 A2992 RMK AO1 PK WND 20029/1455
     SLP105 T00940017 58002=
