SAUS70 KWBC 241500 RRN
METAR
KT35 241455Z AUTO 00000KT 10SM BKN043 OVC060 12/08 A3015 RMK AO2
     T01150081=
KTIP 241455Z AUTO 00000KT 10SM CLR 08/M04 A3024 RMK AO2
     T00781039=
KVDI 241455Z AUTO 36003KT 10SM SCT120 18/06 A3012 RMK AO2=
K17J 241455Z AUTO 07010KT 10SM CLR 19/07 A3010 RMK AO2
     T01920071=
K18A 241455Z AUTO 12004KT 10SM OVC085 13/02 A3022 RMK AO2
     T01300022=
K19S 241455Z AUTO 19018G23KT 7SM BKN043 11/01 A3002 RMK AO2
     T01090012=
K2G9 241455Z AUTO 29007KT 10SM SCT034 BKN039 OVC050 02/M03 A3009
     RMK AO2=
K2J5 241455Z AUTO 34007KT 10SM CLR 18/05 A3013 RMK AO2
     T01790048=
K2V6 241459Z AUTO 33003KT 10SM BKN100 08/M02 A2991 RMK AO2=
K3K3 241455Z AUTO 17014G18KT 10SM CLR 09/01 A2997 RMK AO2=
K6P9 241455Z AUTO 14004KT 10SM SCT006 BKN075 09/07 A3015 RMK AO2
     T00940070=
K7BM 241455Z AUTO 00000KT 10SM CLR 03/M07 A3000 RMK AO2=
KAPS 241456Z AUTO 06006G14KT 10SM OVC080 14/08 A3010 RMK AO2=
KAZE 241455Z AUTO 05007KT 10SM SCT110 18/08 A3010 RMK AO2
     T01780080=
KBDG 241455Z AUTO 10005KT 10SM 08/06 A3003 RMK AO1 T00760055=
KBMT 241455Z AUTO 04007KT 10SM OVC060 14/08 A3011 RMK AO2
     T01420081=
KC99 241455Z AUTO 33009G22KT 10SM CLR M04/M09 A3001 RMK AO2=
KCBK 241455Z AUTO 18012G17KT 10SM CLR 12/01 A2997 RMK AO2
     T01180015=
KCCO 241455Z AUTO 03007KT 10SM OVC110 12/01 A3016 RMK AO2
     T01240005=
KCPW 241455Z AUTO 22017G23KT M1/4SM SN OVC001 M05/M05 A3010 RMK
     AO2 P0002=
KCTJ 241455Z AUTO 01012G16KT 10SM BKN110 12/M01 A3020 RMK AO2
     T01161011=
KCZT 241455Z AUTO 10SM OVC012 13/12 A3008 RMK AO2=
KE11 241455Z AUTO 12011KT 10SM OVC005 08/08 A3007 RMK AO2
     T00800080=
KEBG 241455Z AUTO 02009KT 10SM OVC012 17/15 A3005 RMK AO2
     T01700145=
KEBS 241455Z AUTO 20010KT 10SM CLR 09/M04 A3012 RMK AO2=
KFSK 241455Z AUTO 20012KT 10SM CLR 13/M02 A3018 RMK AO2
     T01311018=
KGCD 241455Z AUTO 25008KT 10SM BKN041 BKN050 OVC065 04/00 A2998
     RMK AO2 T00401004=
KGGF 241455Z AUTO 20008KT 10SM CLR 10/M02 A2992 RMK AO2=
KGGP 241455Z AUTO 29009KT 10SM SCT045 07/M03 A3023 RMK AO2=
KGNB 241455Z AUTO 20003KT 10SM SCT050 OVC060 M01/M05 A3002 RMK AO2
     T10151052=
KGVT 241455Z AUTO 11008KT 10SM BKN110 13/04 A3018 RMK AO2 TSNO
     T01300039=
KHBV 241455Z AUTO 05007KT 10SM OVC007 15/13 A3007 RMK AO2
     T01470126=
KHHW 241455Z AUTO 09004KT 10SM 12/05 A3019 RMK AO2=
KHJH 241455Z AUTO 23012KT 10SM CLR 13/M02 A3005 RMK AO2
     T01301020=
KHSP 241455Z AUTO 30009G15KT 10SM CLR 04/M05 A3007 RMK AO2
     T00431051=
KI35 241458Z AUTO 32009KT 10SM CLR 10/M05 A3020 RMK AO2=
KIKK 241455Z AUTO 28012KT 10SM CLR 08/M04 A3023 RMK AO2 T00821040
     PWINO=
KJCA 241455Z AUTO 16004KT 10SM BKN085 14/02 A3016 RMK AO2
     T01400025=
K0F2 241455Z AUTO 10SM BKN075 OVC090 12/03 A3016 RMK AO2
     T01180033=
KAJZ 241455Z AUTO 00000KT 10SM OVC065 10/M02 A2996 RMK AO2
     T01031021=
KAXH 241455Z AUTO 06005KT 10SM SCT031 BKN070 OVC080 16/10 A3010
     RMK AO2 T01600099=
K04V 241448Z AUTO 30008KT 10SM 06/M06 A3001 RMK AO2=
K6I2 241455Z AUTO 30005KT 10SM CLR 10/M04 A3025 RMK AO2=
K8A0 241450Z AUTO 06010G15KT 10SM CLR 12/00 A3020 RMK AO2=
KADT 241450Z AUTO 21012G16KT 10SM SCT120 13/01 A3001 RMK AO2
     T01280012=
KAFO 241450Z AUTO 00000KT 10SM BKN060 OVC070 M01/M06 A2992 RMK
     AO2=
KANK 241450Z AUTO 36005KT 10SM CLR 07/M04 A3003 RMK AO1
     T00651037=
KBMC 241450Z AUTO 11009KT 5SM SCT041 OVC048 07/04 A2990 RMK AO1
     T00670036=
KCQB 241450Z AUTO 15011KT 10SM CLR 13/04 A3017 RMK AO2
     T01340041=
KFGX 241455Z AUTO 31008KT 10SM CLR 07/M01 A3022 RMK AO2
     T00721014=
