SAUS70 KWBC 241500 RRP
METAR
KX60 241455Z AUTO 07009KT 040V120 10SM CLR 24/17 A3002 RMK AO2
     T02440172=
KXNA 241453Z 14007KT 10SM CLR 12/M02 A3020 RMK AO2 SLP224
     T01221017 51007=
KY63 241455Z AUTO 04004KT 10SM CLR 02/02 A3017 RMK AO2
     T00160016=
KYIP 241453Z 31007KT 10SM FEW029 BKN047 OVC065 04/M03 A3016 RMK
     AO2 SLP217 T00441028 53006=
KZZV 241453Z AUTO 29009KT 10SM FEW040 OVC060 06/M03 A3017 RMK AO2
     SLP220 T00611028 52006=
PAAQ 241453Z AUTO 00000KT 10SM CLR M03/M10 A2953 RMK AO2 SLP002
     T10281100 53009 TSNO=
PAKW 241453Z AUTO 18007KT 10SM BKN036 OVC045 05/02 A2980 RMK AO2
     RAB15E32 SLP091 P0001 60002 T00500022 51008 TSNO=
K10G 241455Z AUTO 27015G19KT 10SM SCT030 SCT041 BKN049 06/M01
     A3014 RMK AO2=
KADS 241447Z 08011G15KT 13SM BKN100 14/M01 A3017=
KCWA 241455Z 24006KT 10SM SCT040 05/M04 A3014=
KEMT 241445Z 00000KT 4SM CLR 14/12 A2991=
KFLL 241453Z 19006KT 10SM FEW030 BKN050 BKN080 BKN250 24/22 A2997
     RMK RAE05=
KPAO 241447Z VRB03KT 6SM HZ SKC 11/08 A3000=
