SAUS70 KWBC 241500 RRC
METAR
KLGD 241456Z AUTO 32009KT 10SM -RA FEW021 SCT028 06/02 A2998 RMK
     AO2 RAB08 SLP159 P0000 60000 T00560017 51015=
KLLJ 241455Z AUTO 16003KT 10SM SCT032 BKN090 OVC100 07/02 A2981
     RMK AO2 RAB19E47 SLP070 P0001 60001 T00670017 55001=
KLPC 241456Z AUTO RMK AO2 SLPNO 6//// PWINO FZRANO $=
KLRD 241456Z 04010KT 10SM OVC011 15/12 A3007 RMK AO2 SLP183
     T01500122 51011=
KMRF 241456Z AUTO 15008KT 120V180 10SM OVC012 09/04 A3008 RMK AO2
     SLP160 T00890044 51005=
KOCH 241456Z AUTO 06005KT 10SM FEW065 SCT100 13/07 A3016 RMK AO2
     SLP216 T01330067 51010 PWINO $=
KOTH 241456Z 12004KT 10SM BKN009 OVC016 09/08 A3019 RMK AO2 CIG
     007V012 SLP223 60002 T00890083 51014=
K3D2 241455Z AUTO 34004KT 10SM BKN085 02/M03 A3016 RMK AO2
     T00151031=
K82C 241455Z AUTO 25009G14KT 10SM BKN044 OVC050 05/M03 A3017 RMK
     AO2 T00491028=
KADC 241456Z AUTO 34003KT 10SM CLR 03/M06 A3015 RMK AO2 TSNO=
KAEL 241455Z AUTO 00000KT 10SM 06/M02 A3014 RMK AO2=
KAUM 241457Z AUTO 00000KT 10SM CLR 05/M01 A3014 RMK AO2=
KI23 241455Z AUTO 29011KT 10SM BKN037 OVC044 05/M03 A3018 RMK
     AO1=
KI67 241455Z AUTO 32006KT 10SM OVC043 06/M02 A3024 RMK AO1=
KI74 241455Z AUTO 33006KT 10SM BKN020 BKN027 OVC060 04/00 A3019
     RMK AO2=
KIGQ 241455Z AUTO 26005KT 10SM BKN070 08/M03 A3021 RMK AO2
     T00751027=
KIRS 241455Z AUTO 31006KT 10SM SCT031 BKN041 OVC070 05/M06 A3018
     RMK AO2 T00451061=
KJPX 241455Z AUTO 30004KT 10SM BKN026 OVC075 11/04 A3004 RMK AO2
     T01070035 FZRANO=
KJYM 241455Z AUTO 29009KT 10SM SCT021 BKN027 OVC060 03/00 A3016
     RMK AO2 T00321003=
KLBE 241450Z 23007KT 10SM FEW020 SCT035 BKN048 04/00 A3013=
KSTE 241455Z AUTO 28004KT 10SM SCT090 06/M09 A3014 RMK AO2
     T00561088=
KVAF 241455Z AUTO 04020KT 4SM HZ 23/19 A2999 RMK A01=
KVVV 241455Z AUTO 04005KT 10SM SCT060 03/M03 A3016 RMK AO2=
KY31 241455Z AUTO 27015G18KT 10SM SCT037 BKN045 04/M05 A3010 RMK
     AO2 T00431046=
KY70 241455Z AUTO 31007KT 10SM SCT033 SCT039 BKN060 06/M06 A3015
     RMK AO2 T00631056=
K2P2 241455Z AUTO 34006KT 10SM SCT080 OVC090 02/M05 A3016 RMK AO2
     T00231048=
KAJG 241455Z AUTO 00000KT 10SM CLR 09/M04 A3027 RMK AO2
     T00911036=
KAUH 241455Z AUTO 22006KT 10SM CLR 09/M02 A3002 RMK AO2
     T00851024=
KC09 241455Z AUTO 30011KT 10SM 08/M03 A3021 RMK AO2 T00821030=
KCFJ 241455Z AUTO 26007KT 10SM CLR 06/M07 A3025 RMK AO2
     T00601071=
KFKS 241455Z AUTO 36003KT 10SM CLR 05/M02 A3016 RMK AO2
     T00481025=
KFPK 241455Z AUTO 28006KT 10SM SCT030 BKN040 OVC070 04/M02 A3015
     RMK AO2 T00431020=
KGGI 241455Z AUTO 20008KT 10SM SCT070 BKN080 BKN100 10/M01 A3018
     RMK AO2 T00951012=
KHAI 241455Z AUTO 28008KT 10SM SCT037 SCT050 OVC060 06/M02 A3018
     RMK AO2 T00601025=
KHCD 241455Z AUTO 01006KT 10SM SCT022 SCT028 04/M02 A3016 RMK AO2
     T00441019=
KHSB 241455Z AUTO 00000KT 10SM CLR 09/03 A3028 RMK AO2
     T00890026=
KIKT 241500Z AUTO 03018G27KT 10SM FEW120 21/15 A2997 RMK A01=
KJVY 241455Z AUTO 36010KT 320V020 10SM CLR 08/M03 A3023 RMK AO2
     PWINO=
KLWA 241455Z AUTO 30006KT 10SM CLR 07/01 A3019 RMK AO2
     T00700012=
KOQN 241455Z AUTO 29005KT 10SM SCT050 11/M02 A3008 RMK AO2=
KRQB 241455Z AUTO 29010G15KT 10SM BKN047 06/M05 A3013 RMK AO2
     T00561051=
KSAR 241455Z AUTO 13006KT 10SM CLR 09/00 A3027 RMK AO2
     T00911002=
KSUE 241456Z AUTO 06005KT 10SM SCT040 SCT048 BKN090 03/M03 A3017
     RMK AO2 SLP224 60001 T00281033 51007=
KULM 241455Z AUTO 02004KT 10SM 04/M01 A3015 RMK AO2=
KBPC 241455Z AUTO 18013KT 10SM OVC030 08/01 A3008 RMK AO2=
KBQX 241455Z AUTO 02019G25KT 6SM HZ OVC015 17/14 A3007 RMK A01=
