SAUS70 KWBC 241500 RRJ
METAR
KD73 241455Z AUTO 04005KT 10SM SCT080 14/02 A3015 RMK AO2
     T01370017=
KDCY 241455Z AUTO 00000KT 10SM CLR 07/M05 A3027 RMK AO2
     T00721050=
KDEH 241455Z AUTO VRB03KT 10SM SCT065 BKN080 BKN095 06/M03 A3014
     RMK AO2=
KEQA 241455Z AUTO 20013G17KT 10SM CLR 15/00 A3013 RMK AO2=
KLRU 241455Z AUTO 16006KT 10SM BKN120 16/03 A2999 RMK AO2
     T01560031=
KN03 241455Z AUTO 00000KT 10SM SCT023 BKN038 OVC090 05/01 A3005
     RMK AO2=
KRNH 241455Z AUTO 00000KT 10SM SCT023 SCT030 04/00 A3015 RMK AO2
     T00400002=
KROG 241458Z 16007KT 10SM CLR 12/M02 A3020 RMK AO2 SLP227
     T01221022 51007=
KDKR 241455Z AUTO 05006KT 10SM FEW060 BKN075 13/09 A3013 RMK
     AO2=
KDNS 241455Z AUTO RMK AO2 PNO PWINO=
KDQH 241455Z AUTO 08003KT 10SM CLR 18/07 A3013 RMK AO2
     T01800067=
KDUC 241455Z AUTO 16007KT 10SM CLR 13/04 A3018 RMK AO2
     T01260045=
KDUX 241455Z AUTO 17017G22KT 10SM OVC020 07/02 A3003 RMK AO2
     T00700018=
KDVO 241455Z AUTO 00000KT 10SM CLR 11/08 A2998 RMK AO2=
KDZJ 241455Z AUTO 05004KT 10SM CLR 11/00 A3016 RMK AO2
     T01121005=
KE16 241455Z AUTO 00000KT 1 1/2SM BR OVC003 08/08 A3002 RMK
     AO2=
KE38 241455Z AUTO 28003KT 10SM CLR 10/05 A3010 RMK AO2
     T01030045=
KE41 241455Z AUTO 13007KT 10SM OVC004 09/08 A3010 RMK AO2
     T00890079=
KEBA 241455Z AUTO 06007KT 030V100 10SM BKN090 14/02 A3015 RMK AO2
     T01360019=
KECU 241455Z AUTO 08008KT 10SM 11/10 A3012 RMK AO2=
KEGT 241455Z AUTO 21010G14KT 10SM SCT120 12/00 A3015 RMK AO2
     T01220000=
KENL 241455Z AUTO 00000KT 10SM CLR 10/01 A3026 RMK AO2
     T01000007=
KEOK 241455Z AUTO 00000KT 10SM FEW065 09/M02 A3022 RMK A01=
KERV 241455Z AUTO 08003KT 10SM OVC010 12/10 A3011 RMK AO2
     T01200096=
KEZZ 241455Z AUTO 18011KT 10SM CLR 12/M02 A3016 RMK AO2
     T01151022=
KF00 241455Z AUTO 10006KT 10SM BKN100 13/05 A3019 RMK AO2
     T01320049=
KFEP 241455Z AUTO 31006KT 10SM CLR 07/M01 A3022 RMK AO2
     T00741012=
KFET 241455Z AUTO 10004KT 10SM CLR 08/00 A3007 RMK AO2
     T00821001=
KFFL 241455Z AUTO 22009KT 10SM SCT070 BKN080 10/M06 A3019 RMK
     A01=
KFHB 241455Z AUTO 01008KT 10SM CLR 21/18 A3007 RMK AO2=
KFKR 241455Z AUTO 27007G14KT 10SM CLR 06/M04 A3023 RMK AO2=
KFMM 241455Z AUTO 00000KT 10SM CLR 06/M03 A2991 RMK AO2=
KFOA 241455Z AUTO 15004KT 10SM CLR 09/M02 A3027 RMK AO2=
KFPY 241455Z AUTO 05004KT 10SM SCT110 20/16 A3005 RMK AO2 60001
     T02030160=
KFSW 241455Z AUTO 21007KT 10SM 10/M03 A3021 RMK AO2=
KFWC 241455Z AUTO 00000KT 10SM CLR 09/M03 A3027 RMK AO1
     T00861030=
KFXY 241455Z AUTO 29005KT 10SM CLR 06/M02 A3014 RMK AO2=
KFZG 241455Z AUTO 04005KT 10SM SCT110 18/06 A3012 RMK AO2
     T01750056=
KGAO 241455Z AUTO 04012G17KT 10SM OVC090 19/13 A3006 RMK AO2
     T01910127=
KGBG 241455Z AUTO 23006KT 10SM CLR 10/00 A3023 RMK AO2 T01040001
     TSNO=
KGCM 241455Z AUTO 15009KT 10SM CLR 13/02 A3019 RMK AO2=
KGDJ 241455Z AUTO 13005KT 10SM OVC090 12/06 A3018 RMK AO2
     T01180060=
KGLW 241455Z AUTO 35003KT 10SM CLR 09/00 A3025 RMK AO2
     T00940001=
KGMJ 241455Z AUTO 18007KT 160V220 10SM CLR 13/M02 A3018 RMK
     AO2=
KGPC 241455Z AUTO 26007KT 230V340 10SM CLR 07/M04 A3025 RMK AO2
     T00671038=
KGWB 241455Z AUTO 28007KT 10SM SCT045 BKN055 OVC065 05/M01 A3020
     RMK AO2=
KGZL 241455Z AUTO 13010KT 10SM CLR 14/03 A3019 RMK AO2=
KHCR 241455Z AUTO 00000KT 10SM BKN090 02/M01 A2992 RMK AO2=
KHDC 241455Z AUTO 04006KT 10SM OVC095 15/07 A3011 RMK AO2
     T01460066=
KHDE 241455Z AUTO 22013KT 10SM SCT100 11/M01 A2998 RMK AO2
     T01091013=
KHDL 241455Z AUTO RMK AO2 PNO PWINO TSNO=
