SAUS70 KWBC 241500 RRR
METAR
KLSE 241453Z 00000KT 10SM SCT060 BKN085 OVC100 06/M02 A3016=
KLZU 241456Z 00000KT 10SM CLR 13/01 A3015 RMK AO2 SLP219 T01330006
     51012=
KM19 241456Z AUTO VRB04KT 10SM CLR 11/07 A3026 RMK AO2 SLP244
     6//// T01110067 51013 PNO $=
KMBL 241456Z AUTO VRB05KT 10SM CLR 06/M04 A3016 RMK AO2 SLP217
     T00561039 51006=
KMKT 241456Z AUTO 01004KT 10SM SCT075 BKN085 04/00 A3016 RMK AO2
     SLP225 T00440000 51006=
KMML 241456Z AUTO 01008KT 10SM FEW008 OVC080 04/01 A3016 RMK AO2
     SLP226 T00390006 51006=
KMQY 241456Z 34004KT 10SM CLR 12/M01 A3026 RMK AO2 SLP254
     T01171006 52008=
KMRF 241456Z AUTO 15008KT 120V180 10SM OVC012 09/04 A3008 RMK AO2
     SLP160 T00890044 51005=
KMSV 241456Z AUTO VRB06KT 10SM SCT034 08/M01 A3004 RMK AO2 SLP180
     T00781006 55001=
KMTW 241456Z AUTO VRB03KT 10SM CLR 06/M04 A3016 RMK AO2 SLP220
     T00611039 51005=
KMVN 241456Z AUTO VRB03KT 10SM CLR 10/M01 A3027 RMK AO2 SLP257
     T01001011 51005=
KMYR 241456Z 35010KT 10SM OVC100 16/08 A3010 RMK AO2 SLP192
     T01560083 53016=
KOAJ 241456Z 35006KT 7SM OVC080 12/06 A3011 RMK AO2 SLP200 60000
     T01170061 52021=
KOCH 241456Z AUTO 06005KT 10SM FEW065 SCT100 13/07 A3016 RMK AO2
     SLP216 T01330067 51010 PWINO $=
KOKK 241456Z AUTO 29007KT 10SM SCT070 06/M03 A3023 RMK AO2 SLP245
     6//// T00611033 51008 PNO $=
KOLU 241456Z AUTO 10008KT 10SM BKN100 08/M02 A3006 RMK AO2 SLP188
     60000 T00781022 50004=
KOTG 241456Z AUTO 04006KT 10SM CLR 06/M04 A3013 RMK AO2 SLP219
     6//// T00561044 51007 PNO $=
KOTH 241456Z 12004KT 10SM BKN009 OVC016 09/08 A3019 RMK AO2 CIG
     007V012 SLP223 60002 T00890083 51014=
KOWB 241456Z 02004KT 10SM CLR 09/M03 A3028 RMK AO2 SLP256
     T00891033 53012=
KTVF 241456Z AUTO 04006KT 10SM SCT060 02/M04 A3019 RMK AO2 SLP238
     6//// T00221044 51007 FZRANO=
KUCP 241456Z AUTO 24007KT 10SM FEW024 BKN035 BKN042 06/01 A3012
     RMK AO2 SLP222 T00560006 52004=
KUDG 241456Z AUTO 02009KT 10SM BKN080 12/04 A3014 RMK AO2 SLP207
     60000 T01220044 51015=
KVBT 241456Z AUTO 16007KT 10SM CLR 12/M02 A3021 RMK AO2 SLP233
     T01221017 51008=
KVIS 241456Z AUTO 29004KT 10SM CLR 15/11 A2995 RMK AO2 SLP148
     T01500106 51016=
KWVL 241456Z AUTO VRB06KT 10SM -RA OVC007 06/05 A3008 RMK AO2
     SLP215 P0001 60003 T00560050 50000=
KWWD 241456Z AUTO 34005KT 10SM OVC065 10/03 A3011 RMK AO2 SLP198
     60000 T01000033 53002 $=
KY50 241456Z AUTO VRB03KT 10SM SCT044 SCT070 BKN100 06/M04 A3016
     RMK AO2 SLP219 6//// T00561044 50002 $=
KYKN 241456Z AUTO 10004KT 10SM SCT110 07/M01 A3009 RMK AO2 SLP209
     T00721011 58000=
PABV 241456Z AUTO 20010KT 10SM CLR M04/M11 A2956 RMK AO2 SLP016
     T10441106 53003 FZRANO=
PACM 241456Z AUTO 00000KT CLR M13/M14 A3003 RMK AO2 SLP166
     T11281139 58022 PWINO FZRANO $=
PAFE 241456Z AUTO 15007KT 10SM -RA FEW030 OVC036 04/03 A2975 RMK
     AO2 SLP087 P0003 60010 T00440028 53016 $=
PAFM 241456Z AUTO 02009KT 10SM CLR M11/M18 A3024 RMK AO2 SLP249
     T11061183 56016 FZRANO=
PAGL 241456Z AUTO 04018G23KT 10SM BKN120 M07/M14 A3011 RMK AO2
     SLP192 T10671139 58019 FZRANO=
PAGN 241456Z AUTO 00000KT 10SM FEW034 BKN055 OVC075 05/04 A2969
     RMK AO2 RAE32 SLP042 P0001 60004 T00500044 53004=
PAKP 241456Z AUTO 03008KT 9SM -SN CLR M24/M27 A3026 RMK AO2 SLP335
     P0000 60000 T12391267 58018 FZRANO=
PANI 241456Z AUTO VRB06KT 10SM CLR M11/M16 A2992 RMK AO2 SLP126
     T11061161 56014 FZRANO $=
PANV 241456Z AUTO 04011G20KT 10SM CLR M09/M16 A2992 RMK AO2 SLP246
     T10941156 56013 FZRANO TSNO=
