SAUS70 KWBC 241500 RRN
METAR
KRUE 241453Z AUTO 00000KT 10SM CLR 12/02 A3023 RMK AO2 SLP232
     T01220022 51009=
KRVS 241453Z 18012KT 10SM CLR 14/02 A3017 RMK AO2 SLP221 T01390022
     51002=
KRWF 241453Z AUTO 02005KT 10SM SCT065 BKN080 05/01 A3015 RMK AO2
     SLP220 T00500006 51007=
KRWI 241453Z AUTO 02010KT 10SM OVC040 13/01 A3014 RMK AO2 SLP206
     T01280006 53010=
KRWL 241453Z AUTO 24007KT 10SM CLR 06/M04 A2992 RMK AO2 SLP105
     T00611039 58003=
KRXE 241453Z AUTO 03004KT 10SM -RA BKN043 OVC050 04/01 A2986 RMK
     AO2 RAB36 SLP111 P0000 60000 T00440006 58003=
KSAC 241453Z 21003KT 10SM CLR 12/07 A2993 RMK AO2 SLP135 T01220067
     53009=
KSTP 241453Z 01004KT 10SM FEW039 BKN055 06/M01 A3016 RMK AO2
     SLP218 T00561011 50002=
KSTS 241453Z 18003KT 10SM CLR 09/07 A2998 RMK AO2 SLP146 T00890067
     53008=
KSWO 241453Z 19012KT 10SM CLR 15/02 A3015 RMK AO2 SLP206 T01500017
     53003=
KTCC 241453Z AUTO 22013KT 10SM OVC016 06/03 A3000 RMK AO2 SLP147
     T00610033 50007=
KTCL 241453Z 06010KT 10SM CLR 15/03 A3018 RMK AO2 SLP217 T01500028
     50002=
KTDZ 241453Z AUTO 28010KT 10SM OVC075 07/M02 A3018 RMK AO2 SLP223
     T00671017 51006=
KTHV 241453Z AUTO 24004KT 10SM FEW043 SCT050 10/00 A3010 RMK AO2
     SLP196 T01000000 58005=
KTIW 241453Z 23006KT 10SM BKN007 OVC012 08/06 A3007 RMK AO2 SLP186
     T00780061 53034=
KTKI 241453Z 08007KT 10SM OVC100 13/06 A3018 RMK AO2 SLP225
     T01280061 50007=
KTKX 241455Z AUTO 06005KT 7SM CLR 13/03 A3025 RMK AO2=
KTMB 241453Z 15007KT 10SM FEW032 SCT050 BKN110 26/22 A2998 RMK AO2
     RAB1357E38 SLP150 P0026 60028 T02560222 51017=
KTOI 241453Z AUTO 05010KT 10SM SCT110 16/05 A3015 RMK AO2 SLP206
     T01610050 51020=
KTOP 241453Z 20006KT 10SM CLR 12/00 A3013 RMK AO2 SLP203 T01220000
     50003=
KTOR 241453Z AUTO 15005KT 10SM CLR 07/M04 A2988 RMK AO2 SLP118
     T00671044 50003=
KTPA 241453Z 07006KT 10SM FEW060 BKN075 24/19 A2998 RMK AO2 SLP152
     T02440194 50003=
KTPF 241455Z AUTO 09007KT 10SM CLR 25/20 A2998 RMK AO2=
KTRL 241453Z AUTO 07009KT 10SM BKN100 12/02 A3017 RMK AO2 SLP216
     T01220022 51008=
KTTD 241453Z 00000KT 10SM FEW015 BKN042 OVC055 10/06 A3012 RMK AO2
     RAB16E44 SLP200 P0000 60000 T01000061 53025=
KTTN 241453Z 33004KT 10SM CLR 12/01 A3006 RMK AO2 SLP175 T01170006
     58004=
KTUL 241453Z 17015G21KT 10SM FEW250 14/01 A3017 RMK AO2 SLP216
     T01440006 51004=
KTVC 241453Z 32006KT 10SM SCT037 BKN250 05/M03 A3014 RMK AO2
     SLP211 T00501033 50007=
KTVL 241453Z AUTO 17004KT 10SM CLR 02/M03 A3004 RMK AO2 SLP157
     T00171033 53000=
KTVR 241453Z AUTO 04011KT 10SM OVC110 14/04 A3017 RMK AO2 SLP223
     T01440044 51007=
KTWM 241455Z AUTO 07006KT 10SM CLR 02/M05 A3015 RMK AO2=
KTXK 241453Z 07006KT 10SM OVC100 14/04 A3019 RMK AO2 SLP223
     T01390044 52008=
KTYR 241453Z 09008KT 10SM OVC100 12/04 A3016 RMK AO2 SLP210
     T01220039 51009=
KSAF 241453Z 18005KT 10SM CLR 09/01 A2997 RMK AO2 SLP090 T00890006
     55001=
KSBA 241453Z 08007KT 9SM SCT009 14/12 A2989 RMK AO2 SLP122
     T01440117 53013 $=
KSBM 241453Z AUTO 31008KT 10SM CLR 08/M04 A3015 RMK AO2 SLP217
     T00781039 51005=
KSDL 241453Z 14005KT 10SM CLR 24/M02 A2981 RMK AO2 SLP071
     T02391017 51011=
KSEG 241453Z AUTO 19004KT 10SM BKN040 BKN049 09/01 A3009 RMK AO2
     SLP192 T00940011 58005=
KSFB 241453Z 05005KT 10SM CLR 25/19 A3002 RMK AO2 SLP164 T02500194
     53013=
KSFF 241453Z 19004KT 10SM FEW040 OVC050 07/03 A2990 RMK AO2 SLP128
     T00670028 53018=
KSGR 241453Z 06008KT 10SM OVC029 16/10 A3009 RMK AO2 SLP190
     T01610100 50011=
