SAHA31 KWBC 241430 RRA
METAR
MTPP 241452Z 30005KT 220V360 9999 FEW025 29/20 Q1012 A2990=
