SPUS70 KWBC 241452
SPECI
KMSS 241448Z AUTO 25009KT 7SM -RA FEW010 OVC015 06/04 A3004 RMK
     AO2 P0001=
KBKL 241448Z 26009KT 10SM FEW012 SCT036 OVC060 06/03 A3015 RMK AO2
     WSHFT 1400 RAE43 P0001=
KEWB 241448Z 00000KT 10SM OVC015 10/07 A3002 RMK AO2=
KAOH 241449Z AUTO 28007KT 10SM SCT022 BKN050 OVC065 05/00 A3019
     RMK AO2=
KPTK 241449Z 28008KT 9SM BKN018 OVC060 03/M02 A3014 RMK AO2
     SNB37E48 P0000=
