SPUS70 KWBC 241506
SPECI
KBOW 241510Z 09008KT 10SM BKN012 25/20 A3000=
KCLE 241502Z 25009KT 10SM FEW011 BKN048 OVC065 05/01 A3014 RMK AO2
     T00500011=
KGKJ 241502Z AUTO 32009KT 10SM FEW011 BKN018 OVC034 04/01 A3009
     RMK AO2 T00390011=
KALI 241503Z AUTO 04007KT 10SM OVC010 15/14 A3005 RMK AO2
     T01500139=
KAVX 241503Z AUTO 11007KT 1/4SM FG VV002 12/12 A2991 RMK AO2
     T01170117 $=
KCMA 241503Z 07003KT 7SM OVC006 13/11 A2991 RMK AO2 T01330111=
KCVO 241504Z AUTO 18004KT 10SM OVC030 08/06 A3016 RMK AO2=
KLEW 241504Z AUTO 09008KT 3SM -RA BR OVC006 06/06 A3008 RMK AO2
     CIG 005V010 PNO $=
KPSX 241503Z AUTO 03010KT 10SM BKN018 BKN023 OVC060 16/12 A3008
     RMK AO2 T01560117=
