SPUS80 KWBC 241520
SPECI
KRNM 241516Z 11003KT 2SM BR OVC003 12/11 A2990 RMK AO2
     T01220111=
KUIL 241516Z AUTO 00000KT 9SM SCT006 OVC015 08/07 A3006 RMK AO2
     T00780072=
