SPUS80 KWBC 241528
SPECI
KALB 241524Z 00000KT 10SM BKN030 OVC045 09/03 A3006 RMK AO2
     T00940028=
KPVD 241524Z 21005KT 10SM FEW022 SCT027 11/07 A3002 RMK AO2
     T01110072=
KDRT 241525Z AUTO 12007KT 10SM OVC015 15/11 A3008 RMK AO2
     T01500106=
