SPUS70 KWBC 241534
SPECI
KDEW 241530Z AUTO 19012KT 10SM SCT017 OVC035 07/03 A2988 RMK AO2
     T00670028=
KGON 241530Z 27009KT 10SM SCT085 12/08 A3003 RMK AO2 T01170078
     $=
KOPF 241530Z 10012KT 1 1/4SM +RA BR BKN024 BKN036 OVC047 21/19
     A2999 RMK AO2 LTG DSNT S P0062 T02110194=
KPSX 241530Z AUTO 04012KT 10SM FEW018 SCT023 OVC065 16/12 A3008
     RMK AO2 T01610122=
PASC 241531Z 24005KT 3/4SM R06/2600VP6000FT BR VV003 M27/M29 A3061
     RMK AO2 I1000 T12671289=
KCVN 241532Z AUTO 17009KT 2 1/2SM BR OVC004 06/05 A3005 RMK
     AO2=
KGLR 241531Z AUTO VRB05G18KT 10SM OVC030 03/M06 A3009 RMK AO2
     T00281056=
KOLM 241531Z 22007KT 10SM FEW014 SCT025 BKN085 08/07 A3009 RMK AO2
     T00830067=
KRUT 241532Z AUTO 23006KT 9SM -RA BKN010 OVC016 06/05 A3002 RMK
     AO2 CIG 008V013 P0000 $=
KSGR 241531Z 05006KT 10SM OVC032 17/10 A3010 RMK AO2 T01670100=
