SPUS70 KWBC 241522
SPECI
KARB 241518Z 30006KT 9SM BKN031 BKN040 OVC065 04/M03 A3016 RMK AO2
     T00441033=
KBID 241519Z AUTO VRB05KT 10SM FEW004 SCT011 BKN090 08/07 A3005
     RMK AO2=
KCMA 241518Z 05005KT 7SM OVC007 13/11 A2991 RMK AO2 T01330111=
KOPF 241518Z 10016G21KT 3/4SM +RA BR BKN020 OVC038 21/18 A3000 RMK
     AO2 P0041 T02060183=
KDTW 241519Z 31009KT 10SM BKN028 BKN040 OVC095 05/M03 A3017 RMK
     AO2 T00501028=
KHQM 241519Z AUTO 28005KT 10SM FEW015 SCT023 BKN029 10/06 A3008
     RMK AO2 T01000061=
KMFI 241519Z AUTO 25007KT 1SM -SN BKN027 BKN037 OVC045 02/M02
     A3014 RMK AO2 SNB11 P0000 T00171017=
KMLB 241519Z 10009KT 10SM VCTS FEW026 27/19 A2999 RMK AO2
     T02670194=
KPAE 241519Z 01003KT 10SM FEW011 OVC060 08/04 A3006 RMK AO2
     T00780044=
KSLK 241519Z AUTO VRB04KT 9SM SCT007 OVC013 04/02 A2999 RMK AO2
     RAB02E13 P0000 T00390022=
