SPUS70 KWBC 241514
SPECI
KAVX 241510Z AUTO 10007KT 3/4SM BR VV002 12/11 A2991 RMK AO2
     T01170111 $=
KBJJ 241510Z AUTO 34009KT 10SM UP SCT008 BKN038 OVC047 03/02 A3015
     RMK AO2 RAE10UPB10 P0000 T00280017=
KPTK 241510Z 27006KT 10SM SCT020 OVC065 03/M02 A3014 RMK AO2
     T00331022=
KRBG 241510Z AUTO 00000KT 10SM BKN028 OVC039 09/06 A3016 RMK AO2
     T00890056=
KSFZ 241511Z AUTO VRB04KT 10SM SCT025 BKN033 12/07 A3001 RMK
     AO2=
PAIN 241511Z AUTO 00000KT 10SM FEW014 M22/M24 A2975 RMK AO2
     FZRANO=
KKLS 241512Z AUTO 00000KT BKN012 OVC019 08/07 A3013 RMK AO2 P0001
     PWINO $=
KOLM 241511Z 22006KT 10SM SCT012 BKN019 OVC026 08/07 A3008 RMK AO2
     T00780067=
