SPUS80 KWBC 241510
SPECI
PASN 241506Z AUTO 11017G25KT 1 1/2SM -SN BR BKN006 OVC014 00/M01
     A2972 RMK AO2 P0000 T00001011 TSNO=
KAPN 241507Z AUTO 27009G20KT 10SM OVC031 04/M04 A3010 RMK AO2
     T00391044=
