SPUS80 KWBC 241452
SPECI
KANJ 241448Z AUTO 27006KT 1SM -SN BR BKN005 OVC013 01/01 A3006 RMK
     AO2 P0002 T00060006=
