SPUS70 KWBC 241444
SPECI
KBID 241441Z AUTO 36004KT 10SM OVC004 07/06 A3005 RMK AO2=
KIZG 241440Z AUTO 05008KT 1 1/2SM BR OVC008 06/06 A3005 RMK AO2
     RAB37E40 P0001 T00610056=
KBOI 241441Z 29005KT 10SM FEW022 SCT029 BKN036 09/05 A2987 RMK AO2
     T00890050=
KCLE 241441Z 27007KT 10SM SCT011 BKN015 OVC050 05/01 A3013 RMK AO2
     DZE15 P0000 T00500011=
KFIG 241441Z AUTO 27009KT 10SM BKN031 BKN040 OVC048 06/M02 A3007
     RMK AO2 T00611017=
KMML 241442Z AUTO 36007KT 10SM FEW008 OVC080 03/01 A3016 RMK
     AO2=
