SPUS80 KWBC 241524
SPECI
KMYL 241520Z AUTO 28006KT 10SM BKN006 OVC018 03/02 A2983 RMK AO2
     RAE1458 P0000 T00280022=
KCAR 241521Z AUTO 13007KT 10SM SCT024 09/03 A3017 RMK AO2
     T00890028=
