SPUS80 KWBC 241518
SPECI
PADG 241510Z 06018KT 15SM SKC M12/M18 A3021=
KFWA 241515Z 29007KT 10SM SCT021 BKN030 BKN055 06/M02 A3020=
