SPUS70 KWBC 241536
SPECI
KAUG 241533Z AUTO 11010G15KT 1 3/4SM BR OVC005 06/04 A3010 RMK AO2
     CIG 004V009 P0001 T00610044=
KFST 241533Z AUTO 12009KT 10SM OVC015 11/06 A3005 RMK AO2
     T01060061 $=
KTAN 241533Z AUTO 10SM SCT018 13/07 A3002 RMK AO2 T01280067=
KTIW 241533Z 22006KT 10SM OVC010 08/06 A3008 RMK AO2 CIG 008V013
     T00780061=
