SPUS70 KWBC 241512
SPECI
KBMQ 241508Z AUTO 04006KT 10SM BKN010 OVC032 11/09 A3014 RMK AO2
     T01110089=
KRUT 241509Z AUTO 24005KT 4SM -RA BR BKN009 OVC015 06/06 A3002 RMK
     AO2 CIG 006V013 P0000 $=
PAPB 241500Z AUTO 13022G26KT 3SM -RA OVC014 06/M01 A2969 RMK AO2
     PK WND 13026/1457 P0000 T00611011 TSNO $=
PAPB 241500Z AUTO 13022G26KT 3SM -RA OVC014 06/M01 A2969 RMK AO2
     PK WND 13026/1457 P0000 T00611011 TSNO $=
